{"version": 0.6, "generator": "Overpass API 0.7.59.5 b201bb38", "osm3s": {"timestamp_osm_base": "2023-04-20T17:45:24Z", "copyright": "The data included in this document is from www.openstreetmap.org. The data is made available under ODbL."}, "elements": [{"type": "node", "id": 243762168, "lat": 51.4765054, "lon": -0.0046057, "tags": {"tourism": "viewpoint"}}, {"type": "node", "id": 248617998, "lat": 51.5010897, "lon": -0.0404578, "tags": {"ele": "9", "man_made": "hill", "name": "Stave Hill", "tourism": "viewpoint", "wikidata": "Q7604796", "wikipedia": "en:Stave Hill"}}, {"type": "node", "id": 253801699, "lat": 51.5777464, "lon": -0.482696, "tags": {"tourism": "viewpoint"}}, {"type": "node", "id": 262289990, "lat": 51.5293038, "lon": -0.0062931, "tags": {"tourism": "viewpoint"}}, {"type": "node", "id": 266976402, "lat": 51.5400937, "lon": -0.3732401, "tags": {"man_made": "peak", "tourism": "viewpoint"}}, {"type": "node", "id": 301471453, "lat": 51.4476878, "lon": -0.0676187, "tags": {"created_by": "Potlatch 0.10c", "tourism": "viewpoint"}}, {"type": "node", "id": 310527489, "lat": 51.6226807, "lon": -0.2356185, "tags": {"created_by": "Potlatch 0.10f", "name": "Millfield", "tourism": "viewpoint"}}, {"type": "node", "id": 402735697, "lat": 51.4449229, "lon": -0.2947744, "tags": {"description": "Protected view to St Paul's Cathedral", "direction": "60", "name": "King Henry VIII's Mound", "tourism": "viewpoint", "wikidata": "Q97399728"}}, {"type": "node", "id": 447919552, "lat": 51.5477848, "lon": -0.0545415}, {"type": "node", "id": 447919559, "lat": 51.5478062, "lon": -0.0544275}, {"type": "node", "id": 447919564, "lat": 51.5478749, "lon": -0.0544608}, {"type": "node", "id": 447919570, "lat": 51.5478535, "lon": -0.0545748}, {"type": "node", "id": 459784772, "lat": 51.3630387, "lon": -0.0592524, "tags": {"tourism": "viewpoint"}}, {"type": "node", "id": 538090937, "lat": 51.5003582, "lon": -0.1200415, "tags": {"tourism": "viewpoint", "viewpoint": "telescope"}}, {"type": "node", "id": 538090938, "lat": 51.496109, "lon": -0.1208733, "tags": {"tourism": "viewpoint", "viewpoint": "telescope"}}, {"type": "node", "id": 538344436, "lat": 51.5364225, "lon": -0.1554046, "tags": {"name": "Clore Rainforest Lookout", "tourism": "viewpoint", "url": "http://www.zsl.org/zsl-london-zoo/exhibits/clore-rainforest-lookout/about-the-clore-rainforest-lookout,634,AR.html"}}, {"type": "node", "id": 559055914, "lat": 51.5163278, "lon": -0.4529965, "tags": {"tourism": "viewpoint"}}, {"type": "node", "id": 566604666, "lat": 51.4947421, "lon": 0.0515821, "tags": {"amenity": "viewing_platform", "description": "Thames, London City Airport, North Woolwich", "direction": "292-90", "source": "gps+mapnoter", "tourism": "viewpoint"}}, {"type": "node", "id": 569700954, "lat": 51.5395287, "lon": -0.1606936, "tags": {"tourism": "viewpoint"}}, {"type": "node", "id": 600889670, "lat": 51.571923, "lon": -0.1649738, "tags": {"tourism": "viewpoint"}}, {"type": "node", "id": 641353298, "lat": 51.5123883, "lon": -0.0140128, "tags": {"description": "brick clocktower", "tourism": "viewpoint"}}, {"type": "node", "id": 793455823, "lat": 51.4541617, "lon": -0.2999432, "tags": {"direction": "230", "tourism": "viewpoint"}}, {"type": "node", "id": 793455839, "lat": 51.4549652, "lon": -0.3006673, "tags": {"direction": "235", "tourism": "viewpoint"}}, {"type": "node", "id": 800924567, "lat": 51.6362825, "lon": -0.0015275, "tags": {"amenity": "bench", "ele:local": "90", "name": "Pole Hill", "tourism": "viewpoint"}}, {"type": "node", "id": 831200072, "lat": 51.5888512, "lon": -0.1417023, "tags": {"description": "Southeasterly view towards Canary Wharf and across east London", "direction": "E", "tourism": "viewpoint"}}, {"type": "node", "id": 910356791, "lat": 51.4799402, "lon": 0.0010191, "tags": {"tourism": "viewpoint"}}, {"type": "node", "id": 910356820, "lat": 51.4779255, "lon": -0.0008981, "tags": {"direction": "300-60", "tourism": "viewpoint", "wheelchair": "limited"}}, {"type": "node", "id": 1150845588, "lat": 51.5269979, "lon": -0.1531168, "tags": {"direction": "180", "tourism": "viewpoint"}}, {"type": "node", "id": 1181132179, "lat": 51.5320587, "lon": 0.1660107, "tags": {"tourism": "viewpoint"}}, {"type": "node", "id": 1296248653, "lat": 51.4250411, "lon": -0.1847948, "tags": {"name": "Viewing platform", "tourism": "viewpoint"}}, {"type": "node", "id": 1338910653, "lat": 51.4843915, "lon": -0.2952021, "tags": {"tourism": "viewpoint", "wheelchair": "yes"}}, {"type": "node", "id": 1430233749, "lat": 51.5854459, "lon": -0.0540704}, {"type": "node", "id": 1599958679, "lat": 51.6492807, "lon": -0.1934482, "tags": {"tourism": "viewpoint"}}, {"type": "node", "id": 1672235731, "lat": 51.5596203, "lon": -0.1597717, "tags": {"name": "Parliament Hill", "tourism": "viewpoint", "wikidata": "Q2036052", "wikipedia": "en:Parliament Hill, London"}}, {"type": "node", "id": 1708679342, "lat": 51.5012659, "lon": -0.0086815, "tags": {"name": "View of O2 Arena", "tourism": "viewpoint"}}, {"type": "node", "id": 1785641563, "lat": 51.4033695, "lon": -0.1274463, "tags": {"tourism": "viewpoint"}}, {"type": "node", "id": 1802869035, "lat": 51.5034082, "lon": -0.0064099, "tags": {"tourism": "viewpoint"}}, {"type": "node", "id": 1938700732, "lat": 51.5021298, "lon": 0.0914204, "tags": {"ele": "69", "ele:local": "24", "name": "Gallions Hill", "natural": "peak", "tourism": "viewpoint"}}, {"type": "node", "id": 2013879781, "lat": 51.5355803, "lon": -0.0140646, "tags": {"ele": "55", "ele:local": "10", "name": "Greenway", "tourism": "viewpoint", "wheelchair": "yes"}}, {"type": "node", "id": 2214450236, "lat": 51.4353289, "lon": -0.202906, "tags": {"tourism": "viewpoint"}}, {"type": "node", "id": 2295550117, "lat": 51.546994, "lon": -0.3265422, "tags": {"tourism": "viewpoint"}}, {"type": "node", "id": 2320536112, "lat": 51.4282937, "lon": -0.286322, "tags": {"tourism": "viewpoint"}}, {"type": "node", "id": 2330413814, "lat": 51.4223024, "lon": -0.232575, "tags": {"tourism": "viewpoint"}}, {"type": "node", "id": 2333041311, "lat": 51.5617022, "lon": -0.1604049, "tags": {"tourism": "viewpoint"}}, {"type": "node", "id": 2417098898, "lat": 51.4611419, "lon": -0.3143753, "tags": {"name": "Meridian Line Marker", "tourism": "viewpoint"}}, {"type": "node", "id": 2738841246, "lat": 51.4780941, "lon": -0.0016792, "tags": {"tourism": "viewpoint"}}, {"type": "node", "id": 2994690260, "lat": 51.5423065, "lon": -0.2417377, "tags": {"tourism": "viewpoint"}}, {"type": "node", "id": 3188092644, "lat": 51.4738795, "lon": -0.2217852, "tags": {"tourism": "viewpoint"}}, {"type": "node", "id": 3272712570, "lat": 51.511096, "lon": -0.0836023, "tags": {"addr:city": "London", "addr:housenumber": "20", "addr:postcode": "EC3M 3BY", "addr:street": "Fenchurch Street", "description": "Sky Garden viewpoint is accessible to all, and entry is free of charge. Tickets are available to book online on a weekly basis, up to three weeks in advance of your visit.", "fee": "no", "level": "35", "name": "Sky Garden", "name:zh": "\u5929\u7a7a\u82b1\u56ed", "opening_hours": "Mo-Fr 10:00-18:00; Sa-Su,PH 11:00-21:00", "tourism": "viewpoint", "website": "https://skygarden.london/", "wheelchair": "yes"}}, {"type": "node", "id": 3408468570, "lat": 51.4856249, "lon": -0.1494307, "tags": {"tourism": "viewpoint"}}, {"type": "node", "id": 3414135784, "lat": 51.5069231, "lon": -0.0892414, "tags": {"ele": "50", "ele:local": "5", "tourism": "viewpoint"}}, {"type": "node", "id": 3711918897, "lat": 51.6274811, "lon": -0.0139239, "tags": {"description": "downhill view over rhw park, William Girling reservoir and Eastern Enfield", "direction": "300-350", "source": "gps+mapnoter", "tourism": "viewpoint"}}, {"type": "node", "id": 3760810210, "lat": 51.4777747, "lon": 0.0002199, "tags": {"direction": "300-60", "tourism": "viewpoint"}}, {"type": "node", "id": 3796155160, "lat": 51.5740088, "lon": -0.1232694, "tags": {"note": "platform overlooking parkland area", "tourism": "viewpoint"}}, {"type": "node", "id": 3807052747, "lat": 51.3522455, "lon": -0.3203298, "tags": {"tourism": "viewpoint"}}, {"type": "node", "id": 3852033142, "lat": 51.2928786, "lon": -0.1178472, "tags": {"tourism": "viewpoint"}}, {"type": "node", "id": 3852033143, "lat": 51.2947486, "lon": -0.122039, "tags": {"tourism": "viewpoint"}}, {"type": "node", "id": 4298440051, "lat": 51.3942785, "lon": -0.0585118, "tags": {"tourism": "viewpoint"}}, {"type": "node", "id": 4319419055, "lat": 51.5288282, "lon": -0.1084999, "tags": {"direction": "115-270", "tourism": "viewpoint"}}, {"type": "node", "id": 4323428158, "lat": 51.4469448, "lon": -0.0354653, "tags": {"direction": "30", "tourism": "viewpoint"}}, {"type": "node", "id": 4365168189, "lat": 51.5188567, "lon": -0.1228587, "tags": {"name": "Bloomsbury Square Garden", "tourism": "viewpoint", "wikidata": "Q885408", "wikipedia": "en:Bloomsbury Square"}}, {"type": "node", "id": 4446879383, "lat": 51.4716551, "lon": -0.3147533, "tags": {"source": "gps+mapnoter", "tourism": "viewpoint", "viewpoint": "Towards Greenwich Observatory"}}, {"type": "node", "id": 4624336515, "lat": 51.4856213, "lon": -0.0246543, "tags": {"tourism": "viewpoint"}}, {"type": "node", "id": 4665798608, "lat": 51.4834994, "lon": -0.0189105, "tags": {"tourism": "viewpoint"}}, {"type": "node", "id": 4684426258, "lat": 51.5501918, "lon": 0.2807649, "tags": {"name": "(hide)", "tourism": "viewpoint"}}, {"type": "node", "id": 4713302815, "lat": 51.4425924, "lon": -0.2947096, "tags": {"tourism": "viewpoint"}}, {"type": "node", "id": 4743071524, "lat": 51.549749, "lon": 0.1782, "tags": {"tourism": "viewpoint"}}, {"type": "node", "id": 4783072421, "lat": 51.5066966, "lon": -0.0898955, "tags": {"tourism": "viewpoint"}}, {"type": "node", "id": 4802496625, "lat": 51.5036765, "lon": 0.0909801, "tags": {"name": "Lookout Hill", "tourism": "viewpoint"}}, {"type": "node", "id": 4880465176, "lat": 51.5071355, "lon": -0.1002938, "tags": {"addr:housenumber": "Tate Modern", "description": "Viewing gallery on outside, lifts and stairs inside building. Bar & toilets on this level.", "level": "10", "name": "Switch House", "tourism": "viewpoint", "wheelchair": "yes", "wheelchair:description": "On level 10. Lifts from all levels, access to outside walkway via automatic sliding doors on 3 sides. Bar has high counter. Toilets at this level marked Accessible, but not checked on this visit."}}, {"type": "node", "id": 4990096195, "lat": 51.4421936, "lon": -0.0616126, "tags": {"direction": "NW", "tourism": "viewpoint"}}, {"type": "node", "id": 5109498691, "lat": 51.6269979, "lon": -0.3096123, "tags": {"description": "A wide panoramic view from Alexandra Palace in the east to Heathrow in the southwest, and over London to Box Hill in the south", "name": "Wood Farm London Viewpoint", "tourism": "viewpoint"}}, {"type": "node", "id": 5222945586, "lat": 51.5854338, "lon": -0.0540668}, {"type": "node", "id": 5222945588, "lat": 51.5854505, "lon": -0.0539226}, {"type": "node", "id": 5222945590, "lat": 51.5854625, "lon": -0.0539262}, {"type": "node", "id": 5222955371, "lat": 51.5854517, "lon": -0.0540196}, {"type": "node", "id": 5317908698, "lat": 51.4258126, "lon": -0.09202, "tags": {"direction": "NNE", "tourism": "viewpoint"}}, {"type": "node", "id": 5352812330, "lat": 51.5055748, "lon": -0.0754722, "tags": {"addr:city": "London", "addr:street": "Tower Bridge", "name": "Tower Bridge", "name:en": "Tower Bridge", "name:zh": "\u4f26\u6566\u5854\u6865", "toilets:wheelchair": "no", "tourism": "viewpoint", "wheelchair": "yes", "wheelchair:description": "Footways step-free via approach roads from Tower Hill to north and Tooley Street on south bank."}}, {"type": "node", "id": 5503462764, "lat": 51.5773496, "lon": -0.0521535, "tags": {"tourism": "viewpoint"}}, {"type": "node", "id": 5640006413, "lat": 51.4944338, "lon": 0.0163506, "tags": {"tourism": "viewpoint"}}, {"type": "node", "id": 5696618681, "lat": 51.6274487, "lon": -0.0849083, "tags": {"tourism": "viewpoint"}}, {"type": "node", "id": 5713765502, "lat": 51.4992427, "lon": 0.0826468, "tags": {"description": "Thames, Beckton and Barking", "direction": "247-22", "tourism": "viewpoint"}}, {"type": "node", "id": 5713783554, "lat": 51.4945972, "lon": 0.0538695, "tags": {"description": "Thames, Woolwich Ferry, North Woolwich", "direction": "292-90", "source": "gps+mapnoter", "tourism": "viewpoint"}}, {"type": "node", "id": 5713783572, "lat": 51.4945979, "lon": 0.0538481, "tags": {"description": "Thames, Woolwich Ferry, North Woolwich", "direction": "292-90", "source": "gps+mapnoter", "tourism": "viewpoint"}}, {"type": "node", "id": 5754879643, "lat": 51.4355442, "lon": -0.2160329, "tags": {"name": "Henman Hill", "tourism": "viewpoint"}}, {"type": "node", "id": 5840522231, "lat": 51.5741446, "lon": -0.3381254, "tags": {"tourism": "viewpoint"}}, {"type": "node", "id": 5926508131, "lat": 51.5975006, "lon": -0.4192337, "tags": {"designation": "Views of wildflower meadow and valley towards Lido", "direction": "W", "tourism": "viewpoint"}}, {"type": "node", "id": 6334373185, "lat": 51.5903601, "lon": -0.1826127, "tags": {"name": "Leopold Stokowski\u2019s grave", "tourism": "viewpoint", "website": "https://www.findagrave.com/memorial/4602/leopold-stokowski"}}, {"type": "node", "id": 6336400188, "lat": 51.5904942, "lon": -0.1825604, "tags": {"name": "Leopold Stokowski\u2019s grave", "tourism": "viewpoint"}}, {"type": "node", "id": 6395707300, "lat": 51.4504778, "lon": -0.0520683, "tags": {"fixme": "Not sure if this has an official name. \"One Tree Hill Viewpoint\"?", "tourism": "viewpoint"}}, {"type": "node", "id": 6395711964, "lat": 51.4604224, "lon": -0.026526, "tags": {"description": "Excellent views over Lewisham and the City", "tourism": "viewpoint"}}, {"type": "node", "id": 6423541951, "lat": 51.5282226, "lon": 0.198139, "tags": {"tourism": "viewpoint"}}, {"type": "node", "id": 6428197176, "lat": 51.3976658, "lon": -0.1499111, "tags": {"tourism": "viewpoint"}}, {"type": "node", "id": 6477955792, "lat": 51.4488295, "lon": -0.2870071, "tags": {"tourism": "viewpoint"}}, {"type": "node", "id": 6553343236, "lat": 51.4674253, "lon": -0.0461036, "tags": {"tourism": "viewpoint"}}, {"type": "node", "id": 6553343237, "lat": 51.4698835, "lon": -0.0452466, "tags": {"tourism": "viewpoint"}}, {"type": "node", "id": 6553372201, "lat": 51.4505896, "lon": -0.1064742, "tags": {"tourism": "viewpoint"}}, {"type": "node", "id": 6657918080, "lat": 51.6203771, "lon": -0.1199916, "tags": {"tourism": "viewpoint"}}, {"type": "node", "id": 6658633257, "lat": 51.5898326, "lon": -0.4338828, "tags": {"tourism": "viewpoint"}}, {"type": "node", "id": 6691195093, "lat": 51.299558, "lon": -0.134938, "tags": {"tourism": "viewpoint"}}, {"type": "node", "id": 6894060585, "lat": 51.5017382, "lon": -0.1406744, "tags": {"direction": "-105", "name": "viewpoint for Buckingham Palace", "tourism": "viewpoint"}}, {"type": "node", "id": 7317754347, "lat": 51.4734553, "lon": -0.010969, "tags": {"direction": "290", "name": "The Point", "tourism": "viewpoint"}}, {"type": "node", "id": 7350874818, "lat": 51.4776313, "lon": -0.1794363, "tags": {"tourism": "viewpoint"}}, {"type": "node", "id": 7449071123, "lat": 51.5083731, "lon": -0.1109171, "tags": {"name": "City View", "tourism": "viewpoint", "wheelchair": "yes"}}, {"type": "node", "id": 7457649085, "lat": 51.4981597, "lon": 0.0257559, "tags": {"description": "Royal Wharf Pier", "tourism": "viewpoint"}}, {"type": "node", "id": 7507572837, "lat": 51.50102, "lon": -0.0562749, "tags": {"tourism": "viewpoint"}}, {"type": "node", "id": 7683572901, "lat": 51.4891387, "lon": 0.1301676, "tags": {"direction": "W", "tourism": "viewpoint"}}, {"type": "node", "id": 7730698252, "lat": 51.4177095, "lon": -0.0674889, "tags": {"direction": "Dinosaurs viewpoint", "tourism": "viewpoint"}}, {"type": "node", "id": 7781958972, "lat": 51.5090309, "lon": 0.0017415, "tags": {"direction": "75", "tourism": "viewpoint"}}, {"type": "node", "id": 7837378354, "lat": 51.4946834, "lon": 0.0150213, "tags": {"direction": "320", "tourism": "viewpoint"}}, {"type": "node", "id": 7970666848, "lat": 51.4617845, "lon": -0.4449546, "tags": {"description": "Heathrow Observation Deck", "name": "Heathrow Observation Deck", "tourism": "viewpoint", "wheelchair": "yes"}}, {"type": "node", "id": 8008849590, "lat": 51.4212414, "lon": -0.0122751, "tags": {"direction": "39", "tourism": "viewpoint"}}, {"type": "node", "id": 8019743721, "lat": 51.507932, "lon": 0.0798373, "tags": {"direction": "ENE", "tourism": "viewpoint"}}, {"type": "node", "id": 8373540315, "lat": 51.525624, "lon": -0.037455, "tags": {"natural": "peak", "tourism": "viewpoint"}}, {"type": "node", "id": 8384377095, "lat": 51.5157879, "lon": -0.4430463, "tags": {"tourism": "viewpoint"}}, {"type": "node", "id": 8452701068, "lat": 51.4898452, "lon": 0.0413048, "tags": {"direction": "270", "tourism": "viewpoint"}}, {"type": "node", "id": 8464555839, "lat": 51.5664385, "lon": -0.4760239, "tags": {"tourism": "viewpoint"}}, {"type": "node", "id": 8500109592, "lat": 51.441048, "lon": -0.4469807, "tags": {"name": "Monolith Hill", "tourism": "viewpoint"}}, {"type": "node", "id": 8526381823, "lat": 51.6092218, "lon": -0.4878576, "tags": {"tourism": "viewpoint"}}, {"type": "node", "id": 8569050582, "lat": 51.5700674, "lon": -0.2440907, "tags": {"name": "The Platform", "tourism": "viewpoint"}}, {"type": "node", "id": 8659056573, "lat": 51.57933, "lon": -0.2721243, "tags": {"direction": "S-NE", "name": "Gotford's Hill", "tourism": "viewpoint"}}, {"type": "node", "id": 8679602235, "lat": 51.6024749, "lon": -0.4909332, "tags": {"tourism": "viewpoint"}}, {"type": "node", "id": 8756495656, "lat": 51.4012154, "lon": -0.3185606, "tags": {"tourism": "viewpoint"}}, {"type": "node", "id": 8815167897, "lat": 51.5433158, "lon": -0.3024928, "tags": {"tourism": "viewpoint"}}, {"type": "node", "id": 8832247942, "lat": 51.5478188, "lon": -0.054558, "tags": {"amenity": "clock", "description": "16th century turret clock", "display": "analog", "start_date": "1608", "support": "wall"}}, {"type": "node", "id": 9034978177, "lat": 51.4058094, "lon": -0.1889412, "tags": {"tourism": "viewpoint"}}, {"type": "node", "id": 9263324288, "lat": 51.5478413, "lon": -0.0544445, "tags": {"amenity": "clock", "description": "16th century turret clock", "display": "analog", "start_date": "1608", "support": "wall"}}, {"type": "node", "id": 9264996529, "lat": 51.3517396, "lon": -0.0799996, "tags": {"tourism": "viewpoint"}}, {"type": "node", "id": 9423469057, "lat": 51.60242, "lon": -0.0291842, "tags": {"tourism": "viewpoint"}}, {"type": "node", "id": 9677024783, "lat": 51.6213228, "lon": -0.4959664, "tags": {"tourism": "viewpoint"}}, {"type": "node", "id": 9677024784, "lat": 51.6219804, "lon": -0.4979516, "tags": {"tourism": "viewpoint"}}, {"type": "node", "id": 9680650108, "lat": 51.5963883, "lon": -0.1814683, "tags": {"tourism": "viewpoint"}}, {"type": "node", "id": 9857650260, "lat": 51.6066425, "lon": -0.4072911, "tags": {"direction": "135", "tourism": "viewpoint"}}, {"type": "node", "id": 9857650578, "lat": 51.6202693, "lon": -0.3497859, "tags": {"direction": "180", "tourism": "viewpoint"}}, {"type": "node", "id": 10735233231, "lat": 51.5745774, "lon": -0.2431298, "tags": {"layer": "1", "tourism": "viewpoint"}}, {"type": "node", "id": 10768393512, "lat": 51.4952475, "lon": 0.0407719}, {"type": "node", "id": 10768393513, "lat": 51.4952428, "lon": 0.0409454}, {"type": "node", "id": 10768393514, "lat": 51.4952264, "lon": 0.040944}, {"type": "node", "id": 10768393515, "lat": 51.4952301, "lon": 0.0407704}, {"type": "node", "id": 10798970429, "lat": 51.5196049, "lon": -0.0806032, "tags": {"tourism": "viewpoint"}}, {"type": "node", "id": 10827533791, "lat": 51.5614845, "lon": -0.1780708, "tags": {"description": "I like this view anyway!", "tourism": "viewpoint"}}, {"type": "way", "id": 38083615, "nodes": [447919552, 447919559, 9263324288, 447919564, 447919570, 8832247942, 447919552], "tags": {"building": "yes", "fee": "no", "height": "32", "man_made": "tower", "name": "Tower of Church of St Augustine", "note": "The church was renamed St John when the Templars were expelled; it was demolished in the 18th century but the tower remains.", "old_name": "St John", "opening_hours": "Su[-1] 14:00-16:30", "toilets": "no", "tourism": "viewpoint", "tower:type": "bell_tower", "website": "https://www.staugustinestower.org/", "wikidata": "Q7592548", "wikipedia": "en:St Augustine's Tower, Hackney"}}, {"type": "way", "id": 539810231, "nodes": [5222945586, 5222945588, 5222945590, 5222955371, 1430233749, 5222945586], "tags": {"direction": "90-225", "level": "1", "tourism": "viewpoint"}}, {"type": "way", "id": 1157894877, "nodes": [10768393515, 10768393514, 10768393513, 10768393512, 10768393515], "tags": {"bridge:structure": "beam", "layer": "1", "man_made": "bridge", "tourism": "viewpoint"}}]}