{"version": 0.6, "generator": "Overpass API 0.7.59.5 b201bb38", "osm3s": {"timestamp_osm_base": "2023-04-20T17:25:09Z", "copyright": "The data included in this document is from www.openstreetmap.org. The data is made available under ODbL."}, "elements": [{"type": "node", "id": 25474641, "lat": 51.5197763, "lon": -0.0937556, "tags": {"amenity": "cinema", "name": "Barbican Centre (Cinema)"}}, {"type": "node", "id": 25636982, "lat": 51.6335044, "lon": -0.0376746}, {"type": "node", "id": 25636999, "lat": 51.6333146, "lon": -0.0366106}, {"type": "node", "id": 25637017, "lat": 51.6328249, "lon": -0.0368373}, {"type": "node", "id": 25637025, "lat": 51.6330147, "lon": -0.0379013}, {"type": "node", "id": 26573161, "lat": 51.5102139, "lon": -0.1290844, "tags": {"amenity": "cinema", "brand": "Odeon", "brand:wikidata": "Q6127470", "brand:wikipedia": "en:Odeon Cinemas", "name": "Odeon Mezzanine", "toilets:wheelchair": "yes", "wheelchair": "limited"}}, {"type": "node", "id": 26573168, "lat": 51.5109335, "lon": -0.1304091, "tags": {"addr:city": "London", "addr:housenumber": "5-6", "addr:street": "Leicester Square", "amenity": "cinema", "brand": "Cineworld", "brand:wikidata": "Q5120901", "brand:wikipedia": "en:Cineworld", "fhrs:confidence_management": "5", "fhrs:hygiene": "5", "fhrs:id": "412954", "fhrs:local_authority_id": "00989/0005/0/001", "fhrs:rating": "2", "fhrs:structural": "15", "name": "Cineworld Leicester Square", "postal_code": "WC2H 7NA", "source:addr": "FSA Food Hygiene Ratings Database", "source:postcode": "FSA Food Hygiene Ratings Database", "wheelchair": "limited", "wikidata": "Q3724821", "wikipedia": "en:Empire, Leicester Square"}}, {"type": "node", "id": 26573173, "lat": 51.5112449, "lon": -0.1293677, "tags": {"addr:city": "London", "addr:housenumber": "3", "addr:postcode": "WC2H 7AL", "addr:street": "Cranbourn Street", "amenity": "cinema", "brand": "Vue", "brand:wikidata": "Q2535134", "brand:wikipedia": "en:Vue Cinemas", "contact:website": "https://www.myvue.com/cinema/leicester-square/about", "name": "Vue Leicester Square", "wheelchair": "yes"}}, {"type": "node", "id": 26671967, "lat": 51.5095663, "lon": -0.1312249, "tags": {"addr:housenumber": "11-18", "addr:postcode": "SW1Y 4DP", "addr:street": "Panton Street", "amenity": "cinema", "brand": "Odeon", "brand:wikidata": "Q6127470", "brand:wikipedia": "en:Odeon Cinemas", "name": "ODEON Luxe Haymarket", "website": "https://www.odeon.co.uk/cinemas/london-haymarket/", "wikidata": "Q42030169"}}, {"type": "node", "id": 26699541, "lat": 51.5126577, "lon": -0.1306078, "tags": {"addr:city": "London", "addr:housenumber": "99", "addr:street": "Shaftesbury Avenue", "amenity": "cinema", "fhrs:confidence_management": "10", "fhrs:hygiene": "5", "fhrs:id": "411768", "fhrs:local_authority_id": "12/00121/COMM", "fhrs:rating": "4", "fhrs:structural": "5", "name": "Curzon Soho", "postal_code": "W1D 5DY", "website": "https://www.curzoncinemas.com/", "wheelchair": "yes", "wikidata": "Q42029812"}}, {"type": "node", "id": 26846367, "lat": 51.5143364, "lon": -0.1279357}, {"type": "node", "id": 27091603, "lat": 51.6506551, "lon": -0.06088}, {"type": "node", "id": 27091604, "lat": 51.6505525, "lon": -0.0603353}, {"type": "node", "id": 27091605, "lat": 51.6503328, "lon": -0.0604212}, {"type": "node", "id": 27091606, "lat": 51.6503128, "lon": -0.0603353}, {"type": "node", "id": 27091607, "lat": 51.6501531, "lon": -0.0604104}, {"type": "node", "id": 27091608, "lat": 51.6500242, "lon": -0.0603971}, {"type": "node", "id": 27091609, "lat": 51.6499317, "lon": -0.0603935}, {"type": "node", "id": 27091610, "lat": 51.6498152, "lon": -0.0606054}, {"type": "node", "id": 27091611, "lat": 51.6498065, "lon": -0.0608418}, {"type": "node", "id": 27091612, "lat": 51.6498891, "lon": -0.0612314}, {"type": "node", "id": 27091613, "lat": 51.6499998, "lon": -0.0615919}, {"type": "node", "id": 27091614, "lat": 51.6501135, "lon": -0.0615462}, {"type": "node", "id": 27091615, "lat": 51.6504287, "lon": -0.0613796}, {"type": "node", "id": 27091617, "lat": 51.6502585, "lon": -0.0614658}, {"type": "node", "id": 27091618, "lat": 51.6503556, "lon": -0.0610302}, {"type": "node", "id": 27094649, "lat": 51.6497946, "lon": -0.0607467}, {"type": "node", "id": 27094651, "lat": 51.6498865, "lon": -0.0604833}, {"type": "node", "id": 31060529, "lat": 51.3780368, "lon": -0.1246385, "tags": {"addr:city": "Croydon", "addr:housenumber": "21", "addr:postcode": "CR0 4YA", "addr:street": "Hesterman Way", "amenity": "cinema", "brand": "Vue", "brand:wikidata": "Q2535134", "brand:wikipedia": "en:Vue Cinemas", "fhrs:authority": "Croydon", "fhrs:id": "10622", "name": "Vue Purley Way", "website": "https://www.myvue.com/", "wikidata": "Q41895981"}}, {"type": "node", "id": 39685823, "lat": 51.4198096, "lon": -0.2048792, "tags": {"addr:city": "London", "addr:housenumber": "39", "addr:postcode": "SW19 1QB", "addr:street": "The Broadway", "alt_name": "Odeon Wimbledon", "amenity": "cinema", "brand": "Odeon", "brand:wikidata": "Q6127470", "brand:wikipedia": "en:Odeon Cinemas", "fhrs:id": "200020", "name": "Odeon Wimbledon", "website": "https://www.odeon.co.uk/cinemas/wimbledon/", "wikidata": "Q42166436"}}, {"type": "node", "id": 57215755, "lat": 51.5445975, "lon": -0.0551992}, {"type": "node", "id": 70750056, "lat": 51.5115036, "lon": -0.1300942}, {"type": "node", "id": 142464540, "lat": 51.5216361, "lon": -0.0514373}, {"type": "node", "id": 142464541, "lat": 51.5216466, "lon": -0.0510474}, {"type": "node", "id": 142464543, "lat": 51.5210481, "lon": -0.0510406}, {"type": "node", "id": 142464544, "lat": 51.521036, "lon": -0.0511799}, {"type": "node", "id": 142464546, "lat": 51.5212568, "lon": -0.0511785}, {"type": "node", "id": 142464547, "lat": 51.5212587, "lon": -0.0512599}, {"type": "node", "id": 142464548, "lat": 51.5213087, "lon": -0.0513276}, {"type": "node", "id": 142464549, "lat": 51.5213097, "lon": -0.0514129}, {"type": "node", "id": 210745603, "lat": 51.5815021, "lon": -0.338995, "tags": {"addr:housename": "St Georges Centre", "addr:housenumber": "27", "addr:postcode": "HA1 1HS", "addr:street": "St Anns Road", "amenity": "cinema", "branch": "Harrow", "brand": "Vue", "brand:wikidata": "Q2535134", "brand:wikipedia": "en:Vue Cinemas", "fhrs:id": "276902", "level": "1", "name": "Vue Cinema", "source:addr": "FHRS Open Data", "wheelchair": "yes"}}, {"type": "node", "id": 241162285, "lat": 51.4439427, "lon": -0.4053346}, {"type": "node", "id": 241162297, "lat": 51.4442898, "lon": -0.4047851}, {"type": "node", "id": 241162311, "lat": 51.4437825, "lon": -0.403932}, {"type": "node", "id": 241162319, "lat": 51.4434251, "lon": -0.4044879}, {"type": "node", "id": 243707544, "lat": 51.4793824, "lon": -0.0099029}, {"type": "node", "id": 245955704, "lat": 51.46115, "lon": -0.1149611, "tags": {"addr:housenumber": "1", "addr:postcode": "SW2 1JG", "addr:street": "Brixton Oval", "amenity": "cinema", "bar": "yes", "brand": "Picturehouse Cinemas", "brand:wikidata": "Q7191215", "fhrs:authority": "Lambeth", "fhrs:id": "483236", "fhrs:inspectiondate": "2013-12-12", "fhrs:rating": "5", "name": "The Ritzy", "wikidata": "Q7336933", "wikipedia": "en:Ritzy Cinema"}}, {"type": "node", "id": 248550403, "lat": 51.4961361, "lon": -0.0454766}, {"type": "node", "id": 248550404, "lat": 51.4957402, "lon": -0.0451869}, {"type": "node", "id": 248550405, "lat": 51.4960514, "lon": -0.0440894}, {"type": "node", "id": 248550406, "lat": 51.4964473, "lon": -0.044379}, {"type": "node", "id": 248932670, "lat": 51.4625014, "lon": -0.1381521, "tags": {"amenity": "cinema", "brand": "Picturehouse Cinemas", "brand:wikidata": "Q7191215", "name": "Clapham Picture House", "wikidata": "Q41820095"}}, {"type": "node", "id": 249138878, "lat": 51.4322877, "lon": -0.1278387}, {"type": "node", "id": 249138879, "lat": 51.4319956, "lon": -0.1279283}, {"type": "node", "id": 249138880, "lat": 51.4321048, "lon": -0.1288956}, {"type": "node", "id": 254924501, "lat": 51.5183898, "lon": -0.1323288}, {"type": "node", "id": 255684798, "lat": 51.5154987, "lon": -0.2048524}, {"type": "node", "id": 264759489, "lat": 51.3647655, "lon": -0.1953102, "tags": {"amenity": "cinema", "name": "Empire Sutton", "wheelchair": "yes"}}, {"type": "node", "id": 267919781, "lat": 51.5260911, "lon": -0.2810329}, {"type": "node", "id": 290399078, "lat": 51.4699332, "lon": -0.0678023}, {"type": "node", "id": 299028906, "lat": 51.5885079, "lon": -0.1637085, "tags": {"amenity": "cinema", "name": "Phoenix Cinema", "wikidata": "Q7186809"}}, {"type": "node", "id": 299124495, "lat": 51.3721316, "lon": -0.0990117, "tags": {"addr:city": "Croydon", "addr:housename": "Croydon Clocktower", "addr:postcode": "CR9 1ET", "addr:street": "Katharine Street", "amenity": "cinema", "fhrs:authority": "Croydon", "fhrs:id": "4559", "name": "David Lean Cinema", "wheelchair": "yes", "wikidata": "Q5236404", "wikipedia": "en:David Lean Cinema"}}, {"type": "node", "id": 299129216, "lat": 51.3729644, "lon": -0.1007766, "tags": {"addr:city": "Croydon", "addr:housenumber": "14", "addr:postcode": "CR0 1GT", "addr:street": "High Street", "amenity": "cinema", "brand": "Vue", "brand:wikidata": "Q2535134", "brand:wikipedia": "en:Vue Cinemas", "fhrs:authority": "Croydon", "fhrs:id": "15177", "name": "Vue", "wheelchair": "yes"}}, {"type": "node", "id": 300614361, "lat": 51.4070192, "lon": -0.0316159, "tags": {"addr:city": "Beckenham", "addr:postcode": "BR3 1DY", "addr:street": "High Street", "amenity": "cinema", "brand": "Odeon", "brand:wikidata": "Q6127470", "brand:wikipedia": "en:Odeon Cinemas", "contact:website": "https://www.odeon.co.uk/cinemas/beckenham/", "fhrs:id": "357244", "name": "Odeon Cinema", "source:addr": "FHRS Open Data"}}, {"type": "node", "id": 306042840, "lat": 51.5343822, "lon": -0.1058269, "tags": {"amenity": "cinema", "contact:website": "https://www.myvue.com/cinema/islington", "level": "1;2", "name": "Vue Islington", "opening_hours": "Mo-Fr 09:30-24:00; Sa-Su 10:30-24:00", "wikidata": "Q42164191"}}, {"type": "node", "id": 330957983, "lat": 51.5589434, "lon": -0.1215094, "tags": {"created_by": "Merkaartor 0.12"}}, {"type": "node", "id": 330957985, "lat": 51.5585497, "lon": -0.1208659}, {"type": "node", "id": 330957986, "lat": 51.5584248, "lon": -0.1208574}, {"type": "node", "id": 330957988, "lat": 51.5584127, "lon": -0.1208712}, {"type": "node", "id": 330957990, "lat": 51.5583808, "lon": -0.121157}, {"type": "node", "id": 330957991, "lat": 51.5583896, "lon": -0.1212484}, {"type": "node", "id": 330957993, "lat": 51.5583865, "lon": -0.1214986, "tags": {"created_by": "Merkaartor 0.12"}}, {"type": "node", "id": 330957995, "lat": 51.5586933, "lon": -0.1219546, "tags": {"created_by": "Merkaartor 0.12"}}, {"type": "node", "id": 348323465, "lat": 51.5368778, "lon": -0.1034621}, {"type": "node", "id": 348323467, "lat": 51.5367654, "lon": -0.1035141}, {"type": "node", "id": 348323468, "lat": 51.5368286, "lon": -0.1038675}, {"type": "node", "id": 348323471, "lat": 51.536941, "lon": -0.1038155}, {"type": "node", "id": 367735573, "lat": 51.5184501, "lon": -0.1325198}, {"type": "node", "id": 371525331, "lat": 51.5243518, "lon": -0.0730953, "tags": {"addr:city": "London", "addr:housenumber": "35-47", "addr:postcode": "E1 6LA", "addr:street": "Bethnal Green Road", "amenity": "cinema", "name": "Rich Mix Cinema", "phone": "+44 20 7613 7498", "screen": "3", "source:addr": "FHRS Open Data", "survey:date": "2021-08-09", "website": "https://richmix.org.uk/", "wheelchair": "yes"}}, {"type": "node", "id": 416380417, "lat": 51.4541535, "lon": -0.1934097, "tags": {"addr:city": "Wandsworth", "addr:postcode": "SW18 4TG", "addr:street": "Southside Shopping Centre", "amenity": "cinema", "brand": "Cineworld", "brand:wikidata": "Q5120901", "brand:wikipedia": "en:Cineworld", "fhrs:id": "555659", "layer": "1", "level": "1", "name": "Cineworld", "operator": "Cineworld", "source:addr": "FHRS Open Data", "wheelchair": "yes"}}, {"type": "node", "id": 420752260, "lat": 51.4066543, "lon": 0.0123564, "tags": {"amenity": "cinema", "brand": "Picturehouse Cinemas", "brand:wikidata": "Q7191215", "name": "Bromley Picturehouse", "old_name": "Empire", "wikidata": "Q42041185"}}, {"type": "node", "id": 449110100, "lat": 51.5965163, "lon": -0.108946}, {"type": "node", "id": 449110105, "lat": 51.5967727, "lon": -0.1090641}, {"type": "node", "id": 449110107, "lat": 51.5968719, "lon": -0.109087}, {"type": "node", "id": 449110108, "lat": 51.5969216, "lon": -0.1090832}, {"type": "node", "id": 449110110, "lat": 51.5970045, "lon": -0.1090556}, {"type": "node", "id": 449110115, "lat": 51.5970371, "lon": -0.1091553}, {"type": "node", "id": 449110121, "lat": 51.5971009, "lon": -0.1092142}, {"type": "node", "id": 449110126, "lat": 51.5971338, "lon": -0.1090579}, {"type": "node", "id": 449110131, "lat": 51.5970957, "lon": -0.1089768}, {"type": "node", "id": 449110133, "lat": 51.597142, "lon": -0.1089167}, {"type": "node", "id": 449110145, "lat": 51.5972586, "lon": -0.1084656}, {"type": "node", "id": 449110152, "lat": 51.5972383, "lon": -0.108387}, {"type": "node", "id": 449110153, "lat": 51.5968528, "lon": -0.1081522}, {"type": "node", "id": 449110154, "lat": 51.5968264, "lon": -0.1080713}, {"type": "node", "id": 449110156, "lat": 51.5967788, "lon": -0.1080431}, {"type": "node", "id": 449110157, "lat": 51.5967278, "lon": -0.1080469}, {"type": "node", "id": 452948294, "lat": 51.503414, "lon": -0.2188484, "tags": {"amenity": "cinema", "brand": "Vue", "brand:wikidata": "Q2535134", "brand:wikipedia": "en:Vue Cinemas", "layer": "1", "name": "Vue", "wheelchair": "yes"}}, {"type": "node", "id": 455185554, "lat": 51.5464607, "lon": -0.1422918}, {"type": "node", "id": 455185557, "lat": 51.5462234, "lon": -0.1423275}, {"type": "node", "id": 459786436, "lat": 51.5971379, "lon": -0.1092253}, {"type": "node", "id": 464800450, "lat": 51.5182702, "lon": -0.132841}, {"type": "node", "id": 490173901, "lat": 51.5140517, "lon": -0.1282731}, {"type": "node", "id": 490173904, "lat": 51.5142569, "lon": -0.1284392}, {"type": "node", "id": 490173906, "lat": 51.5144843, "lon": -0.1281429}, {"type": "node", "id": 498694180, "lat": 51.4855904, "lon": -0.1731524, "tags": {"addr:housenumber": "279", "addr:street": "King's Road", "amenity": "cinema", "brand": "Everyman Cinemas", "brand:wikidata": "Q5417852", "name": "Everyman Chelsea"}}, {"type": "node", "id": 528097911, "lat": 51.5450712, "lon": -0.4751422, "tags": {"amenity": "cinema", "brand": "Odeon", "brand:wikidata": "Q6127470", "brand:wikipedia": "en:Odeon Cinemas", "contact:website": "https://www.odeon.co.uk/cinemas/uxbridge/", "level": "2", "name": "Uxbridge Odeon"}}, {"type": "node", "id": 668541398, "lat": 51.4976739, "lon": -0.0807865, "tags": {"addr:housenumber": "10", "addr:street": "Bermondsey Square", "amenity": "cinema", "name": "Kino Bermondsey", "opening_hours": "Mo-Su 14:00+", "postal_code": "SE1 3UN", "website": "https://www.kinodigital.co.uk/"}}, {"type": "node", "id": 705228239, "lat": 51.4650529, "lon": -0.1008894, "tags": {"addr:city": "London", "addr:housenumber": "259", "addr:postcode": "SE24 0HN", "addr:street": "Hardess Street", "amenity": "cinema", "name": "Whirled Cinema", "phone": "+44 20 7737 6153", "source": "Website", "website": "https://www.whirledcinema.com/", "wikidata": "Q42035964"}}, {"type": "node", "id": 817649806, "lat": 51.5329703, "lon": 0.1345361}, {"type": "node", "id": 817649807, "lat": 51.5325158, "lon": 0.1341896}, {"type": "node", "id": 817649810, "lat": 51.5323658, "lon": 0.1354618}, {"type": "node", "id": 817649811, "lat": 51.5328441, "lon": 0.1356075}, {"type": "node", "id": 849394168, "lat": 51.646115, "lon": -0.1879669}, {"type": "node", "id": 849394352, "lat": 51.6464155, "lon": -0.1875278}, {"type": "node", "id": 849394586, "lat": 51.6462831, "lon": -0.1882658}, {"type": "node", "id": 849394916, "lat": 51.6465836, "lon": -0.1878266}, {"type": "node", "id": 906742992, "lat": 51.5065891, "lon": -0.1481128}, {"type": "node", "id": 906743005, "lat": 51.5066169, "lon": -0.1479029}, {"type": "node", "id": 906743008, "lat": 51.5063108, "lon": -0.1480883}, {"type": "node", "id": 906743009, "lat": 51.50658, "lon": -0.1481818}, {"type": "node", "id": 906743011, "lat": 51.506348, "lon": -0.1478098}, {"type": "node", "id": 918756604, "lat": 51.470897, "lon": -0.0684293}, {"type": "node", "id": 918756729, "lat": 51.4707389, "lon": -0.0683762}, {"type": "node", "id": 918756826, "lat": 51.470838, "lon": -0.0684108, "tags": {"entrance": "main", "source": "Bing;OS StreetView"}}, {"type": "node", "id": 918757054, "lat": 51.4710135, "lon": -0.0673566}, {"type": "node", "id": 918757324, "lat": 51.4710976, "lon": -0.0673783}, {"type": "node", "id": 918757495, "lat": 51.4706276, "lon": -0.0682676}, {"type": "node", "id": 918757801, "lat": 51.4710699, "lon": -0.0676347}, {"type": "node", "id": 918758055, "lat": 51.4709867, "lon": -0.067609}, {"type": "node", "id": 918758331, "lat": 51.4707486, "lon": -0.0683004}, {"type": "node", "id": 918758641, "lat": 51.4707273, "lon": -0.0672731}, {"type": "node", "id": 920198785, "lat": 51.4119331, "lon": -0.2992998, "tags": {"addr:postcode": "KT1 1QP", "addr:street": "Clarence Street", "amenity": "cinema", "brand": "Odeon", "brand:wikidata": "Q6127470", "brand:wikipedia": "en:Odeon Cinemas", "name": "Odeon Kingston", "website": "https://www.odeon.co.uk/cinemas/kingston/", "wheelchair": "yes"}}, {"type": "node", "id": 931624349, "lat": 51.5389741, "lon": -0.1437574, "tags": {"addr:city": "London", "addr:housenumber": "14", "addr:postcode": "NW1 7AA", "addr:street": "Parkway", "amenity": "cinema", "brand": "Odeon", "brand:wikidata": "Q6127470", "brand:wikipedia": "en:Odeon Cinemas", "contact:website": "https://www.odeon.co.uk/cinemas/camden/", "fhrs:id": "424604", "name": "Odeon", "source:addr:postcode": "FSA Food Hygiene Rating Scheme open data", "wheelchair": "yes"}}, {"type": "node", "id": 947964753, "lat": 51.5819584, "lon": -0.1200211}, {"type": "node", "id": 947964755, "lat": 51.5816869, "lon": -0.11999}, {"type": "node", "id": 947964756, "lat": 51.5817393, "lon": -0.1198351}, {"type": "node", "id": 1057109210, "lat": 51.458669, "lon": -0.305399}, {"type": "node", "id": 1057109371, "lat": 51.4587768, "lon": -0.3050469}, {"type": "node", "id": 1057109377, "lat": 51.4584635, "lon": -0.30488}, {"type": "node", "id": 1057109412, "lat": 51.4583693, "lon": -0.3054617}, {"type": "node", "id": 1057109645, "lat": 51.4586657, "lon": -0.3055022}, {"type": "node", "id": 1057109661, "lat": 51.4586891, "lon": -0.3054111}, {"type": "node", "id": 1057109706, "lat": 51.4584877, "lon": -0.3048318}, {"type": "node", "id": 1057109724, "lat": 51.4584058, "lon": -0.3050597}, {"type": "node", "id": 1057109800, "lat": 51.4586874, "lon": -0.3055183}, {"type": "node", "id": 1057110072, "lat": 51.4582612, "lon": -0.3053722}, {"type": "node", "id": 1057110111, "lat": 51.45841, "lon": -0.3050382}, {"type": "node", "id": 1057110121, "lat": 51.4582521, "lon": -0.3053359}, {"type": "node", "id": 1057110397, "lat": 51.4583782, "lon": -0.3050409}, {"type": "node", "id": 1057110415, "lat": 51.4586732, "lon": -0.3054593}, {"type": "node", "id": 1057110455, "lat": 51.4584259, "lon": -0.3049792}, {"type": "node", "id": 1057110480, "lat": 51.4586791, "lon": -0.3054647}, {"type": "node", "id": 1057110483, "lat": 51.4584426, "lon": -0.3049309}, {"type": "node", "id": 1057110722, "lat": 51.4586814, "lon": -0.3055406}, {"type": "node", "id": 1059665449, "lat": 51.5945658, "lon": 0.0226044}, {"type": "node", "id": 1059665665, "lat": 51.5945919, "lon": 0.0233702}, {"type": "node", "id": 1059665671, "lat": 51.5944071, "lon": 0.023395}, {"type": "node", "id": 1059666019, "lat": 51.5945756, "lon": 0.022782}, {"type": "node", "id": 1059666173, "lat": 51.5946021, "lon": 0.0228705}, {"type": "node", "id": 1059666180, "lat": 51.5943824, "lon": 0.0226325}, {"type": "node", "id": 1059666183, "lat": 51.5943771, "lon": 0.0228678}, {"type": "node", "id": 1059666215, "lat": 51.5943922, "lon": 0.0228142}, {"type": "node", "id": 1097177019, "lat": 51.4858042, "lon": -0.2979129, "tags": {"amenity": "cinema", "name": "Watermans Arts Centre"}}, {"type": "node", "id": 1104598585, "lat": 51.4564095, "lon": -0.0762653}, {"type": "node", "id": 1104598700, "lat": 51.4565142, "lon": -0.0760963}, {"type": "node", "id": 1104598711, "lat": 51.4563644, "lon": -0.0761756}, {"type": "node", "id": 1104598763, "lat": 51.4564656, "lon": -0.0765387}, {"type": "node", "id": 1104598826, "lat": 51.4563854, "lon": -0.0762781}, {"type": "node", "id": 1104599075, "lat": 51.4565914, "lon": -0.0764722}, {"type": "node", "id": 1125267112, "lat": 51.5747423, "lon": 0.1790185, "tags": {"addr:city": "Romford", "addr:housenumber": "1-15", "addr:postcode": "RM1 1AU", "addr:street": "Waterloo Rd", "amenity": "cinema", "name": "Vue", "toilets:wheelchair": "yes", "wheelchair": "yes", "wikidata": "Q41562599"}}, {"type": "node", "id": 1175493199, "lat": 51.6334208, "lon": -0.0368947}, {"type": "node", "id": 1175493213, "lat": 51.6333695, "lon": -0.0369184}, {"type": "node", "id": 1175493217, "lat": 51.6335003, "lon": -0.0373401}, {"type": "node", "id": 1175493267, "lat": 51.6334489, "lon": -0.0373639}, {"type": "node", "id": 1257763217, "lat": 51.5563531, "lon": -0.1789108}, {"type": "node", "id": 1257763218, "lat": 51.5563073, "lon": -0.1790469}, {"type": "node", "id": 1257763219, "lat": 51.5563632, "lon": -0.1790955}, {"type": "node", "id": 1257763220, "lat": 51.5564089, "lon": -0.1789594}, {"type": "node", "id": 1257801415, "lat": 51.5563144, "lon": -0.1788802}, {"type": "node", "id": 1283104743, "lat": 51.4874531, "lon": -0.1797867}, {"type": "node", "id": 1283104750, "lat": 51.4871654, "lon": -0.1793805}, {"type": "node", "id": 1283104751, "lat": 51.4871307, "lon": -0.1793275}, {"type": "node", "id": 1283104752, "lat": 51.4870904, "lon": -0.1793169}, {"type": "node", "id": 1283104754, "lat": 51.4870517, "lon": -0.1793855}, {"type": "node", "id": 1283104755, "lat": 51.486902, "lon": -0.1796396}, {"type": "node", "id": 1283104768, "lat": 51.4872148, "lon": -0.1800731}, {"type": "node", "id": 1283104769, "lat": 51.4872371, "lon": -0.1800284}, {"type": "node", "id": 1283104770, "lat": 51.4872889, "lon": -0.1800958}, {"type": "node", "id": 1376582813, "lat": 51.5047626, "lon": -0.1133187}, {"type": "node", "id": 1376582814, "lat": 51.5046305, "lon": -0.1135232}, {"type": "node", "id": 1376582816, "lat": 51.5050226, "lon": -0.1136369}, {"type": "node", "id": 1376582821, "lat": 51.5049869, "lon": -0.1134445}, {"type": "node", "id": 1376582827, "lat": 51.5046556, "lon": -0.1138137}, {"type": "node", "id": 1376582828, "lat": 51.5048788, "lon": -0.1139389}, {"type": "node", "id": 1376582829, "lat": 51.5050111, "lon": -0.1137368}, {"type": "node", "id": 1376582832, "lat": 51.5049432, "lon": -0.113371}, {"type": "node", "id": 1376582835, "lat": 51.5047546, "lon": -0.1139343}, {"type": "node", "id": 1376582836, "lat": 51.5049811, "lon": -0.1138256}, {"type": "node", "id": 1376582841, "lat": 51.5048253, "lon": -0.1133048}, {"type": "node", "id": 1376582843, "lat": 51.5046602, "lon": -0.1134335}, {"type": "node", "id": 1376582846, "lat": 51.5046195, "lon": -0.1136227}, {"type": "node", "id": 1376582856, "lat": 51.5050143, "lon": -0.1135362}, {"type": "node", "id": 1376582862, "lat": 51.5046282, "lon": -0.1137228}, {"type": "node", "id": 1376582863, "lat": 51.5048165, "lon": -0.1139524}, {"type": "node", "id": 1376582871, "lat": 51.5046992, "lon": -0.1138865}, {"type": "node", "id": 1376582877, "lat": 51.5049355, "lon": -0.1138952}, {"type": "node", "id": 1376582881, "lat": 51.5048875, "lon": -0.1133229}, {"type": "node", "id": 1376582885, "lat": 51.5047057, "lon": -0.113363}, {"type": "node", "id": 1378606952, "lat": 51.5426852, "lon": -0.1743472}, {"type": "node", "id": 1378606953, "lat": 51.5424085, "lon": -0.1748427}, {"type": "node", "id": 1378606956, "lat": 51.5423416, "lon": -0.1746887}, {"type": "node", "id": 1378606967, "lat": 51.5424092, "lon": -0.1741085}, {"type": "node", "id": 1378606984, "lat": 51.5426707, "lon": -0.1747794}, {"type": "node", "id": 1378606991, "lat": 51.5423862, "lon": -0.1742459}, {"type": "node", "id": 1378607000, "lat": 51.5426721, "lon": -0.1743408}, {"type": "node", "id": 1378607007, "lat": 51.542394, "lon": -0.1746761}, {"type": "node", "id": 1378607023, "lat": 51.542609, "lon": -0.1741513}, {"type": "node", "id": 1378607033, "lat": 51.5426393, "lon": -0.1743999}, {"type": "node", "id": 1378607037, "lat": 51.5424045, "lon": -0.1747879}, {"type": "node", "id": 1378607058, "lat": 51.5426996, "lon": -0.1742438}, {"type": "node", "id": 1378607065, "lat": 51.542417, "lon": -0.1742392}, {"type": "node", "id": 1378607074, "lat": 51.5426409, "lon": -0.1741839}, {"type": "node", "id": 1378607102, "lat": 51.5426734, "lon": -0.1743851}, {"type": "node", "id": 1378607104, "lat": 51.5423744, "lon": -0.1744231}, {"type": "node", "id": 1378607112, "lat": 51.5423481, "lon": -0.1747963}, {"type": "node", "id": 1378607121, "lat": 51.5425449, "lon": -0.1740857}, {"type": "node", "id": 1381606960, "lat": 51.528117, "lon": -0.1816251}, {"type": "node", "id": 1484198288, "lat": 51.5184992, "lon": -0.1324332}, {"type": "node", "id": 1484198312, "lat": 51.5183957, "lon": -0.1326156}, {"type": "node", "id": 1484198414, "lat": 51.5182647, "lon": -0.1326655}, {"type": "node", "id": 1484198433, "lat": 51.5182196, "lon": -0.1327898}, {"type": "node", "id": 1489907267, "lat": 51.5032151, "lon": 0.0044631, "tags": {"addr:city": "London", "addr:country": "GB", "addr:housename": "The O2", "addr:postcode": "SE10 0DX", "addr:street": "Peninsula Square", "amenity": "cinema", "brand": "Cineworld", "brand:wikidata": "Q5120901", "cinema:3D": "yes", "description": "The giant main auditorium seats up to 770 movie fans and has the biggest 3D cinema screen in Europe.", "name": "Cineworld", "phone": "+44 330 333 4444", "screen": "11", "toilets:wheelchair": "yes", "website": "https://www.cineworld.co.uk/cinemas/london-the-o2-greenwich/077", "wheelchair": "yes"}}, {"type": "node", "id": 1558137271, "lat": 51.5445453, "lon": -0.0551646}, {"type": "node", "id": 1558137272, "lat": 51.5445486, "lon": -0.05513}, {"type": "node", "id": 1558137273, "lat": 51.5445518, "lon": -0.055194}, {"type": "node", "id": 1558137274, "lat": 51.5445561, "lon": -0.0551153}, {"type": "node", "id": 1558137277, "lat": 51.5445681, "lon": -0.0552108}, {"type": "node", "id": 1558137279, "lat": 51.5445851, "lon": -0.0552118}, {"type": "node", "id": 1558137283, "lat": 51.5446069, "lon": -0.0552096}, {"type": "node", "id": 1558137285, "lat": 51.5446137, "lon": -0.0546968}, {"type": "node", "id": 1558137287, "lat": 51.5446264, "lon": -0.0546974}, {"type": "node", "id": 1558137289, "lat": 51.5446292, "lon": -0.0546804}, {"type": "node", "id": 1558137291, "lat": 51.5446763, "lon": -0.0546997}, {"type": "node", "id": 1558137292, "lat": 51.5446809, "lon": -0.054667}, {"type": "node", "id": 1558137298, "lat": 51.5447065, "lon": -0.0547201}, {"type": "node", "id": 1558137299, "lat": 51.5447125, "lon": -0.0546815}, {"type": "node", "id": 1558137300, "lat": 51.5447312, "lon": -0.0547123}, {"type": "node", "id": 1558137301, "lat": 51.5447312, "lon": -0.0547323}, {"type": "node", "id": 1558137302, "lat": 51.5448129, "lon": -0.0547035}, {"type": "node", "id": 1558137304, "lat": 51.5448162, "lon": -0.054757}, {"type": "node", "id": 1635924886, "lat": 51.5071125, "lon": -0.1157847}, {"type": "node", "id": 1635924894, "lat": 51.5066497, "lon": -0.1154323}, {"type": "node", "id": 1635924898, "lat": 51.5064245, "lon": -0.1147287}, {"type": "node", "id": 1635924901, "lat": 51.5064434, "lon": -0.1146762}, {"type": "node", "id": 1635924912, "lat": 51.5061972, "lon": -0.1149674}, {"type": "node", "id": 1635924950, "lat": 51.5063018, "lon": -0.1151327}, {"type": "node", "id": 1635924958, "lat": 51.5067271, "lon": -0.1149907}, {"type": "node", "id": 1635924960, "lat": 51.5066608, "lon": -0.1153985}, {"type": "node", "id": 1635924962, "lat": 51.5072151, "lon": -0.1154851}, {"type": "node", "id": 1635924965, "lat": 51.5062035, "lon": -0.1145235}, {"type": "node", "id": 1635924973, "lat": 51.5067062, "lon": -0.1150488}, {"type": "node", "id": 1635925012, "lat": 51.5062111, "lon": -0.1150495}, {"type": "node", "id": 1635925031, "lat": 51.5062889, "lon": -0.1151751}, {"type": "node", "id": 1635925035, "lat": 51.5060846, "lon": -0.1148673}, {"type": "node", "id": 1635925038, "lat": 51.5065125, "lon": -0.1147403}, {"type": "node", "id": 1635925045, "lat": 51.5064987, "lon": -0.1147788}, {"type": "node", "id": 1646025010, "lat": 51.5068715, "lon": -0.1155873}, {"type": "node", "id": 1657024155, "lat": 51.4741947, "lon": -0.0361232, "tags": {"amenity": "cinema", "brand": "Curzon", "name": "Curzon Goldsmiths", "website": "https://www.curzongoldsmiths.com/", "wikidata": "Q42202393"}}, {"type": "node", "id": 1663003795, "lat": 51.5086071, "lon": -0.1323966}, {"type": "node", "id": 1663003824, "lat": 51.5086693, "lon": -0.1324512}, {"type": "node", "id": 1663003834, "lat": 51.5086424, "lon": -0.1322936}, {"type": "node", "id": 1663003841, "lat": 51.5086563, "lon": -0.1322525}, {"type": "node", "id": 1663003847, "lat": 51.5087298, "lon": -0.1325089}, {"type": "node", "id": 1663003856, "lat": 51.5087228, "lon": -0.1320766}, {"type": "node", "id": 1663003867, "lat": 51.5087973, "lon": -0.1325681}, {"type": "node", "id": 1663003897, "lat": 51.5088404, "lon": -0.1324486}, {"type": "node", "id": 1663003937, "lat": 51.5089067, "lon": -0.1322434}, {"type": "node", "id": 1692039757, "lat": 51.5481248, "lon": -0.1815748, "tags": {"amenity": "cinema", "brand": "Vue", "brand:wikidata": "Q2535134", "brand:wikipedia": "en:Vue Cinemas", "name": "Vue Finchley Road", "wikidata": "Q42183496"}}, {"type": "node", "id": 1710144548, "lat": 51.5168155, "lon": -0.1428506, "tags": {"addr:housenumber": "307", "addr:street": "Regent Street", "amenity": "cinema", "name": "Regent Street Cinema", "website": "https://www.regentstreetcinema.com/", "wikidata": "Q26869575", "wikipedia": "en:Regent Street Cinema"}}, {"type": "node", "id": 1716046769, "lat": 51.500423, "lon": -0.1780006, "tags": {"amenity": "cinema", "name": "Imperial Cinema", "source": "www.icucinema.co.uk"}}, {"type": "node", "id": 1727000365, "lat": 51.4792278, "lon": -0.0098712}, {"type": "node", "id": 1727000367, "lat": 51.4792945, "lon": -0.0099798}, {"type": "node", "id": 1727000368, "lat": 51.4792964, "lon": -0.0097627}, {"type": "node", "id": 1727000369, "lat": 51.4793631, "lon": -0.0098713}, {"type": "node", "id": 1727000371, "lat": 51.4794606, "lon": -0.009839}, {"type": "node", "id": 1727000376, "lat": 51.479486, "lon": -0.0098191}, {"type": "node", "id": 1727000377, "lat": 51.4794984, "lon": -0.0094432}, {"type": "node", "id": 1727000379, "lat": 51.4796192, "lon": -0.0096812}, {"type": "node", "id": 1727000380, "lat": 51.4796229, "lon": -0.0096872}, {"type": "node", "id": 1727000381, "lat": 51.4796642, "lon": -0.0096219}, {"type": "node", "id": 1777475775, "lat": 51.5254035, "lon": -0.2816577}, {"type": "node", "id": 1777475776, "lat": 51.525409, "lon": -0.281278}, {"type": "node", "id": 1777475780, "lat": 51.5254423, "lon": -0.2812793}, {"type": "node", "id": 1777475781, "lat": 51.5254462, "lon": -0.2810083}, {"type": "node", "id": 1777475783, "lat": 51.5254949, "lon": -0.2817171}, {"type": "node", "id": 1777475786, "lat": 51.5254957, "lon": -0.2816611}, {"type": "node", "id": 1777475790, "lat": 51.5255868, "lon": -0.2817676}, {"type": "node", "id": 1777475791, "lat": 51.5255875, "lon": -0.2817206}, {"type": "node", "id": 1777475793, "lat": 51.5256157, "lon": -0.281047}, {"type": "node", "id": 1777475794, "lat": 51.5256162, "lon": -0.2810146}, {"type": "node", "id": 1777475795, "lat": 51.5259151, "lon": -0.2810582}, {"type": "node", "id": 1777475796, "lat": 51.5259155, "lon": -0.2810263}, {"type": "node", "id": 1777475797, "lat": 51.5259187, "lon": -0.28178}, {"type": "node", "id": 1777475798, "lat": 51.5259195, "lon": -0.2817223}, {"type": "node", "id": 1777475799, "lat": 51.5260133, "lon": -0.2817258}, {"type": "node", "id": 1777475800, "lat": 51.526014, "lon": -0.281676}, {"type": "node", "id": 1777475801, "lat": 51.526087, "lon": -0.2813157}, {"type": "node", "id": 1777475802, "lat": 51.5261099, "lon": -0.2816796}, {"type": "node", "id": 1777475803, "lat": 51.5261152, "lon": -0.2813167}, {"type": "node", "id": 1833349017, "lat": 51.5110076, "lon": -0.1332939, "tags": {"amenity": "cinema", "brand": "Cineworld", "brand:wikidata": "Q5120901", "name": "Cineworld Shaftesbury Avenue"}}, {"type": "node", "id": 1835298155, "lat": 51.511625, "lon": -0.1299152}, {"type": "node", "id": 1835298251, "lat": 51.5115203, "lon": -0.1303734}, {"type": "node", "id": 1838135385, "lat": 51.5944712, "lon": 0.0226158, "tags": {"entrance": "yes"}}, {"type": "node", "id": 1887555588, "lat": 51.4324074, "lon": -0.128787}, {"type": "node", "id": 1909975192, "lat": 51.5103079, "lon": -0.1294188}, {"type": "node", "id": 1909975193, "lat": 51.5103579, "lon": -0.1288377}, {"type": "node", "id": 1909975199, "lat": 51.5106422, "lon": -0.1294995}, {"type": "node", "id": 1909975201, "lat": 51.5106931, "lon": -0.1287725}, {"type": "node", "id": 1910143609, "lat": 51.5113666, "lon": -0.1302096}, {"type": "node", "id": 1910143613, "lat": 51.5114033, "lon": -0.1301116}, {"type": "node", "id": 1936974669, "lat": 51.4906276, "lon": 0.0132989}, {"type": "node", "id": 1936974673, "lat": 51.490555, "lon": 0.0132996}, {"type": "node", "id": 1936974678, "lat": 51.4908201, "lon": 0.0131489}, {"type": "node", "id": 1936974680, "lat": 51.4902756, "lon": 0.0126374}, {"type": "node", "id": 1936974681, "lat": 51.4907006, "lon": 0.0122869}, {"type": "node", "id": 1936974683, "lat": 51.4907635, "lon": 0.0132216}, {"type": "node", "id": 1936974684, "lat": 51.4904115, "lon": 0.0123403}, {"type": "node", "id": 1936974686, "lat": 51.4908977, "lon": 0.0126091}, {"type": "node", "id": 1936974698, "lat": 51.4908219, "lon": 0.0124121}, {"type": "node", "id": 1936974701, "lat": 51.4906982, "lon": 0.0132725}, {"type": "node", "id": 1936974706, "lat": 51.4902964, "lon": 0.0125496, "tags": {"entrance": "main"}}, {"type": "node", "id": 1936974708, "lat": 51.4904186, "lon": 0.0132249}, {"type": "node", "id": 1936974711, "lat": 51.4903614, "lon": 0.0131532}, {"type": "node", "id": 1936974713, "lat": 51.4909134, "lon": 0.0128427}, {"type": "node", "id": 1936974723, "lat": 51.4905109, "lon": 0.0122709}, {"type": "node", "id": 1950561370, "lat": 51.5078767, "lon": -0.0227713, "tags": {"addr:city": "London", "addr:housename": "Ledger Building", "addr:housenumber": "4", "addr:postcode": "E14 4AL", "addr:street": "Hertsmere Road", "amenity": "cinema", "brand": "Cineworld", "brand:wikidata": "Q5120901", "brand:wikipedia": "en:Cineworld", "contact:website": "https://www.cineworld.co.uk/cinemas/london-west-india-quay/041", "fhrs:id": "558272", "fhrs:local_authority_id": "154394", "name": "Cineworld", "source:addr": "FHRS Open Data", "wheelchair": "yes"}}, {"type": "node", "id": 1987682931, "lat": 51.4781914, "lon": -0.047839}, {"type": "node", "id": 1987682936, "lat": 51.4781859, "lon": -0.047636}, {"type": "node", "id": 1987682938, "lat": 51.4780856, "lon": -0.0476413}, {"type": "node", "id": 1987682941, "lat": 51.4780957, "lon": -0.0478452}, {"type": "node", "id": 2073441990, "lat": 51.5970365, "lon": -0.1089812, "tags": {"amenity": "cinema", "name": "Vue Cinema"}}, {"type": "node", "id": 2095564937, "lat": 51.5562926, "lon": -0.1789551}, {"type": "node", "id": 2095564940, "lat": 51.556329, "lon": -0.1789839}, {"type": "node", "id": 2187159978, "lat": 51.5279342, "lon": -0.1817874}, {"type": "node", "id": 2187159983, "lat": 51.5280053, "lon": -0.1818709}, {"type": "node", "id": 2187159985, "lat": 51.5280459, "lon": -0.1815416}, {"type": "node", "id": 2275267667, "lat": 51.490287, "lon": 0.0129747}, {"type": "node", "id": 2275267673, "lat": 51.490264, "lon": 0.012747}, {"type": "node", "id": 2275267677, "lat": 51.4903155, "lon": 0.0130629}, {"type": "node", "id": 2306299784, "lat": 51.5210878, "lon": -0.0929175, "tags": {"addr:city": "London", "addr:housename": "Barbican Arts And Conference Centre", "addr:postcode": "EC2Y 8DS", "addr:street": "Silk Street", "amenity": "cinema", "name": "Barbican Cinemas 2 & 3", "operator": "Barbican", "source": "survey", "website": "https://www.barbican.org.uk/film/new-cinemas", "wheelchair": "yes", "wikidata": "Q42014966"}}, {"type": "node", "id": 2330164409, "lat": 51.5495622, "lon": -0.0755394}, {"type": "node", "id": 2330164413, "lat": 51.5497345, "lon": -0.0754703}, {"type": "node", "id": 2330164417, "lat": 51.5495548, "lon": -0.0754036}, {"type": "node", "id": 2330164418, "lat": 51.5496753, "lon": -0.0753898}, {"type": "node", "id": 2330164422, "lat": 51.5497353, "lon": -0.0755742}, {"type": "node", "id": 2339273446, "lat": 51.5968449, "lon": -0.1081007}, {"type": "node", "id": 2339273447, "lat": 51.5968513, "lon": -0.1082125}, {"type": "node", "id": 2339273450, "lat": 51.5970631, "lon": -0.1092008}, {"type": "node", "id": 2339273451, "lat": 51.5970825, "lon": -0.1092202}, {"type": "node", "id": 2339273452, "lat": 51.597151, "lon": -0.1091297}, {"type": "node", "id": 2339273454, "lat": 51.5971407, "lon": -0.1091645}, {"type": "node", "id": 2342308192, "lat": 51.5073511, "lon": -0.2215606}, {"type": "node", "id": 2342308200, "lat": 51.5076084, "lon": -0.221633}, {"type": "node", "id": 2342308204, "lat": 51.5078709, "lon": -0.2216586}, {"type": "node", "id": 2342308209, "lat": 51.5080936, "lon": -0.22165}, {"type": "node", "id": 2589632814, "lat": 51.4437445, "lon": -0.4050103}, {"type": "node", "id": 2589632815, "lat": 51.4438358, "lon": -0.4048893}, {"type": "node", "id": 2589632816, "lat": 51.4438194, "lon": -0.4048622}, {"type": "node", "id": 2589632818, "lat": 51.4437201, "lon": -0.4046991}, {"type": "node", "id": 2589632819, "lat": 51.4437246, "lon": -0.4048668}, {"type": "node", "id": 2589632820, "lat": 51.4437047, "lon": -0.4046737}, {"type": "node", "id": 2589632821, "lat": 51.4436196, "lon": -0.404806}, {"type": "node", "id": 2646582316, "lat": 51.558393, "lon": -0.1211785}, {"type": "node", "id": 2646582317, "lat": 51.5583852, "lon": -0.1211714}, {"type": "node", "id": 2646582318, "lat": 51.5585905, "lon": -0.120964}, {"type": "node", "id": 2646582319, "lat": 51.5584629, "lon": -0.1208363}, {"type": "node", "id": 2646582320, "lat": 51.5584013, "lon": -0.1208885}, {"type": "node", "id": 2646582321, "lat": 51.5583985, "lon": -0.1212522}, {"type": "node", "id": 2646582322, "lat": 51.558501, "lon": -0.120838}, {"type": "node", "id": 2646582323, "lat": 51.5583979, "lon": -0.1209059}, {"type": "node", "id": 2646582324, "lat": 51.5585802, "lon": -0.1209022}, {"type": "node", "id": 2646582325, "lat": 51.5585917, "lon": -0.1209308}, {"type": "node", "id": 2724984564, "lat": 51.5087776, "lon": -0.1973282}, {"type": "node", "id": 2734715256, "lat": 51.5088104, "lon": -0.1971638}, {"type": "node", "id": 2763450295, "lat": 51.5563016, "lon": -0.2839283, "tags": {"addr:city": "London", "addr:housename": "London Designer Outlet", "addr:housenumber": "Unit 7, Ground Floor", "addr:postcode": "HA9 0TG", "addr:street": "Wembley Park Boulevard", "amenity": "cinema", "brand": "Cineworld", "level": "4", "name": "Cineworld Wembley", "operator": "Cineworld plc", "website": "https://www.cineworld.co.uk/cinemas/89/information", "wikidata": "Q42166251"}}, {"type": "node", "id": 2785097711, "lat": 51.4975349, "lon": -0.1365788, "tags": {"addr:city": "London", "addr:country": "GB", "addr:housenumber": "58", "addr:postcode": "SW1E 6AN", "addr:street": "Victoria Street", "amenity": "cinema", "brand": "Curzon", "brand:wikidata": "Q16953326", "fhrs:id": "741340", "name": "Curzon"}}, {"type": "node", "id": 2866881752, "lat": 51.5945894, "lon": 0.0233021}, {"type": "node", "id": 2866881754, "lat": 51.5946173, "lon": 0.0231894}, {"type": "node", "id": 2951164814, "lat": 51.5240933, "lon": -0.123244}, {"type": "node", "id": 2951164815, "lat": 51.5240176, "lon": -0.1231995}, {"type": "node", "id": 2951164816, "lat": 51.5240288, "lon": -0.1231505}, {"type": "node", "id": 2951164817, "lat": 51.5240458, "lon": -0.1231606}, {"type": "node", "id": 2951164818, "lat": 51.524071, "lon": -0.12305}, {"type": "node", "id": 2951164819, "lat": 51.5241086, "lon": -0.1230721}, {"type": "node", "id": 2951164820, "lat": 51.5240836, "lon": -0.1231818}, {"type": "node", "id": 2951164821, "lat": 51.5241047, "lon": -0.1231942}, {"type": "node", "id": 2951562052, "lat": 51.546264, "lon": -0.1420141}, {"type": "node", "id": 2951562056, "lat": 51.5464006, "lon": -0.1419926}, {"type": "node", "id": 2951562057, "lat": 51.5464477, "lon": -0.1420765}, {"type": "node", "id": 3160210318, "lat": 51.6498713, "lon": -0.0605094, "tags": {"entrance": "yes"}}, {"type": "node", "id": 3193683067, "lat": 51.5794872, "lon": 0.1852042, "tags": {"amenity": "cinema", "name": "Premier Cinema Romford"}}, {"type": "node", "id": 3357929234, "lat": 51.508942, "lon": -0.1343413, "tags": {"amenity": "cinema", "brand": "Vue", "brand:wikidata": "Q2535134", "brand:wikipedia": "en:Vue Cinemas", "name": "Vue", "wheelchair": "limited"}}, {"type": "node", "id": 3376589720, "lat": 51.5496942, "lon": -0.0757788}, {"type": "node", "id": 3376589721, "lat": 51.5495645, "lon": -0.0757546}, {"type": "node", "id": 3384625336, "lat": 51.5849488, "lon": -0.020193, "tags": {"addr:city": "London", "addr:country": "GB", "addr:housenumber": "267", "addr:postcode": "E17 7FD", "addr:street": "High Street", "addr:suburb": "Walthamstow", "amenity": "cinema", "check_date": "2022-05-23", "name": "Empire Cinemas Walthamstow", "operator": "Empire Cinemas", "source": "survey/Empire Cinema website", "website": "https://www.empirecinemas.co.uk/cinema_info/empire_walthamstow/"}}, {"type": "node", "id": 3395219838, "lat": 51.455826, "lon": 0.1507084}, {"type": "node", "id": 3395219839, "lat": 51.4558947, "lon": 0.1507419}, {"type": "node", "id": 3395219840, "lat": 51.4559909, "lon": 0.149956}, {"type": "node", "id": 3395219841, "lat": 51.4560107, "lon": 0.1498185}, {"type": "node", "id": 3395219842, "lat": 51.4561135, "lon": 0.1497579}, {"type": "node", "id": 3395219843, "lat": 51.4561776, "lon": 0.1497959, "tags": {"survey:date": "2021-02-11"}}, {"type": "node", "id": 3395219844, "lat": 51.4561972, "lon": 0.1497173}, {"type": "node", "id": 3395219846, "lat": 51.4562096, "lon": 0.1509049}, {"type": "node", "id": 3395219848, "lat": 51.4564688, "lon": 0.1498305}, {"type": "node", "id": 3485167588, "lat": 51.5064276, "lon": -0.1481291}, {"type": "node", "id": 3485171245, "lat": 51.5063102, "lon": -0.1480936}, {"type": "node", "id": 3485171271, "lat": 51.5063854, "lon": -0.1481159}, {"type": "node", "id": 3485171286, "lat": 51.5064161, "lon": -0.1481253}, {"type": "node", "id": 3485171803, "lat": 51.5064672, "lon": -0.1478509}, {"type": "node", "id": 3485171807, "lat": 51.5064814, "lon": -0.1478558, "tags": {"entrance": "main"}}, {"type": "node", "id": 3485171811, "lat": 51.5064889, "lon": -0.1481503}, {"type": "node", "id": 3485171825, "lat": 51.5065312, "lon": -0.1478731}, {"type": "node", "id": 3485171834, "lat": 51.5065574, "lon": -0.148174}, {"type": "node", "id": 3485171840, "lat": 51.5065684, "lon": -0.1481779}, {"type": "node", "id": 3485171843, "lat": 51.5065835, "lon": -0.1481553, "tags": {"entrance": "yes", "note": "Entrance to 37 Curzon Street (offices?)"}}, {"type": "node", "id": 3485171844, "lat": 51.5065949, "lon": -0.1478953}, {"type": "node", "id": 3485171845, "lat": 51.5065982, "lon": -0.1480441, "tags": {"entrance": "main", "note": "Entrance to Mamoumia Lounge"}}, {"type": "node", "id": 3485171846, "lat": 51.5066059, "lon": -0.1478991}, {"type": "node", "id": 3620876499, "lat": 51.508566, "lon": -0.1975348}, {"type": "node", "id": 3620876507, "lat": 51.5086119, "lon": -0.197562}, {"type": "node", "id": 3620876515, "lat": 51.5086486, "lon": -0.1975862}, {"type": "node", "id": 3620876518, "lat": 51.5086624, "lon": -0.1975176}, {"type": "node", "id": 3620876519, "lat": 51.5086636, "lon": -0.1971165}, {"type": "node", "id": 3620876520, "lat": 51.5086684, "lon": -0.1975965}, {"type": "node", "id": 3620876521, "lat": 51.5086737, "lon": -0.1975765}, {"type": "node", "id": 3620876522, "lat": 51.5086757, "lon": -0.1974605}, {"type": "node", "id": 3620876523, "lat": 51.5086841, "lon": -0.1975318}, {"type": "node", "id": 3620876524, "lat": 51.5086859, "lon": -0.1974151}, {"type": "node", "id": 3620876526, "lat": 51.5086919, "lon": -0.1970981}, {"type": "node", "id": 3620876529, "lat": 51.5086977, "lon": -0.1974701}, {"type": "node", "id": 3620876530, "lat": 51.5086979, "lon": -0.1973591}, {"type": "node", "id": 3620876533, "lat": 51.5087069, "lon": -0.197427}, {"type": "node", "id": 3620876534, "lat": 51.5087191, "lon": -0.1973714}, {"type": "node", "id": 3620876539, "lat": 51.5087332, "lon": -0.1973073}, {"type": "node", "id": 3627822493, "lat": 51.5154236, "lon": -0.2052026}, {"type": "node", "id": 3627822519, "lat": 51.5155494, "lon": -0.2052783}, {"type": "node", "id": 3627822522, "lat": 51.5156353, "lon": -0.2049315}, {"type": "node", "id": 3767748685, "lat": 51.5244086, "lon": -0.0739235, "tags": {"addr:city": "London", "addr:country": "GB", "addr:housenumber": "64-66", "addr:postcode": "E2 7DP", "addr:street": "Redchurch Street", "amenity": "cinema", "name": "Electric Cinema", "phone": "+44 20 3350 3490", "website": "https://electriccinema.co.uk/", "wikidata": "Q42204135"}}, {"type": "node", "id": 3921178316, "lat": 51.5106337, "lon": -0.1336442, "tags": {"addr:street": "Great Windmill street", "amenity": "cinema", "brand": "Picturehouse Cinemas", "brand:wikidata": "Q7191215", "name": "Picturehouse Central", "opening_hours": "Mo-Su", "phone": "+44 871 902 5755", "website": "https://www.picturehouses.com/cinema/Picturehouse_Central", "wikidata": "Q42030269"}}, {"type": "node", "id": 4021758418, "lat": 51.5896691, "lon": -0.1466804}, {"type": "node", "id": 4021758419, "lat": 51.5895555, "lon": -0.1466241}, {"type": "node", "id": 4021758421, "lat": 51.5895044, "lon": -0.1463443}, {"type": "node", "id": 4021758423, "lat": 51.5894813, "lon": -0.1463454}, {"type": "node", "id": 4021758446, "lat": 51.5895945, "lon": -0.1459324}, {"type": "node", "id": 4021758474, "lat": 51.5896991, "lon": -0.1459546}, {"type": "node", "id": 4021759125, "lat": 51.589467, "lon": -0.1463309}, {"type": "node", "id": 4035396456, "lat": 51.4745092, "lon": -0.02446, "tags": {"addr:city": "London Borough of Lewisham", "addr:housenumber": "39", "addr:postcode": "SE8 4PQ", "addr:street": "Deptford Broadway", "amenity": "cinema", "fhrs:id": "1041427", "name": "Deptford Cinema", "source:addr": "FHRS Open Data", "website": "http://www.deptfordcinema.org", "wikidata": "Q42158297"}}, {"type": "node", "id": 4130111423, "lat": 51.6463142, "lon": -0.1882204}, {"type": "node", "id": 4130111424, "lat": 51.6462981, "lon": -0.1876993}, {"type": "node", "id": 4145029892, "lat": 51.5236118, "lon": -0.0719999, "tags": {"addr:city": "London", "addr:country": "GB", "addr:housenumber": "97-99", "addr:postcode": "E1 6HR", "addr:street": "Sclater Street", "amenity": "cinema", "capacity": "40", "fhrs:id": "696148", "fhrs:local_authority_id": "19353", "name": "Close-Up Film Centre", "operator": "Close-Up Film Centre Limited", "screen": "1", "source:addr": "FHRS Open Data", "website": "https://www.closeupfilmcentre.com/", "wikidata": "Q42204126"}}, {"type": "node", "id": 4171814531, "lat": 51.5450583, "lon": -0.0547253}, {"type": "node", "id": 4171814532, "lat": 51.5450838, "lon": -0.0551327}, {"type": "node", "id": 4245251054, "lat": 51.5184232, "lon": -0.1323607, "tags": {"entrance": "main"}}, {"type": "node", "id": 4247304414, "lat": 51.5182405, "lon": -0.1327323}, {"type": "node", "id": 4247304417, "lat": 51.5182986, "lon": -0.13279}, {"type": "node", "id": 4247304419, "lat": 51.5184141, "lon": -0.1323521}, {"type": "node", "id": 4247304421, "lat": 51.5184735, "lon": -0.1324785}, {"type": "node", "id": 4247304422, "lat": 51.5184879, "lon": -0.1324532}, {"type": "node", "id": 4247510592, "lat": 51.5182918, "lon": -0.1328023}, {"type": "node", "id": 4247510593, "lat": 51.5183292, "lon": -0.1327349}, {"type": "node", "id": 4247510594, "lat": 51.5183636, "lon": -0.1326733}, {"type": "node", "id": 4247510595, "lat": 51.5184087, "lon": -0.1325928}, {"type": "node", "id": 4317591780, "lat": 51.4584105, "lon": -0.3053271}, {"type": "node", "id": 4317609234, "lat": 51.4592732, "lon": -0.3055168}, {"type": "node", "id": 4317609236, "lat": 51.459351, "lon": -0.3052459}, {"type": "node", "id": 4317609237, "lat": 51.4593543, "lon": -0.3055825}, {"type": "node", "id": 4317609240, "lat": 51.4594186, "lon": -0.3053384}, {"type": "node", "id": 4317609243, "lat": 51.4594278, "lon": -0.3053036}, {"type": "node", "id": 4317609247, "lat": 51.4594429, "lon": -0.3053827}, {"type": "node", "id": 4317609248, "lat": 51.4594462, "lon": -0.3055155}, {"type": "node", "id": 4317609250, "lat": 51.4594504, "lon": -0.3054283}, {"type": "node", "id": 4317609251, "lat": 51.4594554, "lon": -0.3054672}, {"type": "node", "id": 4317609253, "lat": 51.4594599, "lon": -0.3056597}, {"type": "node", "id": 4317609257, "lat": 51.459488, "lon": -0.3055436}, {"type": "node", "id": 4446849834, "lat": 51.4592448, "lon": -0.3070003, "tags": {"addr:city": "Richmond", "addr:postcode": "TW9 1TJ", "addr:street": "Water Lane", "amenity": "cinema", "brand": "Curzon", "brand:wikidata": "Q16953326", "name": "Curzon", "source": "gps+mapnoter", "website": "https://www.curzoncinemas.com/richmond/"}}, {"type": "node", "id": 4480859690, "lat": 51.4651538, "lon": -0.2143116}, {"type": "node", "id": 4480859691, "lat": 51.4650826, "lon": -0.214095}, {"type": "node", "id": 4480859695, "lat": 51.4649597, "lon": -0.2137168}, {"type": "node", "id": 4480859696, "lat": 51.4653945, "lon": -0.2141544}, {"type": "node", "id": 4480859697, "lat": 51.465191, "lon": -0.213523}, {"type": "node", "id": 4480859698, "lat": 51.46529, "lon": -0.2138273}, {"type": "node", "id": 4541329573, "lat": 51.4699025, "lon": -0.0677931, "tags": {"entrance": "yes"}}, {"type": "node", "id": 4568748349, "lat": 51.4203554, "lon": -0.2052534, "tags": {"addr:housenumber": "23", "addr:postcode": "SW19 1RE", "addr:street": "The Broadway", "amenity": "cinema", "brand": "Curzon", "brand:wikidata": "Q16953326", "fhrs:id": "1013855", "name": "Curzon Wimbledon", "operator:wikidata": "Q16953326", "shop": "video;music", "website": "https://www.curzon.com/venues/wimbledon/", "wikidata": "Q42166369"}}, {"type": "node", "id": 4617424209, "lat": 51.5138199, "lon": -0.0689221, "tags": {"addr:city": "London", "addr:housenumber": "4", "addr:postcode": "E1 8PS", "addr:street": "Canter Way", "amenity": "cinema", "brand": "Curzon", "brand:wikidata": "Q16953326", "fhrs:id": "1092758", "name": "Curzon Aldgate", "website": "https://www.curzoncinemas.com/aldgate/info", "wikidata": "Q42046988"}}, {"type": "node", "id": 4620848602, "lat": 51.5375409, "lon": -0.2223604}, {"type": "node", "id": 4620848603, "lat": 51.5374618, "lon": -0.2225254}, {"type": "node", "id": 4620848604, "lat": 51.537514, "lon": -0.2225902}, {"type": "node", "id": 4620848605, "lat": 51.5375932, "lon": -0.2224253}, {"type": "node", "id": 4676093419, "lat": 51.5435862, "lon": -0.0066304, "tags": {"addr:city": "London", "addr:floor": "2", "addr:housename": "Westfield Stratford City", "addr:postcode": "E20 1ET", "addr:street": "Montfichet Road", "addr:suburb": "Stratford", "addr:unit": "308 The Loft", "amenity": "cinema", "brand": "Vue", "brand:wikidata": "Q2535134", "brand:wikipedia": "en:Vue Cinemas", "fhrs:id": "640513", "level": "2", "name": "Vue Westfield Stratford City", "note": "location approximate", "operator": "Vue", "source": "survey/Vue website", "website": "https://www.myvue.com/cinema/westfield-stratford-city", "wikidata": "Q42203261"}}, {"type": "node", "id": 4690153399, "lat": 51.5819107, "lon": -0.1201617}, {"type": "node", "id": 4754870662, "lat": 51.5377019, "lon": -0.1269986, "tags": {"addr:city": "London", "addr:housenumber": "1", "addr:postcode": "N1C 4BP", "addr:street": "Handyside Street", "alt_name": "Everyman On The Corner (Screen 4)", "amenity": "cinema", "name": "Everyman On The Corner", "website": "https://www.everymancinema.com/kings-cross"}}, {"type": "node", "id": 4829130864, "lat": 51.5511831, "lon": -0.0434666}, {"type": "node", "id": 4829130869, "lat": 51.5512228, "lon": -0.0432979}, {"type": "node", "id": 4829130870, "lat": 51.5512026, "lon": -0.043478, "tags": {"amenity": "atm", "brand": "NoteMachine", "brand:wikidata": "Q104368525", "fee": "no", "operator": "NoteMachine", "operator:wikidata": "Q104368525"}}, {"type": "node", "id": 4829130874, "lat": 51.5512757, "lon": -0.0430882}, {"type": "node", "id": 4829130877, "lat": 51.5512969, "lon": -0.0429649}, {"type": "node", "id": 4829130878, "lat": 51.551298, "lon": -0.0435326}, {"type": "node", "id": 4829130882, "lat": 51.5513881, "lon": -0.0431503}, {"type": "node", "id": 4854756574, "lat": 51.5106714, "lon": -0.1290639}, {"type": "node", "id": 4976196830, "lat": 51.6038551, "lon": -0.1732082, "tags": {"addr:city": "London", "addr:postcode": "N12 0GL", "addr:street": "Chaplin Square", "amenity": "cinema", "brand": "Vue", "brand:wikidata": "Q2535134", "fhrs:id": "989331", "name": "Vue Cinema", "toilets": "yes", "toilets:access": "customers", "toilets:wheelchair": "yes"}}, {"type": "node", "id": 5175416155, "lat": 51.5816081, "lon": -0.1210056}, {"type": "node", "id": 5175416156, "lat": 51.5817251, "lon": -0.1206997}, {"type": "node", "id": 5175416157, "lat": 51.5813245, "lon": -0.1203486}, {"type": "node", "id": 5215445498, "lat": 51.5895664, "lon": -0.1459413}, {"type": "node", "id": 5215445499, "lat": 51.5895848, "lon": -0.1458176}, {"type": "node", "id": 5215445500, "lat": 51.5896026, "lon": -0.1457896}, {"type": "node", "id": 5215445501, "lat": 51.5896286, "lon": -0.1458392}, {"type": "node", "id": 5215445502, "lat": 51.5897069, "lon": -0.1460115}, {"type": "node", "id": 5215445503, "lat": 51.589724, "lon": -0.1460113}, {"type": "node", "id": 5215445504, "lat": 51.5894634, "lon": -0.1460616}, {"type": "node", "id": 5215445505, "lat": 51.5895114, "lon": -0.1466251}, {"type": "node", "id": 5215445506, "lat": 51.5895817, "lon": -0.1466874}, {"type": "node", "id": 5215445507, "lat": 51.5897338, "lon": -0.1466101}, {"type": "node", "id": 5215445512, "lat": 51.5896926, "lon": -0.1466146}, {"type": "node", "id": 5218118730, "lat": 51.5196469, "lon": -0.0846045, "tags": {"addr:city": "London", "addr:housenumber": "1", "addr:postcode": "EC2M 2PA", "addr:street": "Finsbury Avenue", "amenity": "cinema", "fhrs:id": "1178154", "name": "Everyman"}}, {"type": "node", "id": 5246331740, "lat": 51.5813518, "lon": -0.1207708}, {"type": "node", "id": 5246331741, "lat": 51.5812331, "lon": -0.120609}, {"type": "node", "id": 5333396121, "lat": 51.4698829, "lon": -0.0673691, "tags": {"amenity": "restaurant", "contact:instagram": "https://www.instagram.com/easternblocfood/", "contact:twitter": "https://twitter.com/easternblocfood", "cuisine": "eastern_european", "level": "0", "name": "Eastern Bloc"}}, {"type": "node", "id": 5376964904, "lat": 51.5375291, "lon": -0.1240562, "tags": {"addr:city": "London", "addr:housenumber": "14-18", "addr:postcode": "N1C 4DN", "addr:street": "Handyside Street", "alt_name": "Everyman King's Cross (Screen 1, 2 & 3)", "amenity": "cinema", "brand": "Everyman Cinemas", "brand:wikidata": "Q5417852", "brand:wikipedia": "en:Everyman Cinemas", "name": "Everyman King's Cross", "website": "https://www.everymancinema.com/kings-cross", "wikidata": "Q42212892"}}, {"type": "node", "id": 5661526770, "lat": 51.4698357, "lon": -0.067773}, {"type": "node", "id": 5677639443, "lat": 51.4754126, "lon": -0.2405112}, {"type": "node", "id": 5677639444, "lat": 51.4751765, "lon": -0.2404197}, {"type": "node", "id": 5677639445, "lat": 51.4751249, "lon": -0.2407628}, {"type": "node", "id": 5677639446, "lat": 51.475361, "lon": -0.2408543}, {"type": "node", "id": 5686715710, "lat": 51.4699891, "lon": -0.0673237}, {"type": "node", "id": 5686715711, "lat": 51.4698916, "lon": -0.0672944}, {"type": "node", "id": 5686715712, "lat": 51.4699411, "lon": -0.0673093}, {"type": "node", "id": 5688517961, "lat": 51.4698433, "lon": -0.0677084, "tags": {"addr:city": "London", "addr:country": "GB", "addr:housename": "Bussey Building", "addr:housenumber": "133", "addr:postcode": "SE15 4ST", "addr:street": "Rye Lane", "addr:unit": "Unit A Basement", "email": "info@ryewax.com", "level": "-1", "name": "Rye Wax", "opening_hours": "Tu-Su 12:00-22:00", "phone": "+44 20 7732 3176", "shop": "music", "website": "https://www.ryewax.com/"}}, {"type": "node", "id": 5688517962, "lat": 51.4698701, "lon": -0.0674783, "tags": {"addr:city": "London", "addr:country": "GB", "addr:housename": "Bussey Building", "addr:housenumber": "133", "addr:postcode": "SE15 4ST", "addr:street": "Rye Lane", "addr:unit": "Unit AG1", "amenity": "place_of_worship", "denomination": "pentecostal", "name": "Christ's Gospel Church", "religion": "christian"}}, {"type": "node", "id": 5747790868, "lat": 51.4563292, "lon": 0.1503244}, {"type": "node", "id": 5747790869, "lat": 51.456363, "lon": 0.1503485}, {"type": "node", "id": 5747790870, "lat": 51.4560541, "lon": 0.149769}, {"type": "node", "id": 6235133286, "lat": 51.5814651, "lon": -0.1208791}, {"type": "node", "id": 6284685147, "lat": 51.5966779, "lon": -0.1090192}, {"type": "node", "id": 6284685148, "lat": 51.5965746, "lon": -0.1086449}, {"type": "node", "id": 6307635600, "lat": 51.4190933, "lon": -0.0791334, "tags": {"addr:city": "Crystal Palace", "addr:housenumber": "25", "addr:postcode": "SE19 2TE", "addr:street": "Church Road", "amenity": "cinema", "name": "Everyman", "website": "https://www.everymancinema.com/crystal-palace"}}, {"type": "node", "id": 6338253691, "lat": 51.5205013, "lon": -0.1565601, "tags": {"addr:housenumber": "96", "addr:street": "Baker Street", "amenity": "cinema", "brand": "Everyman Cinemas", "brand:wikidata": "Q5417852", "level": "-1", "name": "Everyman", "website": "https://www.everymancinema.com/baker-street"}}, {"type": "node", "id": 6345003067, "lat": 51.4825125, "lon": -0.1469763, "tags": {"addr:city": "London", "addr:housenumber": "22", "addr:postcode": "SW11 8AB", "addr:street": "Arches Lane", "amenity": "cinema", "contact:email": "boxoffice@archlightcinemas.co.uk", "contact:phone": "+44 20 3330 7120", "contact:website": "https://www.archlightcinema.co.uk/", "name": "Archlight Cinema"}}, {"type": "node", "id": 6405066888, "lat": 51.5813432, "lon": -0.1203642}, {"type": "node", "id": 6589760000, "lat": 51.4330712, "lon": -0.1029573, "tags": {"amenity": "cinema", "brand": "Picturehouse Cinemas", "brand:wikidata": "Q7191215", "name": "West Norwood Picturehouse", "screen": "4", "website": "https://www.picturehouses.com/cinema/west-norwood-picturehouse"}}, {"type": "node", "id": 6659048843, "lat": 51.5585779, "lon": -0.4011881}, {"type": "node", "id": 6659048844, "lat": 51.5588619, "lon": -0.4013594}, {"type": "node", "id": 6659048845, "lat": 51.5592829, "lon": -0.4006649}, {"type": "node", "id": 6659048846, "lat": 51.5593077, "lon": -0.4005901}, {"type": "node", "id": 6659048847, "lat": 51.5593227, "lon": -0.4005169}, {"type": "node", "id": 6659048848, "lat": 51.5593183, "lon": -0.4004413}, {"type": "node", "id": 6659048849, "lat": 51.5593127, "lon": -0.4003691}, {"type": "node", "id": 6659048850, "lat": 51.5592923, "lon": -0.4003015}, {"type": "node", "id": 6659048851, "lat": 51.559271, "lon": -0.4002555}, {"type": "node", "id": 6659048852, "lat": 51.5592423, "lon": -0.4001911}, {"type": "node", "id": 6659048853, "lat": 51.5591943, "lon": -0.4001301}, {"type": "node", "id": 6659048854, "lat": 51.5591591, "lon": -0.4000775}, {"type": "node", "id": 6659048855, "lat": 51.5591349, "lon": -0.4000317}, {"type": "node", "id": 6659048856, "lat": 51.5591138, "lon": -0.3999695}, {"type": "node", "id": 6659048857, "lat": 51.5591014, "lon": -0.3998877}, {"type": "node", "id": 6659048858, "lat": 51.5584839, "lon": -0.400923}, {"type": "node", "id": 6659048860, "lat": 51.5585871, "lon": -0.4010674}, {"type": "node", "id": 6659048861, "lat": 51.5585451, "lon": -0.4011467}, {"type": "node", "id": 6659072276, "lat": 51.5591014, "lon": -0.39981}, {"type": "node", "id": 6687236123, "lat": 51.3765645, "lon": 0.1013825, "tags": {"addr:city": "Orpington", "addr:postcode": "BR6 0TW", "amenity": "cinema", "brand": "Odeon", "brand:wikidata": "Q6127470", "brand:wikipedia": "en:Odeon Cinemas", "contact:website": "https://www.odeon.co.uk/cinemas/orpington/", "fhrs:id": "916712", "name": "Odeon", "opening_hours:covid19": "closed", "phone": "+44 333 014 4501", "screen": "7", "wikidata": "Q41749792"}}, {"type": "node", "id": 7026450532, "lat": 51.44392, "lon": -0.4052975, "tags": {"entrance": "emergency"}}, {"type": "node", "id": 7120308378, "lat": 51.5590657, "lon": -0.400984}, {"type": "node", "id": 7120308379, "lat": 51.5590943, "lon": -0.4009921}, {"type": "node", "id": 7120308380, "lat": 51.5586549, "lon": -0.4010699}, {"type": "node", "id": 7162446963, "lat": 51.4905576, "lon": 0.012258}, {"type": "node", "id": 7162446964, "lat": 51.4903266, "lon": 0.0124692}, {"type": "node", "id": 7179603220, "lat": 51.5508149, "lon": -0.1657783, "tags": {"addr:housenumber": "203", "addr:postcode": "NW3 4QG", "addr:street": "Haverstock Hill", "amenity": "cinema", "entrance": "yes", "name": "Everyman", "payment:cash": "yes", "payment:mastercard": "yes", "payment:visa": "yes", "screen": "1", "website": "https://www.everymancinema.com/", "wheelchair": "limited", "wikidata": "Q42163105"}}, {"type": "node", "id": 7182075445, "lat": 51.5061329, "lon": -0.0178293, "tags": {"addr:city": "London", "addr:housenumber": "1", "addr:postcode": "E14 5AR", "addr:street": "Crossrail Place", "addr:unit": "Unit 44", "amenity": "cinema", "brand": "Everyman Cinemas", "brand:wikidata": "Q5417852", "contact:website": "https://www.everymancinema.com/canary-wharf", "fhrs:id": "842612", "level": "-2", "name": "Everyman"}}, {"type": "node", "id": 7419136377, "lat": 51.4586823, "lon": -0.3053559}, {"type": "node", "id": 7644750323, "lat": 51.5971588, "lon": -0.1088815}, {"type": "node", "id": 7644750324, "lat": 51.597161, "lon": -0.1088647}, {"type": "node", "id": 7644750325, "lat": 51.5971804, "lon": -0.1088737}, {"type": "node", "id": 7644750326, "lat": 51.5968056, "lon": -0.1080501}, {"type": "node", "id": 7644750327, "lat": 51.5967521, "lon": -0.1080408}, {"type": "node", "id": 7644750328, "lat": 51.5967075, "lon": -0.108063}, {"type": "node", "id": 7644750329, "lat": 51.5966894, "lon": -0.1080786}, {"type": "node", "id": 7644750330, "lat": 51.5966756, "lon": -0.108104}, {"type": "node", "id": 7644750331, "lat": 51.5966703, "lon": -0.1081392}, {"type": "node", "id": 7644750332, "lat": 51.596667, "lon": -0.108165}, {"type": "node", "id": 7644750333, "lat": 51.5966663, "lon": -0.1081881}, {"type": "node", "id": 7644750334, "lat": 51.5966659, "lon": -0.1082103}, {"type": "node", "id": 7644750335, "lat": 51.5966689, "lon": -0.1082299}, {"type": "node", "id": 7644750336, "lat": 51.596611, "lon": -0.1085111}, {"type": "node", "id": 7644750337, "lat": 51.5965927, "lon": -0.1085249}, {"type": "node", "id": 7644750338, "lat": 51.5969631, "lon": -0.1090716}, {"type": "node", "id": 7667866865, "lat": 51.5075389, "lon": -0.2228942}, {"type": "node", "id": 7667866866, "lat": 51.5073111, "lon": -0.2227966}, {"type": "node", "id": 7667866867, "lat": 51.507301, "lon": -0.2228332}, {"type": "node", "id": 7667866868, "lat": 51.507172, "lon": -0.2227803}, {"type": "node", "id": 7667866869, "lat": 51.507172, "lon": -0.2227397}, {"type": "node", "id": 7667866870, "lat": 51.5070258, "lon": -0.2226934}, {"type": "node", "id": 7667866871, "lat": 51.5072074, "lon": -0.2216176}, {"type": "node", "id": 7667866872, "lat": 51.5072782, "lon": -0.2216298}, {"type": "node", "id": 7667866873, "lat": 51.5073137, "lon": -0.2215038}, {"type": "node", "id": 7667866874, "lat": 51.5081866, "lon": -0.2210264}, {"type": "node", "id": 7667866875, "lat": 51.5084153, "lon": -0.2211244}, {"type": "node", "id": 7667866876, "lat": 51.5084143, "lon": -0.2212622}, {"type": "node", "id": 7667866877, "lat": 51.5083979, "lon": -0.2214452}, {"type": "node", "id": 7667866878, "lat": 51.5083776, "lon": -0.2216119}, {"type": "node", "id": 7667866879, "lat": 51.5083536, "lon": -0.2217521}, {"type": "node", "id": 7667866880, "lat": 51.5082981, "lon": -0.2219394}, {"type": "node", "id": 7667866881, "lat": 51.5082309, "lon": -0.2221119}, {"type": "node", "id": 7667866882, "lat": 51.5081853, "lon": -0.2222176}, {"type": "node", "id": 7667866883, "lat": 51.5080082, "lon": -0.2233336}, {"type": "node", "id": 7667866884, "lat": 51.5079298, "lon": -0.2232889}, {"type": "node", "id": 7667886585, "lat": 51.5079867, "lon": -0.2229189}, {"type": "node", "id": 7667886586, "lat": 51.507912, "lon": -0.2228701}, {"type": "node", "id": 7667886587, "lat": 51.5080727, "lon": -0.221809}, {"type": "node", "id": 7667886588, "lat": 51.5077159, "lon": -0.2216972}, {"type": "node", "id": 7688129793, "lat": 51.5212813, "lon": -0.0513272}, {"type": "node", "id": 7688129794, "lat": 51.5212822, "lon": -0.0512593}, {"type": "node", "id": 7688129808, "lat": 51.5211891, "lon": -0.0511783}, {"type": "node", "id": 7756557948, "lat": 51.4329339, "lon": -0.0199365, "tags": {"amenity": "cinema", "name": "Bellingham Film Palace"}}, {"type": "node", "id": 7922826590, "lat": 51.5513513, "lon": -0.042859}, {"type": "node", "id": 7930695624, "lat": 51.4945283, "lon": -0.1771484, "tags": {"addr:housenumber": "17", "addr:postcode": "SW7 2DT", "addr:street": "Queensbury Place", "amenity": "cinema", "name": "Cin\u00e9 Lumi\u00e8re", "opening_hours": "Mo-Fr 09:00-21:30; Sa, Su 10:00-21:30", "website": "https://www.institut-francais.org.uk/cine-lumiere/", "wikidata": "Q39594850"}}, {"type": "node", "id": 7961281895, "lat": 51.5514658, "lon": -0.0429311}, {"type": "node", "id": 7961281912, "lat": 51.5512994, "lon": -0.0435265}, {"type": "node", "id": 7961281913, "lat": 51.5513012, "lon": -0.0431023}, {"type": "node", "id": 7961281914, "lat": 51.5513167, "lon": -0.0430347}, {"type": "node", "id": 7961281915, "lat": 51.5512846, "lon": -0.0430183}, {"type": "node", "id": 7961281916, "lat": 51.5513221, "lon": -0.0428537}, {"type": "node", "id": 7961281917, "lat": 51.5514772, "lon": -0.0428902}, {"type": "node", "id": 7961281918, "lat": 51.5514735, "lon": -0.0429334}, {"type": "node", "id": 7961281919, "lat": 51.5514189, "lon": -0.0429167}, {"type": "node", "id": 7961281920, "lat": 51.5514097, "lon": -0.0429609}, {"type": "node", "id": 7961281921, "lat": 51.5513697, "lon": -0.0430951}, {"type": "node", "id": 7961281922, "lat": 51.5513609, "lon": -0.0431353}, {"type": "node", "id": 7961281926, "lat": 51.5514218, "lon": -0.0431219}, {"type": "node", "id": 7961281927, "lat": 51.5514535, "lon": -0.0429871}, {"type": "node", "id": 7961281937, "lat": 51.5511975, "lon": -0.0434051}, {"type": "node", "id": 7961281939, "lat": 51.5511911, "lon": -0.0434712, "tags": {"entrance": "service"}}, {"type": "node", "id": 7961281940, "lat": 51.5512099, "lon": -0.0434826}, {"type": "node", "id": 7961281942, "lat": 51.5513127, "lon": -0.0434701}, {"type": "node", "id": 7961281944, "lat": 51.5512689, "lon": -0.0435159}, {"type": "node", "id": 7961282044, "lat": 51.5512395, "lon": -0.043499, "tags": {"entrance": "main"}}, {"type": "node", "id": 7999775852, "lat": 51.5462328, "lon": -0.1422654}, {"type": "node", "id": 8131686424, "lat": 51.4871496, "lon": -0.1793864}, {"type": "node", "id": 8131686425, "lat": 51.4871444, "lon": -0.1793504}, {"type": "node", "id": 8131686426, "lat": 51.4871108, "lon": -0.1793174}, {"type": "node", "id": 8131686427, "lat": 51.4870665, "lon": -0.1793375}, {"type": "node", "id": 8131686428, "lat": 51.4870428, "lon": -0.1793841}, {"type": "node", "id": 8131686429, "lat": 51.4870162, "lon": -0.1794266}, {"type": "node", "id": 8131686430, "lat": 51.4870288, "lon": -0.1794469}, {"type": "node", "id": 8131686431, "lat": 51.4869483, "lon": -0.1795755}, {"type": "node", "id": 8131686432, "lat": 51.486938, "lon": -0.1795588}, {"type": "node", "id": 8131686433, "lat": 51.4869233, "lon": -0.1795647}, {"type": "node", "id": 8131686434, "lat": 51.4869028, "lon": -0.1795955}, {"type": "node", "id": 8131686435, "lat": 51.4870789, "lon": -0.1793233}, {"type": "node", "id": 8131686436, "lat": 51.4870568, "lon": -0.179361}, {"type": "node", "id": 8131686459, "lat": 51.4871276, "lon": -0.1799537}, {"type": "node", "id": 8131686460, "lat": 51.4870742, "lon": -0.1798778}, {"type": "node", "id": 8133278070, "lat": 51.4871514, "lon": -0.1799863}, {"type": "node", "id": 8133278103, "lat": 51.4869326, "lon": -0.179682}, {"type": "node", "id": 8301294408, "lat": 51.4652395, "lon": -0.2142869}, {"type": "node", "id": 8301294409, "lat": 51.4652277, "lon": -0.2142475}, {"type": "node", "id": 8348478722, "lat": 51.5083106, "lon": -0.066645, "tags": {"addr:city": "London", "addr:housenumber": "150", "addr:postcode": "E1W 2AH", "addr:street": "Vaughan Way", "amenity": "cinema", "name": "London Dock - Residents Cinema"}}, {"type": "node", "id": 8629753788, "lat": 51.5104293, "lon": -0.2259926, "tags": {"addr:housenumber": "101", "addr:street": "Wood Lane", "amenity": "cinema", "name": "Electric Cinema", "website": "https://www.electriccinema.co.uk/cinemas/whitecity/"}}, {"type": "node", "id": 8819117410, "lat": 51.5386355, "lon": -0.1036228, "tags": {"addr:city": "London", "addr:housenumber": "13", "addr:postcode": "N1 1TU", "addr:street": "Esther Anne Place", "amenity": "cinema", "brand": "Odeon", "brand:wikidata": "Q6127470", "name": "Odeon Luxe & Dine", "website": "https://www.odeon.co.uk/cinemas/islington/"}}, {"type": "node", "id": 9056076209, "lat": 51.4884965, "lon": -0.3280474, "tags": {"access": "private", "amenity": "cinema", "name": "Sky Cinema", "note": "Access for Sky employees only.", "screen": "1"}}, {"type": "node", "id": 9090302466, "lat": 51.5326983, "lon": 0.1342452}, {"type": "node", "id": 9090302467, "lat": 51.5326746, "lon": 0.1344461}, {"type": "node", "id": 9120392029, "lat": 51.5288806, "lon": -0.083797, "tags": {"addr:housenumber": "55", "addr:street": "Pitfield Street", "amenity": "cinema", "architect": "Casper Mueller Kneer", "brand": "Curzon", "brand:wikidata": "Q16953326", "brand:wikipedia": "en:Curzon Cinemas", "fhrs:id": "1382277", "food": "yes", "name": "Curzon Hoxton", "website": "https://www.curzon.com/venues/curzon-hoxton/"}}, {"type": "node", "id": 9173442407, "lat": 51.5141977, "lon": -0.1280902}, {"type": "node", "id": 9195722784, "lat": 51.511552, "lon": -0.1302348}, {"type": "node", "id": 9195722788, "lat": 51.5116232, "lon": -0.1299229}, {"type": "node", "id": 9195722791, "lat": 51.5116152, "lon": -0.1299578}, {"type": "node", "id": 9195722792, "lat": 51.511612, "lon": -0.129972, "tags": {"entrance": "service", "note": "Substation access door"}}, {"type": "node", "id": 9195749540, "lat": 51.5113764, "lon": -0.1301852}, {"type": "node", "id": 9195749542, "lat": 51.5113734, "lon": -0.1301922}, {"type": "node", "id": 9195749544, "lat": 51.5113696, "lon": -0.1302016}, {"type": "node", "id": 9195749560, "lat": 51.5114332, "lon": -0.1301058}, {"type": "node", "id": 9195749564, "lat": 51.5114777, "lon": -0.1300791}, {"type": "node", "id": 9195749565, "lat": 51.5115544, "lon": -0.1298759}, {"type": "node", "id": 9195749615, "lat": 51.5115276, "lon": -0.1303413}, {"type": "node", "id": 9195749616, "lat": 51.5113708, "lon": -0.1302132}, {"type": "node", "id": 9195749617, "lat": 51.5113619, "lon": -0.1302394}, {"type": "node", "id": 9196521325, "lat": 51.5105876, "lon": -0.1287521}, {"type": "node", "id": 9196521327, "lat": 51.5106666, "lon": -0.1287674}, {"type": "node", "id": 9196521339, "lat": 51.5104131, "lon": -0.1288466}, {"type": "node", "id": 9196521356, "lat": 51.5104243, "lon": -0.1287206}, {"type": "node", "id": 9300107244, "lat": 51.5450741, "lon": -0.0549789}, {"type": "node", "id": 9333021746, "lat": 51.5065997, "lon": -0.2684113, "tags": {"addr:city": "London", "addr:housename": "The Library", "addr:postcode": "W3 6NA", "addr:street": "High Street", "addr:town": "Acton", "amenity": "cinema", "name": "Act One Cinema", "screen": "1", "website": "https://actonecinema.co.uk/"}}, {"type": "node", "id": 9333538050, "lat": 51.4185688, "lon": 0.00135, "tags": {"addr:city": "Bromley", "addr:housenumber": "94", "addr:postcode": "BR1 4JU", "addr:street": "Bromley Hill", "amenity": "cinema", "description": "Laser Quest is a non-contact sci-fi adventure for people of all ages and abilities.", "email": "info@laserquestbromley.com", "image": "https://laserquestbromley.com/wp-content/uploads/2021/10/laser-quest-3d-logo-black.svg", "name": "Laser Quest & VR Centre Bromley", "opening_hours": "Mo-Th 15:00-21:00; Fr 15:00-22:00; Sa,Su 10:00-22:00", "phone": "+44 2 084 667 689"}}, {"type": "node", "id": 9402591784, "lat": 51.4794676, "lon": -0.0098287}, {"type": "node", "id": 9402591785, "lat": 51.4794699, "lon": -0.0098328}, {"type": "node", "id": 9402591786, "lat": 51.4795968, "lon": -0.0097078}, {"type": "node", "id": 9402591787, "lat": 51.4795738, "lon": -0.0097334}, {"type": "node", "id": 9402591788, "lat": 51.4795514, "lon": -0.0097571}, {"type": "node", "id": 9402591789, "lat": 51.4795294, "lon": -0.0097794}, {"type": "node", "id": 9402591790, "lat": 51.4795066, "lon": -0.0098007}, {"type": "node", "id": 9402591791, "lat": 51.4794036, "lon": -0.0098913}, {"type": "node", "id": 9402591792, "lat": 51.479443, "lon": -0.0098588}, {"type": "node", "id": 9402591793, "lat": 51.4794239, "lon": -0.0098766}, {"type": "node", "id": 9402591794, "lat": 51.4795245, "lon": -0.0094026}, {"type": "node", "id": 9402591795, "lat": 51.4795271, "lon": -0.0093985}, {"type": "node", "id": 9405724041, "lat": 51.5099104, "lon": -0.1302154, "tags": {"addr:city": "London", "addr:housenumber": "38", "addr:postcode": "WC2H 7DX", "addr:street": "Leicester Square", "amenity": "cinema", "brand": "Odeon", "brand:wikidata": "Q6127470", "brand:wikipedia": "en:Odeon Cinemas", "description": "Entrance at ground level, cinema is underground", "name": "Odeon Luxe West End", "screen": "2", "website": "https://www.odeon.co.uk/cinemas/london-west-end/", "wikidata": "Q3349143", "wikipedia": "en:Odeon Luxe West End"}}, {"type": "node", "id": 9519228592, "lat": 51.565068, "lon": -0.1074654, "tags": {"addr:city": "London", "addr:housenumber": "17", "addr:postcode": "N4 3FU", "addr:street": "City North Place", "addr:unit": "1", "amenity": "cinema", "brand": "Picturehouse Cinemas", "brand:wikidata": "Q7191215", "brand:wikipedia": "en:Picturehouse Cinemas", "name": "Finsbury Park Picturehouse", "screen": "7", "website": "https://www.picturehouses.com/cinema/finsbury-park"}}, {"type": "node", "id": 9532225654, "lat": 51.5071699, "lon": -0.1158895}, {"type": "node", "id": 9532225655, "lat": 51.5073214, "lon": -0.115457}, {"type": "node", "id": 9532225656, "lat": 51.5072471, "lon": -0.1153947}, {"type": "node", "id": 9532225657, "lat": 51.5070989, "lon": -0.1158252}, {"type": "node", "id": 9532225658, "lat": 51.5068761, "lon": -0.1155702}, {"type": "node", "id": 9532225660, "lat": 51.5065196, "lon": -0.1153786}, {"type": "node", "id": 9532225661, "lat": 51.5065338, "lon": -0.1153404}, {"type": "node", "id": 9569017543, "lat": 51.4697457, "lon": -0.3619577}, {"type": "node", "id": 9569017544, "lat": 51.4693722, "lon": -0.3617988}, {"type": "node", "id": 9569017545, "lat": 51.469197, "lon": -0.3628603}, {"type": "node", "id": 9569017546, "lat": 51.4695706, "lon": -0.3630192}, {"type": "node", "id": 9592480378, "lat": 51.5429481, "lon": 0.0010142, "tags": {"addr:city": "London", "addr:postcode": "E15 1BX", "addr:street": "Theatre Square", "amenity": "cinema", "brand": "Picturehouse Cinemas", "brand:wikidata": "Q7191215", "brand:wikipedia": "en:Picturehouse Cinemas", "fhrs:id": "864125", "fhrs:local_authority_id": "67665/2002/0/000", "name": "Stratford Picture House", "source:addr": "FHRS Open Data"}}, {"type": "node", "id": 9598226854, "lat": 51.5258239, "lon": -0.2810548}, {"type": "node", "id": 9598226855, "lat": 51.5257016, "lon": -0.2810502}, {"type": "node", "id": 9598226856, "lat": 51.5257669, "lon": -0.2809466}, {"type": "node", "id": 9654279964, "lat": 51.4506196, "lon": 0.0567883, "tags": {"amenity": "cinema", "brand": "Vue", "brand:wikidata": "Q2535134", "brand:wikipedia": "en:Vue Cinemas", "name": "Vue"}}, {"type": "node", "id": 9692133535, "lat": 51.5894811, "lon": -0.1463305}, {"type": "node", "id": 9692133536, "lat": 51.5894545, "lon": -0.1463067}, {"type": "node", "id": 9692133537, "lat": 51.5896019, "lon": -0.1458156}, {"type": "node", "id": 9692133538, "lat": 51.5896313, "lon": -0.1458152}, {"type": "node", "id": 9692133539, "lat": 51.589658, "lon": -0.1458675}, {"type": "node", "id": 9692133540, "lat": 51.5894794, "lon": -0.1460901}, {"type": "node", "id": 9692133541, "lat": 51.5894816, "lon": -0.1461736}, {"type": "node", "id": 9692133542, "lat": 51.5894525, "lon": -0.1461747}, {"type": "node", "id": 9692133543, "lat": 51.5896897, "lon": -0.1459637}, {"type": "node", "id": 9692133544, "lat": 51.5896531, "lon": -0.1458802}, {"type": "node", "id": 9692133545, "lat": 51.5896833, "lon": -0.1459321}, {"type": "node", "id": 9692133546, "lat": 51.5896692, "lon": -0.1458996}, {"type": "node", "id": 9692816408, "lat": 51.5896762, "lon": -0.1459159, "tags": {"access": "customers", "door": "hinged", "entrance": "main"}}, {"type": "node", "id": 9722460895, "lat": 51.4751909, "lon": -0.2407891}, {"type": "node", "id": 9722460896, "lat": 51.4753519, "lon": -0.2408501}, {"type": "node", "id": 9723449180, "lat": 51.4905038, "lon": 0.0133114}, {"type": "node", "id": 9723449181, "lat": 51.4904307, "lon": 0.0132667}, {"type": "node", "id": 9723449182, "lat": 51.4904373, "lon": 0.0132391}, {"type": "node", "id": 9723449183, "lat": 51.4905104, "lon": 0.0132838}, {"type": "node", "id": 9723449184, "lat": 51.4908906, "lon": 0.0130619}, {"type": "node", "id": 9723449185, "lat": 51.4908463, "lon": 0.013158}, {"type": "node", "id": 9723449186, "lat": 51.490827, "lon": 0.013135}, {"type": "node", "id": 9723449187, "lat": 51.4908713, "lon": 0.0130389}, {"type": "node", "id": 9723449188, "lat": 51.4909361, "lon": 0.0128514}, {"type": "node", "id": 9723449189, "lat": 51.4909185, "lon": 0.0129699}, {"type": "node", "id": 9723449190, "lat": 51.4907288, "lon": 0.0122715}, {"type": "node", "id": 9723449191, "lat": 51.4907953, "lon": 0.012334}, {"type": "node", "id": 9723449192, "lat": 51.4907846, "lon": 0.0123633}, {"type": "node", "id": 9723449193, "lat": 51.4907181, "lon": 0.0123008}, {"type": "node", "id": 9723449194, "lat": 51.4902677, "lon": 0.0128639}, {"type": "node", "id": 9723449195, "lat": 51.4908958, "lon": 0.0129612}, {"type": "node", "id": 9723449196, "lat": 51.4909135, "lon": 0.0127228}, {"type": "node", "id": 9723449197, "lat": 51.4908667, "lon": 0.0125038}, {"type": "node", "id": 9723449198, "lat": 51.4906301, "lon": 0.0122596}, {"type": "node", "id": 9723449199, "lat": 51.4904594, "lon": 0.0122989}, {"type": "node", "id": 9723449200, "lat": 51.4903654, "lon": 0.0123986}, {"type": "node", "id": 9733052917, "lat": 51.5223614, "lon": -0.0810416, "tags": {"amenity": "cinema", "name": "Rooftop Film Club"}}, {"type": "node", "id": 9733055717, "lat": 51.5416661, "lon": -0.0011234, "tags": {"amenity": "cinema", "name": "Rooftop Film Club", "opening_hours": "May-Oct; PH"}}, {"type": "node", "id": 9806434231, "lat": 51.5817407, "lon": -0.1200366}, {"type": "node", "id": 9806434232, "lat": 51.5817483, "lon": -0.1200151}, {"type": "node", "id": 9806434239, "lat": 51.58169, "lon": -0.1199809}, {"type": "node", "id": 9866083391, "lat": 51.5127858, "lon": -0.3043045, "tags": {"amenity": "cinema", "level": "-1;0", "name": "Ealing Project", "operator": "Really Local Group", "screen": "3", "toilets": "yes", "wheelchair": "yes"}}, {"type": "node", "id": 9925608432, "lat": 51.5447959, "lon": -0.0551791, "tags": {"entrance": "main"}}, {"type": "node", "id": 9960451065, "lat": 51.5056351, "lon": -0.0922029, "tags": {"addr:city": "London", "addr:housename": "Dirty Lane", "addr:housenumber": "3", "addr:postcode": "SE1 9PA", "addr:street": "Dirty Lane", "amenity": "cinema", "branch": "Borough Yards", "brand": "Everyman Cinemas", "brand:wikidata": "Q5417852", "fhrs:id": "1468356", "name": "Everyman", "source:addr": "FHRS Open Data", "website": "https://www.everymancinema.com/"}}, {"type": "node", "id": 10124962791, "lat": 51.512233, "lon": -0.3044871, "tags": {"amenity": "cinema", "level": "-1;0", "name": "Ealing Project", "operator": "Really Local Group", "screen": "3", "toilets": "yes", "wheelchair": "yes"}}, {"type": "node", "id": 10129230355, "lat": 51.5589007, "lon": -0.1215854}, {"type": "node", "id": 10255674577, "lat": 51.459185, "lon": -0.1922538, "tags": {"amenity": "cinema", "name": "Backyard Cinema", "website": "https://www.backyardcinema.co.uk/"}}, {"type": "node", "id": 10554856531, "lat": 51.5061096, "lon": -0.1311127, "tags": {"amenity": "cinema", "check_date": "2023-01-14", "name": "ICA Cinema", "screen": "2"}}, {"type": "node", "id": 10583928430, "lat": 51.5574848, "lon": 0.073899, "tags": {"amenity": "cinema", "brand": "Cineworld", "brand:wikidata": "Q5120901", "name": "Cineworld"}}, {"type": "node", "id": 10605201888, "lat": 51.6329272, "lon": -0.0374694}, {"type": "node", "id": 10605201889, "lat": 51.6328754, "lon": -0.037179}, {"type": "node", "id": 10605201890, "lat": 51.6329035, "lon": -0.037166}, {"type": "node", "id": 10605201891, "lat": 51.6329553, "lon": -0.0374564}, {"type": "node", "id": 10605201892, "lat": 51.6329862, "lon": -0.0376293}, {"type": "node", "id": 10605201893, "lat": 51.6328873, "lon": -0.037075}, {"type": "node", "id": 10605201894, "lat": 51.6329677, "lon": -0.0376378}, {"type": "node", "id": 10605201895, "lat": 51.6328688, "lon": -0.0370836}, {"type": "way", "id": 4270352, "nodes": [25637025, 25636982, 1175493267, 1175493217, 1175493199, 1175493213, 25636999, 25637017, 10605201895, 10605201893, 10605201890, 10605201889, 10605201888, 10605201891, 10605201892, 10605201894, 25637025], "tags": {"addr:postcode": "N9 0AS", "addr:street": "Picketts Lock Lane", "amenity": "cinema", "brand": "Odeon", "brand:wikidata": "Q6127470", "building": "block", "contact:website": "https://www.odeon.co.uk/cinemas/lee-valley/", "name": "Odeon Lee Valley", "operator": "Odeon", "wikidata": "Q42162360"}}, {"type": "way", "id": 4421348, "nodes": [27091603, 27091604, 27091605, 27091606, 27091607, 27091608, 27091609, 27094651, 3160210318, 27091610, 27094649, 27091611, 27091612, 27091613, 27091614, 27091617, 27091615, 27091618, 27091603], "tags": {"amenity": "cinema", "building": "cinema", "name": "Cineworld Enfield", "operator": "Cineworld", "toilets:wheelchair": "yes", "wheelchair": "yes", "wheelchair:description": "There is a lift to go upstairs for more screens. But be aware that the lift might be faulty.", "wikidata": "Q42162714"}}, {"type": "way", "id": 14495071, "nodes": [142464549, 142464540, 142464541, 142464543, 142464544, 7688129808, 142464546, 142464547, 7688129794, 7688129793, 142464548, 142464549], "tags": {"addr:city": "London", "addr:housenumber": "93-95", "addr:postcode": "E1 4UJ", "addr:street": "Mile End Road", "amenity": "cinema", "building": "yes", "fhrs:id": "73356", "name": "Genesis Cinema", "not:brand:wikidata": "Q21451523", "website": "https://genesiscinema.co.uk/", "wikidata": "Q32271096"}}, {"type": "way", "id": 22476427, "nodes": [241162285, 241162297, 241162311, 241162319, 2589632821, 2589632820, 2589632818, 2589632819, 2589632816, 2589632815, 2589632814, 7026450532, 241162285], "tags": {"addr:city": "Feltham", "addr:housename": "Leisure West", "addr:postcode": "TW13 7EF", "addr:street": "Browells Lane", "alt_name": "Cineworld Feltham", "amenity": "cinema", "brand": "Cineworld", "brand:wikidata": "Q5120901", "brand:wikipedia": "en:Cineworld", "building": "cinema", "fhrs:id": "491239", "fhrs:local_authority_id": "9177", "name": "Cineworld", "toilets:wheelchair": "yes", "wheelchair": "yes", "wikidata": "Q41537376"}}, {"type": "way", "id": 23038814, "nodes": [248550403, 248550404, 248550405, 248550406, 248550403], "tags": {"amenity": "cinema", "brand": "Odeon", "brand:wikidata": "Q6127470", "brand:wikipedia": "en:Odeon Cinemas", "building": "yes", "contact:website": "https://www.odeon.co.uk/cinemas/surrey-quays/", "name": "Odeon", "wheelchair": "yes"}}, {"type": "way", "id": 23081724, "nodes": [249138878, 249138879, 249138880, 1887555588, 249138878], "tags": {"addr:housenumber": "47-49", "addr:postcode": "SW16 1PW", "addr:street": "Streatham High Road", "amenity": "cinema", "brand": "Odeon", "brand:wikidata": "Q6127470", "building": "yes", "contact:website": "https://www.odeon.co.uk/cinemas/streatham/", "fhrs:authority": "Lambeth", "fhrs:id": "484497", "fhrs:inspectiondate": "2012-03-17", "fhrs:rating": "5", "name": "Streatham Odeon", "screen": "8", "toilets:wheelchair": "yes", "wheelchair": "limited"}}, {"type": "way", "id": 30049479, "nodes": [330957983, 2646582318, 2646582325, 2646582324, 330957985, 2646582322, 2646582319, 330957986, 330957988, 2646582320, 2646582323, 330957990, 2646582317, 2646582316, 330957991, 2646582321, 330957993, 330957995, 10129230355, 330957983], "tags": {"addr:city": "London", "addr:housenumber": "419-427", "addr:postcode": "N7 6LJ", "addr:street": "Holloway Road", "amenity": "cinema", "brand": "Odeon", "brand:wikidata": "Q6127470", "building": "yes", "contact:website": "https://www.odeon.co.uk/cinemas/holloway/", "description": "State-of-the-art chain cinema for blockbusters in 2-D or 3-D format, plus family and student deals.", "fhrs:id": "415983", "name": "Odeon Holloway", "operator": "Odeon", "wikidata": "Q26664794"}}, {"type": "way", "id": 31305418, "nodes": [348323465, 348323467, 348323468, 348323471, 348323465], "tags": {"addr:city": "London", "addr:country": "GB", "addr:housenumber": "83", "addr:postcode": "N1 0NP", "addr:street": "Upper Street", "amenity": "cinema", "building": "yes", "building:colour": "white", "building:levels": "1", "building:material": "plaster", "contact:website": "https://www.everymancinema.com/screen-on-the-green", "name": "Screen on the Green", "old_name": "The Empress Picture Theatre;The Rex", "operator": "Everyman Media Group PLC", "roof:colour": "grey", "roof:shape": "gabled", "wheelchair": "no", "wheelchair:description": "Steps at entrance", "wikidata": "Q7762705", "wikipedia": "en:The Screen On The Green"}}, {"type": "way", "id": 38153961, "nodes": [449110100, 6284685147, 449110105, 449110107, 449110108, 7644750338, 449110110, 449110115, 2339273450, 2339273451, 449110121, 459786436, 2339273454, 2339273452, 449110126, 449110131, 449110133, 7644750323, 7644750324, 7644750325, 449110145, 449110152, 2339273447, 449110153, 2339273446, 449110154, 7644750326, 449110156, 7644750327, 449110157, 7644750328, 7644750329, 7644750330, 7644750331, 7644750332, 7644750333, 7644750334, 7644750335, 7644750336, 7644750337, 6284685148, 449110100], "tags": {"amenity": "cinema", "building": "cinema", "name": "Hollywood Green", "operator": "Vue"}}, {"type": "way", "id": 40463229, "nodes": [490173901, 490173904, 490173906, 26846367, 9173442407, 490173901], "tags": {"addr:city": "London", "addr:housenumber": "135", "addr:postcode": "WC2H 8AH", "addr:street": "Shaftesbury Avenue", "amenity": "cinema", "brand": "Odeon", "brand:wikidata": "Q6127470", "building": "yes", "building:colour": "brown", "building:material": "brick", "height": "10", "name": "Odeon Covent Garden", "note": "Height is very approximate", "roof:colour": "grey", "roof:shape": "flat", "website": "https://www.odeon.co.uk/cinemas/london-covent-garden/", "wheelchair": "no", "wikidata": "Q7428236", "wikipedia": "en:Saville Theatre"}}, {"type": "way", "id": 67706805, "nodes": [817649806, 9090302467, 9090302466, 817649807, 817649810, 817649811, 817649806], "tags": {"amenity": "cinema", "building": "yes", "name": "Vue Dagenham"}}, {"type": "way", "id": 71380122, "nodes": [849394352, 4130111424, 849394168, 849394586, 4130111423, 849394916, 849394352], "tags": {"addr:city": "Barnet", "addr:postcode": "EN5 1AB", "addr:street": "Great North Road", "amenity": "cinema", "building": "yes", "name": "Barnet Everyman Cinema", "roof:shape": "half-hipped", "website": "https://www.everymancinema.com/venues/barnet/whats-on/", "wikidata": "Q20876247"}}, {"type": "way", "id": 77002327, "nodes": [906743009, 3485171843, 906742992, 3485171845, 906743005, 3485171846, 3485171844, 3485171825, 3485171807, 3485171803, 906743011, 906743008, 3485171245, 3485171271, 3485171286, 3485167588, 3485171811, 3485171834, 3485171840, 906743009], "tags": {"addr:city": "London", "addr:housenumber": "38", "addr:postcode": "W1J 7TY", "addr:street": "Curzon Street", "amenity": "cinema", "building": "yes", "contact:phone": "+44 871 7033989", "name": "Curzon Mayfair", "wikidata": "Q27083540"}}, {"type": "way", "id": 78230879, "nodes": [918758055, 918757801, 918757324, 918757054, 918758641, 918757495, 918758331, 918756729, 918756826, 918756604, 918758055], "tags": {"addr:city": "London", "addr:housenumber": "95a", "addr:postcode": "SE15 4ST", "addr:street": "Rye Lane", "amenity": "cinema", "building": "yes", "fhrs:id": "421379", "name": "Peckhamplex", "source": "Bing;OS StreetView", "source:addr": "FHRS Open Data", "website": "http://www.peckhamplex.com/", "wikidata": "Q42046612"}}, {"type": "way", "id": 81353304, "nodes": [947964753, 4690153399, 9806434232, 9806434231, 947964755, 9806434239, 947964756, 947964753], "tags": {"amenity": "cinema", "building": "yes", "name": "ArtHouse Crouch End", "source": "OS", "website": "http://www.arthousecrouchend.co.uk/", "wikidata": "Q42119644"}}, {"type": "way", "id": 91030820, "nodes": [1057110722, 1057109800, 1057109645, 1057110480, 1057110415, 1057109661, 1057109210, 7419136377, 1057109371, 1057109706, 1057109377, 1057110483, 1057110455, 1057110111, 1057109724, 1057110397, 1057110121, 1057110072, 1057109412, 4317591780, 1057110722], "tags": {"addr:city": "Richmond", "addr:housenumber": "72", "addr:postcode": "TW9 1TW", "addr:street": "Hill Street", "amenity": "cinema", "brand": "Odeon", "brand:wikidata": "Q6127470", "brand:wikipedia": "en:Odeon Cinemas", "building": "yes", "building:levels": "2", "check_date": "2023-02-27", "fhrs:id": "583871", "internet_access": "no", "name": "Odeon Richmond (Screens 1-3)", "note": "Screens 1 to 3 of Odeon Richmond.", "operator": "Odeon", "payment:american_express": "yes", "payment:credit_cards": "yes", "payment:mastercard": "yes", "payment:visa": "yes", "source:addr:postcode": "FHRS", "website": "https://www.odeon.co.uk/cinemas/richmond/", "wheelchair": "yes", "wikidata": "Q27082557"}}, {"type": "way", "id": 91275364, "nodes": [1059665665, 1059665671, 1059666183, 1059666215, 1059666180, 1838135385, 1059665449, 1059666019, 1059666173, 2866881754, 2866881752, 1059665665], "tags": {"amenity": "cinema", "brand": "Odeon", "brand:wikidata": "Q6127470", "building": "yes", "contact:website": "https://www.odeon.co.uk/cinemas/south-woodford/", "name": "Odeon South Woodford", "source": "Yahoo", "wikidata": "Q42203392"}}, {"type": "way", "id": 95223664, "nodes": [1104598700, 1104598711, 1104598826, 1104598585, 1104598763, 1104599075, 1104598700], "tags": {"addr:city": "London", "addr:housenumber": "116a", "addr:postcode": "SE22 8HD", "addr:street": "Lordship Lane", "amenity": "cinema", "brand": "Picturehouse Cinemas", "brand:wikidata": "Q7191215", "building": "yes", "fhrs:id": "797904", "name": "East Dulwich Picturehouse", "source": "Bing;OS StreetView", "wikidata": "Q42158540"}}, {"type": "way", "id": 113030031, "nodes": [1283104743, 1283104750, 8131686424, 8131686425, 1283104751, 8131686426, 1283104752, 8131686435, 8131686427, 8131686436, 1283104754, 8131686428, 8131686429, 8131686430, 8131686431, 8131686432, 8131686433, 8131686434, 1283104755, 8133278103, 8131686460, 8131686459, 8133278070, 1283104768, 1283104769, 1283104770, 1283104743], "tags": {"addr:housenumber": "142", "addr:street": "Fulham Road", "amenity": "cinema", "brand": "Picturehouse Cinemas", "brand:wikidata": "Q7191215", "building": "yes", "description": "This was designed and built in 1930 as the Forum Cinema by prominent cinema designers, J. Stanley Beard and Clare.", "name": "Fulham Road Picturehouse", "postal_code": "SW10 9QR", "screen": "6", "source": "Bing", "start_date": "2019-12-8"}}, {"type": "way", "id": 123444154, "nodes": [1376582829, 1376582816, 1376582856, 1376582821, 1376582832, 1376582881, 1376582841, 1376582813, 1376582885, 1376582843, 1376582814, 1376582846, 1376582862, 1376582827, 1376582871, 1376582835, 1376582863, 1376582828, 1376582877, 1376582836, 1376582829], "tags": {"addr:city": "London", "addr:country": "GB", "addr:housenumber": "1", "addr:postcode": "SE1 8XR", "addr:street": "Charlie Chaplin Walk", "amenity": "cinema", "brand": "Odeon", "brand:wikidata": "Q6127470", "building": "yes", "building:material": "glass", "contact:website": "http://www.bfi.org.uk/bfi-imax", "height": "25", "name": "BFI IMAX", "operator": "British Film Institute", "payment:cash": "yes", "payment:debit_cards": "yes", "roof:height": "3", "roof:material": "glass", "roof:shape": "dome", "screen": "1", "tourism": "attraction", "wheelchair": "yes", "wikidata": "Q6670485", "wikipedia": "en:London IMAX"}}, {"type": "way", "id": 123701976, "nodes": [1378606984, 1378607033, 1378607102, 1378606952, 1378607000, 1378607058, 1378607074, 1378607023, 1378607121, 1378606967, 1378607065, 1378606991, 1378607104, 1378607007, 1378606956, 1378607112, 1378607037, 1378606953, 1378606984], "tags": {"amenity": "cinema", "brand": "Odeon", "brand:wikidata": "Q6127470", "building": "yes", "building:levels": "2", "contact:website": "https://www.odeon.co.uk/cinemas/swiss-cottage/", "name": "Odeon Swiss Cottage", "wheelchair": "yes", "wikidata": "Q42198399"}}, {"type": "way", "id": 142371471, "nodes": [57215755, 1558137279, 1558137277, 1558137273, 1558137271, 1558137272, 1558137274, 1558137285, 1558137287, 1558137289, 1558137291, 1558137292, 1558137299, 1558137298, 1558137301, 1558137300, 1558137302, 1558137304, 4171814531, 9300107244, 4171814532, 9925608432, 1558137283, 57215755], "tags": {"addr:city": "London", "addr:housenumber": "270", "addr:postcode": "E8 1HE", "addr:street": "Mare Street", "air_conditioning": "yes", "amenity": "cinema", "bar": "yes", "brand": "Picturehouse Cinemas", "brand:wikidata": "Q7191215", "brand:wikipedia": "en:Picturehouse Cinemas", "building": "yes", "building:levels": "4", "building:material": "sandstone", "changing_table": "yes", "check_date": "2022-07-11", "contact:website": "https://www.picturehouses.com/cinema/Hackney_Picturehouse", "diet:vegetarian": "yes", "fhrs:id": "470460", "food": "yes", "internet_access": "wlan", "internet_access:fee": "customers", "name": "Hackney Picturehouse", "opening_hours": "Mo-Su 08:00-01:00", "operator": "Picturehouse", "payment:credit_cards": "yes", "payment:debit_cards": "yes", "roof:colour": "grey", "roof:levels": "1", "roof:shape": "hipped", "screen": "6", "source": "Bing;survey", "survey:date": "2022-05-09", "toilets": "customers", "toilets:wheelchair": "yes", "was:amenity": "music_venue", "was:name": "The Ocean", "wheelchair": "yes", "wheelchair:description": "https://www.picturehouses.com/cinema/info/Hackney_Picturehouse#disabled-access", "wikidata": "Q42118694"}}, {"type": "way", "id": 150702283, "nodes": [1635924962, 9532225656, 9532225655, 9532225654, 9532225657, 1635924886, 9532225658, 1646025010, 1635924960, 1635924894, 9532225661, 9532225660, 1635925031, 1635924950, 1635925012, 1635924912, 1635925035, 1635924965, 1635924898, 1635924901, 1635925038, 1635925045, 1635924958, 1635924973, 1635924962], "tags": {"addr:housenumber": "1", "addr:postcode": "SE1 8XR", "addr:street": "Charlie Chaplin Walk", "amenity": "cinema", "building": "yes", "name": "BFI Southbank", "old_name": "National Film Theatre", "operator": "British Film Institute", "phone": "+44 20 7928 3232", "postal_code": "SE1 8XR", "website": "https://www.bfi.org.uk/bfi-southbank", "wheelchair": "yes", "wikidata": "Q683076", "wikipedia": "en:BFI Southbank"}}, {"type": "way", "id": 153661807, "nodes": [1663003937, 1663003856, 1663003841, 1663003834, 1663003795, 1663003824, 1663003847, 1663003867, 1663003897, 1663003937], "tags": {"addr:city": "London", "addr:housenumber": "62-65", "addr:street": "Haymarket", "amenity": "cinema", "building": "yes", "fhrs:confidence_management": "5", "fhrs:hygiene": "10", "fhrs:id": "410892", "fhrs:local_authority_id": "00095/0062/0/000", "fhrs:rating": "3", "fhrs:structural": "10", "name": "Empire Cinemas", "postal_code": "SW1Y 4BP", "source": "Bing", "source:addr": "FSA Food Hygiene Ratings Database", "source:postcode": "FSA Food Hygiene Ratings Database", "wheelchair": "no"}}, {"type": "way", "id": 160661213, "nodes": [1727000377, 1727000368, 1727000365, 1727000367, 1727000369, 243707544, 9402591791, 9402591793, 9402591792, 1727000371, 9402591784, 9402591785, 1727000376, 9402591790, 9402591789, 9402591788, 9402591787, 9402591786, 1727000379, 1727000380, 1727000381, 9402591795, 9402591794, 1727000377], "tags": {"addr:city": "London", "addr:housenumber": "180", "addr:postcode": "SE10 8NN", "addr:street": "Greenwich High Road", "amenity": "cinema", "brand": "Picturehouse Cinemas", "brand:wikidata": "Q7191215", "building": "retail", "fhrs:id": "694370", "name": "Greenwich Picturehouse", "opening_hours": "\"whenever a film is on\"", "toilets:wheelchair": "yes", "website": "https://www.picturehouses.com/cinema/greenwich-picturehouse", "wheelchair": "yes", "wikidata": "Q42118542"}}, {"type": "way", "id": 166292135, "nodes": [267919781, 1777475796, 1777475795, 9598226854, 9598226856, 9598226855, 1777475793, 1777475794, 1777475781, 1777475780, 1777475776, 1777475775, 1777475786, 1777475783, 1777475791, 1777475790, 1777475797, 1777475798, 1777475799, 1777475800, 1777475802, 1777475803, 1777475801, 267919781], "tags": {"amenity": "cinema", "brand": "Vue", "brand:wikidata": "Q2535134", "brand:wikipedia": "en:Vue Cinemas", "building": "yes", "name": "Vue Cinema Acton", "phone": "+44 8712 240 240", "source:outline": "Bing", "wikidata": "Q42203571"}}, {"type": "way", "id": 180571964, "nodes": [1909975201, 9196521327, 9196521325, 9196521356, 9196521339, 1909975193, 1909975192, 1909975199, 4854756574, 1909975201], "tags": {"addr:city": "London", "addr:housename": "Leicester Square", "addr:housenumber": "24-27", "addr:postcode": "WC2H 7LE", "amenity": "cinema", "brand": "Odeon", "brand:wikidata": "Q6127470", "brand:wikipedia": "en:Odeon Cinemas", "building": "yes", "fhrs:id": "412960", "layer": "1", "name": "Odeon Leicester Square", "source:addr": "FHRS Open Data", "wheelchair": "limited", "wikidata": "Q3349144", "wikipedia": "en:Odeon Leicester Square"}}, {"type": "way", "id": 180594287, "nodes": [9195749565, 1835298155, 9195722788, 9195722791, 9195722792, 9195722784, 9195749615, 1835298251, 9195749617, 9195749616, 1910143609, 9195749544, 9195749542, 9195749540, 1910143613, 9195749560, 9195749564, 70750056, 9195749565], "tags": {"addr:city": "London", "addr:housenumber": "7", "addr:street": "Leicester Place", "amenity": "cinema", "building": "yes", "building:colour": "lightgrey", "building:levels": "6", "building:material": "concrete", "fhrs:id": "411668", "fhrs:local_authority_id": "00526/0007/0/001", "image": "https://archive.org/details/west-end-2019-05-24/DSCN0063.JPG", "name": "Prince Charles Cinema", "postal_code": "WC2H 7BP", "roof:colour": "grey", "roof:shape": "flat", "source:addr": "FSA Food Hygiene Ratings Database", "source:postcode": "FSA Food Hygiene Ratings Database", "wheelchair": "limited", "wikidata": "Q7243849", "wikipedia": "en:Prince Charles Cinema"}}, {"type": "way", "id": 188144238, "nodes": [1987682931, 1987682941, 1987682938, 1987682936, 1987682931], "tags": {"amenity": "cinema", "designation": "Film set", "name": "Winchester pub (Shaun of Dead)", "source": "SR"}}, {"type": "way", "id": 199561799, "nodes": [1257763217, 1257801415, 2095564937, 2095564940, 1257763218, 1257763219, 1257763220, 1257763217], "tags": {"amenity": "cinema", "brand": "Everyman Cinemas", "brand:wikidata": "Q5417852", "brand:wikipedia": "en:Everyman Cinemas", "building": "yes", "name": "Everyman", "wikidata": "Q5417851"}}, {"type": "way", "id": 208422244, "nodes": [2187159985, 1381606960, 2187159983, 2187159978, 2187159985], "tags": {"addr:city": "London", "addr:housenumber": "215", "addr:postcode": "W9 1RU", "addr:street": "Sutherland Avenue", "amenity": "cinema", "building": "yes", "building:levels": "1", "contact:website": "http://www.everymancinema.com/cinemas/maida-vale/find-us", "name": "Everyman", "payment:american_express": "yes"}}, {"type": "way", "id": 218259617, "nodes": [9723449183, 1936974673, 1936974669, 1936974701, 1936974683, 1936974678, 9723449186, 9723449185, 9723449184, 9723449187, 9723449195, 9723449189, 9723449188, 1936974713, 9723449196, 1936974686, 9723449197, 1936974698, 9723449192, 9723449191, 9723449190, 9723449193, 1936974681, 9723449198, 7162446963, 1936974723, 9723449199, 1936974684, 9723449200, 7162446964, 1936974706, 1936974680, 2275267673, 9723449194, 2275267667, 2275267677, 1936974711, 1936974708, 9723449182, 9723449181, 9723449180, 9723449183], "tags": {"addr:housenumber": "61", "addr:postcode": "SE10 0QJ", "addr:street": "Bugsby's Way", "addr:suburb": "Charlton", "amenity": "cinema", "brand": "Odeon", "brand:wikidata": "Q6127470", "building": "yes", "contact:website": "https://www.odeon.co.uk/cinemas/greenwich/", "fhrs:id": "694144", "name": "Odeon IMAX", "roof:shape": "flat"}}, {"type": "way", "id": 224192326, "nodes": [2330164417, 2330164418, 2330164413, 2330164422, 3376589720, 3376589721, 2330164409, 2330164417], "tags": {"addr:city": "London", "addr:housenumber": "107", "addr:postcode": "E8 2PB", "addr:street": "Kingsland High Street", "amenity": "cinema", "building": "yes", "building:colour": "white", "building:levels": "4", "building:material": "plaster", "capacity": "402", "contact:phone": "+44 20 7241 9410", "contact:website": "http://riocinema.com/", "email": "admin@riocinema.org.uk", "fhrs:id": "468824", "image": "https://en.wikipedia.org/wiki/Rio_Cinema_(Dalston)#/media/File:Rio_Cinema_(Dalston).jpg", "name": "Rio Cinema", "old_name": "Kingsland Picture Palace;Kingsland Empire;Classic;Tatler", "phone": "+44 20 7241 9410", "roof:colour": "grey", "roof:shape": "hipped", "screen": "2", "start_date": "1909", "wheelchair": "yes", "wikidata": "Q18161458", "wikipedia": "en:Rio Cinema (Dalston)"}}, {"type": "way", "id": 291651296, "nodes": [2951164814, 2951164815, 2951164816, 2951164817, 2951164818, 2951164819, 2951164820, 2951164821, 2951164814], "tags": {"addr:city": "London", "addr:postcode": "WC1N 1AW", "addr:street": "The Brunswick", "amenity": "cinema", "building": "yes", "name": "Curzon Bloomsbury", "old_name": "Curzon Renoir", "website": "https://www.curzoncinemas.com/bloomsbury", "wheelchair": "yes", "wikidata": "Q41895623"}}, {"type": "way", "id": 291687181, "nodes": [455185557, 7999775852, 2951562052, 2951562056, 2951562057, 455185554, 455185557], "tags": {"amenity": "cinema", "building": "yes", "note": "(Under construction)"}}, {"type": "way", "id": 332400975, "nodes": [3395219848, 5747790869, 5747790868, 3395219846, 3395219839, 3395219838, 3395219840, 3395219841, 5747790870, 3395219842, 3395219843, 3395219844, 3395219848], "tags": {"amenity": "cinema", "building": "yes", "name": "Cineworld Cinemas"}}, {"type": "way", "id": 356675364, "nodes": [3620876539, 2724984564, 2734715256, 3620876526, 3620876519, 3620876499, 3620876507, 3620876515, 3620876520, 3620876521, 3620876523, 3620876518, 3620876522, 3620876529, 3620876533, 3620876524, 3620876530, 3620876534, 3620876539], "tags": {"addr:city": "London", "addr:housenumber": "87", "addr:postcode": "W11 3JZ", "addr:street": "Notting Hill Gate", "amenity": "cinema", "brand": "Picturehouse Cinemas", "brand:wikidata": "Q7191215", "building": "yes", "building:colour": "white", "building:levels": "3", "building:material": "plaster", "name": "Gate Cinema", "old_name": "Embassy Cinema", "source:old_name": "1954 OS map", "website": "http://www.picturehouses.co.uk/cinema/Gate_Picturehouse/", "wikidata": "Q27086823"}}, {"type": "way", "id": 357556094, "nodes": [255684798, 3627822493, 3627822519, 3627822522, 255684798], "tags": {"addr:housenumber": "191", "addr:street": "Portobello Road", "amenity": "cinema", "building": "yes", "name": "Electric Cinema", "wikidata": "Q5357329", "wikipedia": "en:Electric Cinema (Notting Hill)"}}, {"type": "way", "id": 399428758, "nodes": [5215445507, 5215445512, 4021758418, 5215445506, 4021758419, 5215445505, 4021758421, 4021758423, 9692133535, 4021759125, 9692133536, 9692133542, 9692133541, 9692133540, 5215445504, 5215445498, 4021758446, 5215445499, 9692133537, 5215445500, 9692133538, 5215445501, 9692133539, 9692133544, 9692133546, 9692816408, 9692133545, 9692133543, 4021758474, 5215445502, 5215445503, 5215445507], "tags": {"addr:city": "London", "addr:postcode": "N10 3HP", "addr:street": "Fortis Green Road", "amenity": "cinema", "building": "commercial", "description": "Art deco cinema", "fhrs:id": "422630", "internet_access": "wlan", "internet_access:fee": "no", "name": "Everyman Cinema", "not:brand:wikidata": "Q5417852", "opening_hours": "Mo-Su 12:00-23:00", "screen": "3", "toilets": "yes", "toilets:access": "customers", "wheelchair": "limited", "wikidata": "Q17551377"}}, {"type": "way", "id": 425222125, "nodes": [254924501, 1484198414, 4247304414, 1484198433, 464800450, 4247510592, 4247304417, 4247510593, 4247510594, 1484198312, 4247510595, 367735573, 4247304421, 4247304422, 1484198288, 4245251054, 4247304419, 254924501], "tags": {"amenity": "cinema", "brand": "Odeon", "brand:wikidata": "Q6127470", "brand:wikipedia": "en:Odeon Cinemas", "contact:website": "https://www.odeon.co.uk/cinemas/london-tottenham-court-road/", "name": "Odeon"}}, {"type": "way", "id": 432809894, "nodes": [4317609253, 4317609257, 4317609248, 4317609251, 4317609250, 4317609247, 4317609240, 4317609243, 4317609236, 4317609234, 4317609237, 4317609253], "tags": {"addr:city": "Richmond", "addr:housenumber": "6", "addr:postcode": "TW9 1RW", "addr:street": "Red Lion Street", "amenity": "cinema", "brand": "Odeon", "brand:wikidata": "Q6127470", "brand:wikipedia": "en:Odeon Cinemas", "building": "yes", "building:levels": "2", "check_date": "2022-09-28", "internet_access": "no", "name": "Odeon Richmond Studio (Screens 4-7)", "note": "Screens 4 to 7 of Odeon Richmond.", "operator": "Odeon", "payment:american_express": "yes", "payment:credit_cards": "yes", "payment:mastercard": "yes", "payment:visa": "yes", "source:addr:postcode": "code-point_open", "website": "https://www.odeon.co.uk/cinemas/richmond/", "wheelchair": "limited"}}, {"type": "way", "id": 451257601, "nodes": [4480859695, 4480859691, 4480859690, 8301294409, 8301294408, 4480859696, 4480859698, 4480859697, 4480859695], "tags": {"addr:city": "London", "addr:housenumber": "26", "addr:street": "Putney High Street", "amenity": "cinema", "brand": "Odeon", "brand:wikidata": "Q6127470", "brand:wikipedia": "en:Odeon Cinemas", "building": "yes", "contact:website": "https://www.odeon.co.uk/cinemas/putney/", "name": "ODEON Putney", "opening_hours:signed": "no", "wikidata": "Q42203844"}}, {"type": "way", "id": 467469463, "nodes": [4620848605, 4620848602, 4620848603, 4620848604, 4620848605], "tags": {"addr:housenumber": "194b", "addr:postcode": "NW10 3JU", "addr:street": "Chamberlayne Road", "amenity": "cinema", "building": "yes", "building:colour": "gray", "building:levels": "2", "contact:website": "https://thelexicinema.co.uk/", "ele": "62.37", "name": "Lexi Cinema", "roof:colour": "black", "roof:shape": "gabled", "wikidata": "Q42164327"}}, {"type": "way", "id": 490724409, "nodes": [4829130882, 7961281922, 7961281921, 7961281926, 7961281927, 7961281920, 7961281919, 7961281895, 7961281918, 7961281917, 7922826590, 7961281916, 4829130877, 7961281915, 7961281914, 7961281913, 4829130874, 4829130869, 7961281937, 4829130864, 7961281939, 4829130870, 7961281940, 7961282044, 7961281944, 4829130878, 7961281912, 7961281942, 4829130882], "tags": {"addr:city": "London", "addr:housenumber": "64-66", "addr:postcode": "E9 6DA", "addr:street": "Brooksby's Walk", "air_conditioning": "yes", "amenity": "cinema", "bar": "yes", "building": "yes", "changing_table": "yes", "check_date": "2022-07-18", "contact:twitter": "@thecastlecinema", "cuisine": "coffee_shop", "email": "hello@thecastlecinema.com", "fhrs:id": "470493", "food": "yes", "internet_access": "wlan", "internet_access:fee": "customers", "internet_access:ssid": "Castle Cinema Guest", "name": "Castle Cinema", "note": "building was originally all \"Castle Cinema\" - now cinema is in top floor, Spar lower", "opening_hours": "Mo-Sun 10:00+", "payment:credit_cards": "yes", "payment:debit_cards": "yes", "roof:colour": "grey", "screen": "2", "survey:date": "2021-11-22", "toilets": "yes", "toilets:access": "customers", "website": "https://thecastlecinema.com/", "wikidata": "Q42163640"}}, {"type": "way", "id": 533466338, "nodes": [5175416155, 5175416156, 6405066888, 5175416157, 5246331741, 5246331740, 6235133286, 5175416155], "tags": {"amenity": "cinema", "brand": "Picturehouse Cinemas", "brand:wikidata": "Q7191215", "building": "yes", "name": "Crouch End Picturehouse", "old_brand": "Cineworld", "old_brand:wikidata": "Q5120901", "wikidata": "Q42119650"}}, {"type": "way", "id": 595814487, "nodes": [5677639443, 5677639444, 5677639445, 9722460895, 9722460896, 5677639446, 5677639443], "tags": {"addr:city": "London", "addr:housenumber": "117-123", "addr:postcode": "SW13 9HL", "addr:street": "Church Road", "amenity": "cinema", "building": "retail", "building:levels": "2", "fhrs:id": "654146", "name": "Olympic Studios", "name:ja": "\u30aa\u30ea\u30f3\u30d4\u30c3\u30af\u30b9\u30bf\u30b8\u30aa", "roof:levels": "1", "source:addr": "FHRS Open Data", "wikidata": "Q943742"}}, {"type": "way", "id": 597454248, "nodes": [290399078, 4541329573, 5661526770, 5688517961, 5688517962, 5333396121, 5686715711, 5686715712, 5686715710, 290399078], "tags": {"addr:city": "London", "addr:country": "GB", "addr:housename": "Bussey Building", "addr:housenumber": "133", "addr:postcode": "SE15 4ST", "addr:street": "Rye Lane", "addr:unit": "A Roof", "amenity": "cinema", "level": "5", "name": "Rooftop Film Club"}}, {"type": "way", "id": 708645222, "nodes": [6659048843, 7120308380, 6659048844, 7120308378, 7120308379, 6659048845, 6659048846, 6659048847, 6659048848, 6659048849, 6659048850, 6659048851, 6659048852, 6659048853, 6659048854, 6659048855, 6659048856, 6659048857, 6659072276, 6659048858, 6659048860, 6659048861, 6659048843], "tags": {"amenity": "cinema", "brand": "Cineworld", "brand:wikidata": "Q5120901", "brand:wikipedia": "en:Cineworld", "building": "yes", "layer": "2", "name": "Cineworld"}}, {"type": "way", "id": 821235793, "nodes": [7667866865, 7667866866, 7667866867, 7667866868, 7667866869, 7667866870, 7667866871, 7667866872, 7667866873, 2342308192, 2342308200, 2342308204, 2342308209, 7667866874, 7667866875, 7667866876, 7667866877, 7667866878, 7667866879, 7667866880, 7667866881, 7667866882, 7667866883, 7667866884, 7667886585, 7667886586, 7667886587, 7667886588, 7667866865], "tags": {"amenity": "cinema", "brand": "Vue", "brand:wikidata": "Q2535134", "brand:wikipedia": "en:Vue Cinemas", "building": "yes", "level": "3", "name": "Vue"}}, {"type": "way", "id": 1039099015, "nodes": [9569017543, 9569017544, 9569017545, 9569017546, 9569017543], "tags": {"addr:city": "Hounslow", "addr:housenumber": "5A", "addr:postcode": "TW3 1EL", "addr:street": "Smithy Lane", "amenity": "cinema", "brand": "Cineworld", "brand:wikidata": "Q5120901", "building": "yes", "name": "Cineworld", "screen": "10"}}]}