{"version": 0.6, "generator": "Overpass API 0.7.59.5 b201bb38", "osm3s": {"timestamp_osm_base": "2023-04-20T17:34:11Z", "copyright": "The data included in this document is from www.openstreetmap.org. The data is made available under ODbL."}, "elements": [{"type": "node", "id": 64746828, "lat": 51.5305316, "lon": -0.1205014}, {"type": "node", "id": 264624316, "lat": 51.5260155, "lon": -0.0854498, "tags": {"amenity": "nightclub", "name": "Club Aquarium", "source": "survey;photograph", "wheelchair": "limited"}}, {"type": "node", "id": 291951100, "lat": 51.521075, "lon": -0.0916939, "tags": {"addr:city": "London", "addr:housenumber": "47", "addr:postcode": "EC1Y 4SB", "addr:street": "Chiswell Street", "amenity": "nightclub", "food": "yes", "name": "Parker McMillan", "opening_hours": "Mo-Fr 16:00-00:00", "source": "survey;notes"}}, {"type": "node", "id": 296889738, "lat": 51.5400479, "lon": -0.1421041, "tags": {"amenity": "nightclub", "name": "Bar Monsta", "source": "TMJ-Mobile_0.6.2"}}, {"type": "node", "id": 306528994, "lat": 51.5523276, "lon": -0.1419661}, {"type": "node", "id": 306528995, "lat": 51.5521706, "lon": -0.1425875}, {"type": "node", "id": 306528996, "lat": 51.5519198, "lon": -0.1424101}, {"type": "node", "id": 306528997, "lat": 51.5520974, "lon": -0.1418034}, {"type": "node", "id": 313349354, "lat": 51.5161082, "lon": -0.1353568, "tags": {"addr:city": "London", "addr:housenumber": "100", "addr:postcode": "W1D 1LL", "addr:street": "Oxford Street", "amenity": "nightclub", "check_date": "2022-10-28", "fhrs:confidence_management": "10", "fhrs:hygiene": "10", "fhrs:id": "427714", "fhrs:local_authority_id": "00159/0100/0/001", "fhrs:rating": "2", "fhrs:structural": "15", "name": "100 Club", "source:postcode": "FSA Food Hygiene Ratings Database", "website": "https://www.the100club.co.uk/", "wikidata": "Q8535", "wikipedia": "en:100 Club"}}, {"type": "node", "id": 331880875, "lat": 51.5414402, "lon": -0.1030753, "tags": {"amenity": "nightclub", "name": "Lucky Voice", "note": "Karaoke"}}, {"type": "node", "id": 331880921, "lat": 51.5460046, "lon": -0.1033857, "tags": {"addr:city": "London", "addr:housenumber": "259", "addr:postcode": "N1 1RU", "addr:street": "Upper Street", "addr:suburb": "Islington", "amenity": "nightclub", "fhrs:id": "1068147", "name": "Jam & Rye", "source:addr": "FHRS Open Data"}}, {"type": "node", "id": 345887283, "lat": 51.507865, "lon": -0.1245597, "tags": {"addr:city": "London", "addr:country": "GB", "addr:street": "Villiers Street", "amenity": "nightclub", "contact:email": "info@heavennightclublondon.com", "contact:phone": "+44 20 7930 2020", "layer": "-1", "lgbtq": "primary", "name": "Heaven", "payment:american_express": "yes", "payment:card_minimum": "10", "postal_code": "WC2N 6NG", "website": "http://www.heavennightclub-london.com", "wheelchair": "no", "wheelchair:description": "For further information contact us at mark@heavennightclublondon.com or 0207 930 2020", "wikidata": "Q5694616"}}, {"type": "node", "id": 348116241, "lat": 51.5479067, "lon": -0.1064203, "tags": {"addr:city": "London", "addr:street": "Holloway Road", "amenity": "nightclub", "name": "People Club / Dancehall club"}}, {"type": "node", "id": 348911998, "lat": 51.5124556, "lon": -0.1338386, "tags": {"addr:housenumber": "10", "addr:street": "Brewer Street", "amenity": "nightclub", "name": "Escape", "website": "escapesoho.com"}}, {"type": "node", "id": 348913121, "lat": 51.512509, "lon": -0.133727, "tags": {"addr:city": "London", "addr:housenumber": "8-10", "addr:street": "Brewer Street", "amenity": "nightclub", "fhrs:confidence_management": "10", "fhrs:hygiene": "5", "fhrs:id": "413298", "fhrs:local_authority_id": "01132/0008/0/000", "fhrs:rating": "2", "fhrs:structural": "15", "name": "Madame Jojo\u2019s", "postal_code": "W1F 0SE", "source:addr": "FSA Food Hygiene Ratings Database", "source:postcode": "FSA Food Hygiene Ratings Database"}}, {"type": "node", "id": 360043073, "lat": 51.5467543, "lon": -0.1039603, "tags": {"addr:city": "London", "addr:housenumber": "12", "addr:postcode": "N5 1RA", "addr:street": "Highbury Corner", "addr:suburb": "Islington", "amenity": "nightclub", "fhrs:id": "570636", "name": "The Garage", "source:addr": "FHRS Open Data", "wikidata": "Q7735799"}}, {"type": "node", "id": 368025671, "lat": 51.4854252, "lon": -0.12352, "tags": {"addr:city": "London", "addr:housenumber": "6a", "addr:street": "South Lambeth Place", "amenity": "nightclub", "name": "Lightbox", "postal_code": "SW8 1SP", "website": "http://www.lightboxlondon.net/"}}, {"type": "node", "id": 368025672, "lat": 51.4851287, "lon": -0.1235283}, {"type": "node", "id": 419240809, "lat": 51.523709, "lon": -0.0786925}, {"type": "node", "id": 420771879, "lat": 51.4071547, "lon": 0.0164552, "tags": {"amenity": "nightclub", "name": "Delanos"}}, {"type": "node", "id": 425175062, "lat": 51.5314074, "lon": -0.1155457, "tags": {"addr:housenumber": "158", "addr:street": "Pentonville Road", "amenity": "nightclub", "name": "Surya"}}, {"type": "node", "id": 425442780, "lat": 51.5307999, "lon": -0.1208192}, {"type": "node", "id": 430832360, "lat": 51.5390929, "lon": -0.1421161, "tags": {"addr:city": "London", "addr:country": "GB", "addr:housenumber": "174", "addr:postcode": "NW1 0NE", "addr:street": "Camden High St", "amenity": "nightclub", "name": "The Underworld", "wheelchair": "no", "wikidata": "Q5025824"}}, {"type": "node", "id": 537814904, "lat": 51.5196425, "lon": -0.1026305}, {"type": "node", "id": 537814906, "lat": 51.5195244, "lon": -0.1025302}, {"type": "node", "id": 537814908, "lat": 51.5196789, "lon": -0.1024443}, {"type": "node", "id": 537814909, "lat": 51.5195797, "lon": -0.1023606}, {"type": "node", "id": 565470152, "lat": 51.5150956, "lon": -0.1306377, "tags": {"addr:city": "London", "addr:housenumber": "5", "addr:street": "Goslett Yard", "amenity": "nightclub", "fhrs:confidence_management": "0", "fhrs:hygiene": "0", "fhrs:id": "413708", "fhrs:local_authority_id": "01360/0005/0/000", "fhrs:rating": "5", "fhrs:structural": "0", "lgbtq": "primary", "name": "G-A-Y Late", "opening_hours": "Mo-Su 23:00-23:59, 00:00-03:00", "outdoor_seating": "no", "postal_code": "WC2H 0EE", "smoking": "outside", "source:postcode": "FSA Food Hygiene Ratings Database", "website": "http://www.g-a-y.co.uk", "wikidata": "Q3093022"}}, {"type": "node", "id": 582582173, "lat": 51.534574, "lon": -0.1056969, "tags": {"amenity": "nightclub", "name": "O2 Academy Islington", "website": "https://www.academymusicgroup.com/o2academyislington/", "wikidata": "Q638511", "wikipedia": "en:O2 Academy Islington"}}, {"type": "node", "id": 623314071, "lat": 51.5077432, "lon": -0.1413809}, {"type": "node", "id": 659503460, "lat": 51.5234014, "lon": -0.0785632}, {"type": "node", "id": 659503462, "lat": 51.5237153, "lon": -0.0785523}, {"type": "node", "id": 660750474, "lat": 51.5131061, "lon": -0.0442588}, {"type": "node", "id": 662188966, "lat": 51.5135378, "lon": -0.0712782, "tags": {"addr:city": "London", "addr:housenumber": "30", "addr:postcode": "E1 8DA", "addr:street": "Alie Street", "amenity": "nightclub", "fhrs:id": "92918", "name": "Charlie's Angels and Club Oops!", "postal_code": "E1 8DA", "website": "http://www.cluboops.co.uk"}}, {"type": "node", "id": 674922779, "lat": 51.5346097, "lon": -0.1383289}, {"type": "node", "id": 691719964, "lat": 51.5156823, "lon": -0.13583, "tags": {"addr:city": "London", "addr:housenumber": "201-203", "addr:street": "Wardour Street", "amenity": "nightclub", "fhrs:id": "535871", "fhrs:local_authority_id": "00688/0201/0/000", "fhrs:rating": "5", "name": "Dirty Harry's Soho", "postal_code": "W1F 8ZD", "source:addr": "FSA Food Hygiene Ratings Database", "source:postcode": "FSA Food Hygiene Ratings Database", "website": "http://www.dirtyharryssoho.com/"}}, {"type": "node", "id": 693187812, "lat": 51.509508, "lon": -0.135008, "tags": {"addr:city": "London", "addr:housenumber": "215", "addr:postcode": "W1J 9HN", "addr:street": "Piccadilly", "amenity": "nightclub", "name": "The Pigalle Club", "wikidata": "Q7193263"}}, {"type": "node", "id": 699782743, "lat": 51.5168851, "lon": -0.1320093, "tags": {"addr:city": "London", "addr:housenumber": "22", "addr:postcode": "W1T 1UQ", "addr:street": "Hanway Street", "amenity": "nightclub", "name": "Troy 22", "source:addr:postcode": "code-point_open", "website": "http://troyclub.co.uk/"}}, {"type": "node", "id": 799284713, "lat": 51.5146613, "lon": -0.1405708, "tags": {"addr:housenumber": "8", "addr:street": "Argyll Street", "amenity": "nightclub", "name": "Toy Room Club", "phone": "+44 20 7734 6066", "website": "https://www.toy-room.com/", "wheelchair": "no"}}, {"type": "node", "id": 931644239, "lat": 51.5396602, "lon": -0.1430594}, {"type": "node", "id": 1225676163, "lat": 51.502777, "lon": -0.082494, "tags": {"addr:housenumber": "33a", "addr:postcode": "SE1 3JW", "addr:street": "Bermondsey Street", "amenity": "nightclub", "layer": "-1", "name": "Cable", "website": "http://www.cable-london.com/"}}, {"type": "node", "id": 1232368501, "lat": 51.5386572, "lon": -0.1429885}, {"type": "node", "id": 1256495539, "lat": 51.53069, "lon": -0.1205354}, {"type": "node", "id": 1463002989, "lat": 51.5197092, "lon": 0.0031664}, {"type": "node", "id": 1463003003, "lat": 51.5198227, "lon": 0.0029626}, {"type": "node", "id": 1463003022, "lat": 51.5196909, "lon": 0.0030001}, {"type": "node", "id": 1463003028, "lat": 51.5197343, "lon": 0.003027}, {"type": "node", "id": 1463003033, "lat": 51.519741, "lon": 0.0030001}, {"type": "node", "id": 1463003040, "lat": 51.5197994, "lon": 0.0030887}, {"type": "node", "id": 1463003047, "lat": 51.5197727, "lon": 0.0030672}, {"type": "node", "id": 1463003048, "lat": 51.5197793, "lon": 0.0030216}, {"type": "node", "id": 1463003064, "lat": 51.5198912, "lon": 0.0030189}, {"type": "node", "id": 1463003067, "lat": 51.5196909, "lon": 0.0031369}, {"type": "node", "id": 1463003068, "lat": 51.5198461, "lon": 0.0032523}, {"type": "node", "id": 1478210433, "lat": 51.5003896, "lon": -0.178399, "tags": {"amenity": "nightclub", "name": "Metric", "operator": "Imperial College Union", "smoking": "no"}}, {"type": "node", "id": 1511427562, "lat": 51.5304032, "lon": -0.1207239}, {"type": "node", "id": 1511427563, "lat": 51.5304197, "lon": -0.1205426}, {"type": "node", "id": 1511427570, "lat": 51.5304156, "lon": -0.1205219}, {"type": "node", "id": 1511427574, "lat": 51.5304659, "lon": -0.1204875}, {"type": "node", "id": 1511427575, "lat": 51.5304598, "lon": -0.1207812}, {"type": "node", "id": 1511427576, "lat": 51.5304285, "lon": -0.1207495}, {"type": "node", "id": 1511427614, "lat": 51.5307437, "lon": -0.1205498}, {"type": "node", "id": 1511427619, "lat": 51.5307226, "lon": -0.1208298}, {"type": "node", "id": 1511427629, "lat": 51.5307594, "lon": -0.1208356}, {"type": "node", "id": 1511427632, "lat": 51.5308029, "lon": -0.1207773}, {"type": "node", "id": 1511427634, "lat": 51.530818, "lon": -0.1205678}, {"type": "node", "id": 1548849869, "lat": 51.4934892, "lon": -0.0987681, "tags": {"addr:housename": "4/5", "addr:postcode": "SE17 1LB", "addr:street": "Elephant Road", "amenity": "nightclub", "name": "Corsica Studios", "phone": "+44 20 7703 4760", "website": "http://www.corsicastudios.com/"}}, {"type": "node", "id": 1587379267, "lat": 51.519691, "lon": -0.1026716}, {"type": "node", "id": 1587778809, "lat": 51.5235376, "lon": -0.0787724}, {"type": "node", "id": 1587778857, "lat": 51.5237055, "lon": -0.0787693}, {"type": "node", "id": 1614146298, "lat": 51.5222318, "lon": -0.1580011, "tags": {"addr:housenumber": "134", "addr:street": "Marylebone Road", "amenity": "nightclub", "name": "Arizona Lounge", "source": "photograph", "website": "https://www.arizonalounge.com/"}}, {"type": "node", "id": 1677670726, "lat": 51.5254086, "lon": -0.0860267}, {"type": "node", "id": 1677670730, "lat": 51.5254237, "lon": -0.0856273}, {"type": "node", "id": 1677670753, "lat": 51.5255172, "lon": -0.0860377}, {"type": "node", "id": 1677670768, "lat": 51.5255461, "lon": -0.0857474}, {"type": "node", "id": 1677670770, "lat": 51.52555, "lon": -0.0856389}, {"type": "node", "id": 1677731226, "lat": 51.5256128, "lon": -0.0834059}, {"type": "node", "id": 1677731228, "lat": 51.5256219, "lon": -0.0834278}, {"type": "node", "id": 1677731230, "lat": 51.5256448, "lon": -0.0834824}, {"type": "node", "id": 1677731232, "lat": 51.5256454, "lon": -0.0833615}, {"type": "node", "id": 1677731237, "lat": 51.5256738, "lon": -0.0834557}, {"type": "node", "id": 1677731263, "lat": 51.5257704, "lon": -0.0831958}, {"type": "node", "id": 1686296366, "lat": 51.4757792, "lon": -0.036767}, {"type": "node", "id": 1694505454, "lat": 51.525681, "lon": -0.0834574}, {"type": "node", "id": 1694505498, "lat": 51.5258074, "lon": -0.0832648}, {"type": "node", "id": 1695218607, "lat": 51.5234449, "lon": -0.0785617}, {"type": "node", "id": 1695218619, "lat": 51.5236533, "lon": -0.0785545}, {"type": "node", "id": 1695218620, "lat": 51.5236539, "lon": -0.0784907}, {"type": "node", "id": 1695218632, "lat": 51.5237201, "lon": -0.0784921}, {"type": "node", "id": 1700289138, "lat": 51.5133612, "lon": -0.1316325}, {"type": "node", "id": 1700289156, "lat": 51.5134126, "lon": -0.1314407}, {"type": "node", "id": 1700289171, "lat": 51.5134611, "lon": -0.1317018}, {"type": "node", "id": 1700289174, "lat": 51.513513, "lon": -0.131509}, {"type": "node", "id": 1703018403, "lat": 51.5229871, "lon": -0.084481}, {"type": "node", "id": 1703018405, "lat": 51.5229914, "lon": -0.0846195}, {"type": "node", "id": 1703052772, "lat": 51.5230544, "lon": -0.0846734}, {"type": "node", "id": 1725241449, "lat": 51.5305653, "lon": -0.1205086}, {"type": "node", "id": 1725262413, "lat": 51.5196528, "lon": -0.1026393}, {"type": "node", "id": 1758891616, "lat": 51.526058, "lon": -0.0798207}, {"type": "node", "id": 1758891619, "lat": 51.5260765, "lon": -0.0796005}, {"type": "node", "id": 1758891620, "lat": 51.526081, "lon": -0.0795611}, {"type": "node", "id": 1758891621, "lat": 51.5260861, "lon": -0.0794773}, {"type": "node", "id": 1758891622, "lat": 51.5260876, "lon": -0.0794536}, {"type": "node", "id": 1758891623, "lat": 51.5260901, "lon": -0.0794123}, {"type": "node", "id": 1758891624, "lat": 51.5260924, "lon": -0.0793753}, {"type": "node", "id": 1758891628, "lat": 51.5261425, "lon": -0.0798303}, {"type": "node", "id": 1758891629, "lat": 51.5261481, "lon": -0.0793847}, {"type": "node", "id": 1758891632, "lat": 51.5261595, "lon": -0.0796102}, {"type": "node", "id": 1758891633, "lat": 51.5261737, "lon": -0.079389}, {"type": "node", "id": 1760727347, "lat": 51.5306464, "lon": -0.1205258}, {"type": "node", "id": 1761217095, "lat": 51.5288451, "lon": -0.0779664}, {"type": "node", "id": 1761217096, "lat": 51.5288496, "lon": -0.0780967}, {"type": "node", "id": 1761217107, "lat": 51.528928, "lon": -0.0779283}, {"type": "node", "id": 1761217109, "lat": 51.5289435, "lon": -0.0780572}, {"type": "node", "id": 1779091997, "lat": 51.510124, "lon": -0.0903711, "tags": {"addr:city": "London", "addr:housenumber": "13-16", "addr:postcode": "EC4R 3UL", "addr:street": "All Hallows Lane", "amenity": "nightclub", "fhrs:id": "294969", "name": "The Steel Yard"}}, {"type": "node", "id": 1781389275, "lat": 51.5261452, "lon": -0.0797953, "tags": {"entrance": "yes", "note": "Entrance numbered 62", "source": "photograph"}}, {"type": "node", "id": 1781389277, "lat": 51.526161, "lon": -0.0795873, "tags": {"entrance": "service", "note": "Entrance numbered 68", "source": "photograph"}}, {"type": "node", "id": 1781389279, "lat": 51.5261664, "lon": -0.0795026, "tags": {"entrance": "main", "source": "photograph"}}, {"type": "node", "id": 1804468520, "lat": 51.3729055, "lon": -0.1004846, "tags": {"addr:city": "Croydon", "addr:housenumber": "18", "addr:postcode": "CR0 1GT", "addr:street": "High Street", "amenity": "nightclub", "fhrs:authority": "Croydon", "fhrs:id": "877560", "name": "Luna"}}, {"type": "node", "id": 1823304305, "lat": 51.5107363, "lon": -0.1323558}, {"type": "node", "id": 1827555859, "lat": 51.4955118, "lon": 0.0050535}, {"type": "node", "id": 1838644859, "lat": 51.5229932, "lon": -0.0846782}, {"type": "node", "id": 1838644860, "lat": 51.5230483, "lon": -0.0844761}, {"type": "node", "id": 1902267378, "lat": 51.4945393, "lon": -0.2311871}, {"type": "node", "id": 1972650234, "lat": 51.5283012, "lon": -0.091541, "tags": {"addr:city": "London", "addr:postcode": "EC1V 1JN", "addr:street": "City Road", "amenity": "nightclub", "name": "East Bloc", "opening_hours": "Th 22:00-24:00; Fr 00:00-03:00,22:00-24:00; Sa 00:00-06:00,22:00-24:00; Su 00:00-06:00", "smoking": "no", "website": "http://eastbloc.co.uk", "wheelchair": "no"}}, {"type": "node", "id": 2003859158, "lat": 51.4760128, "lon": -0.0366619}, {"type": "node", "id": 2003859159, "lat": 51.4759516, "lon": -0.0364952}, {"type": "node", "id": 2003859160, "lat": 51.4759682, "lon": -0.0363924}, {"type": "node", "id": 2003859161, "lat": 51.4759479, "lon": -0.0366581}, {"type": "node", "id": 2003859162, "lat": 51.475996, "lon": -0.0364978}, {"type": "node", "id": 2003859163, "lat": 51.47601, "lon": -0.0367843}, {"type": "node", "id": 2003859164, "lat": 51.4759693, "lon": -0.0363118}, {"type": "node", "id": 2003859165, "lat": 51.4760002, "lon": -0.0363136}, {"type": "node", "id": 2013520298, "lat": 51.5123678, "lon": -0.0442417}, {"type": "node", "id": 2013520303, "lat": 51.5129475, "lon": -0.0437479}, {"type": "node", "id": 2013520308, "lat": 51.5129708, "lon": -0.0438784}, {"type": "node", "id": 2013520328, "lat": 51.5131093, "lon": -0.0438776}, {"type": "node", "id": 2043098444, "lat": 51.3706687, "lon": -0.1003103, "tags": {"addr:city": "Croydon", "addr:housenumber": "86-88", "addr:postcode": "CR0 1NA", "addr:street": "High Street", "amenity": "nightclub", "fhrs:authority": "Croydon", "fhrs:id": "990487", "name": "Club 88 Degrees", "source": "survey", "wheelchair": "limited"}}, {"type": "node", "id": 2044232758, "lat": 51.514866, "lon": -0.1335856}, {"type": "node", "id": 2056003265, "lat": 51.4034925, "lon": -0.2570078, "tags": {"addr:city": "New Malden", "addr:housenumber": "1", "addr:postcode": "KT3 4DQ", "addr:street": "High Street", "amenity": "nightclub", "fhrs:id": "362093", "name": "Han", "source:addr": "FHRS Open Data"}}, {"type": "node", "id": 2075477230, "lat": 51.3736952, "lon": -0.1013627, "tags": {"addr:city": "Croydon", "addr:housenumber": "20", "addr:postcode": "CR0 1RZ", "addr:street": "Crown Hill", "amenity": "nightclub", "fixme": "Needs survey - FHRS suggests may have reopened", "name": "Shooshh...", "source": "survey", "source:postcode": "FSA Food Hygiene Ratings database"}}, {"type": "node", "id": 2084946671, "lat": 51.3726498, "lon": -0.1024488}, {"type": "node", "id": 2084946674, "lat": 51.3727256, "lon": -0.1021187}, {"type": "node", "id": 2084946679, "lat": 51.3727507, "lon": -0.1024104}, {"type": "node", "id": 2084946685, "lat": 51.372778, "lon": -0.1025276}, {"type": "node", "id": 2084946692, "lat": 51.3728065, "lon": -0.1024493}, {"type": "node", "id": 2084946694, "lat": 51.3728162, "lon": -0.1021744}, {"type": "node", "id": 2087827621, "lat": 51.3733848, "lon": -0.0994502}, {"type": "node", "id": 2087827622, "lat": 51.3733864, "lon": -0.0994211}, {"type": "node", "id": 2087827623, "lat": 51.3733872, "lon": -0.0994691}, {"type": "node", "id": 2087827625, "lat": 51.3733935, "lon": -0.0994818}, {"type": "node", "id": 2087827626, "lat": 51.3734038, "lon": -0.0994944}, {"type": "node", "id": 2087827628, "lat": 51.3734298, "lon": -0.0991794}, {"type": "node", "id": 2087827630, "lat": 51.3734567, "lon": -0.0991895}, {"type": "node", "id": 2087827631, "lat": 51.3734677, "lon": -0.0991174}, {"type": "node", "id": 2087827641, "lat": 51.3735175, "lon": -0.0995476}, {"type": "node", "id": 2087827644, "lat": 51.3735356, "lon": -0.0992629}, {"type": "node", "id": 2087827650, "lat": 51.3735435, "lon": -0.0992958}, {"type": "node", "id": 2087827654, "lat": 51.3735554, "lon": -0.0991541}, {"type": "node", "id": 2087827655, "lat": 51.3735562, "lon": -0.0992996}, {"type": "node", "id": 2097838293, "lat": 51.5075995, "lon": -0.141718}, {"type": "node", "id": 2097838295, "lat": 51.5076308, "lon": -0.1417552}, {"type": "node", "id": 2097838297, "lat": 51.5077014, "lon": -0.1415836}, {"type": "node", "id": 2112979621, "lat": 51.3705115, "lon": -0.1002135, "tags": {"addr:city": "Croydon", "addr:housenumber": "90b", "addr:postcode": "CR0 1ND", "addr:street": "High Street", "amenity": "nightclub", "fhrs:authority": "Croydon", "fhrs:id": "918545", "name": "Soulful Cellar", "source": "survey"}}, {"type": "node", "id": 2152734012, "lat": 51.5234882, "lon": -0.0786965}, {"type": "node", "id": 2152734036, "lat": 51.5234235, "lon": -0.0785971}, {"type": "node", "id": 2152734041, "lat": 51.5234531, "lon": -0.0786426}, {"type": "node", "id": 2152734046, "lat": 51.5237137, "lon": -0.0785873}, {"type": "node", "id": 2152734063, "lat": 51.5237116, "lon": -0.0786353}, {"type": "node", "id": 2152736341, "lat": 51.5237176, "lon": -0.0785224, "tags": {"barrier": "gate"}}, {"type": "node", "id": 2168949323, "lat": 51.5194649, "lon": -0.089136, "tags": {"addr:city": "London", "addr:housenumber": "1", "addr:postcode": "EC2Y 9AW", "addr:street": "Ropemaker Street", "amenity": "nightclub", "contact:website": "http://www.amber-bar.co.uk/", "name": "Amber Bar", "opening_hours": "Mo-We 12:00-01:00, Th-Fr 12:00-02:00"}}, {"type": "node", "id": 2244810458, "lat": 51.5092409, "lon": -0.1944375, "tags": {"addr:housenumber": "21", "addr:street": "Notting Hill Gate", "amenity": "nightclub", "name": "Notting Hill Arts Club", "source": "+44 20 7460 4459", "website": "https://nottinghillartsclub.com/", "wikidata": "Q7063569", "wikipedia": "en:Notting Hill Arts Club"}}, {"type": "node", "id": 2272747707, "lat": 51.5150059, "lon": -0.1516133, "tags": {"addr:city": "London", "addr:housenumber": "37", "addr:street": "Duke Street", "amenity": "nightclub", "fhrs:confidence_management": "10", "fhrs:hygiene": "5", "fhrs:id": "411404", "fhrs:local_authority_id": "00398/0037/0/002", "fhrs:rating": "4", "fhrs:structural": "5", "name": "Blush", "postal_code": "W1U 1LN", "source:postcode": "FSA Food Hygiene Ratings Database", "wheelchair": "limited"}}, {"type": "node", "id": 2323776027, "lat": 51.5162499, "lon": -0.1298109, "tags": {"amenity": "nightclub", "name": "Apartment 58"}}, {"type": "node", "id": 2342369752, "lat": 51.5346068, "lon": -0.1382183}, {"type": "node", "id": 2342369768, "lat": 51.5347041, "lon": -0.137866}, {"type": "node", "id": 2342369785, "lat": 51.5347659, "lon": -0.138387}, {"type": "node", "id": 2342369797, "lat": 51.5348138, "lon": -0.1382603}, {"type": "node", "id": 2342369801, "lat": 51.5348236, "lon": -0.1382191}, {"type": "node", "id": 2342369802, "lat": 51.5348302, "lon": -0.1381904}, {"type": "node", "id": 2342369807, "lat": 51.5348788, "lon": -0.1379856}, {"type": "node", "id": 2345395138, "lat": 51.5346377, "lon": -0.1383685, "tags": {"entrance": "yes"}}, {"type": "node", "id": 2345395163, "lat": 51.5347058, "lon": -0.1384529}, {"type": "node", "id": 2345395168, "lat": 51.5347296, "lon": -0.1378835}, {"type": "node", "id": 2345395169, "lat": 51.534731, "lon": -0.1384783}, {"type": "node", "id": 2345395246, "lat": 51.534853, "lon": -0.1379679}, {"type": "node", "id": 2367507978, "lat": 51.5969663, "lon": 0.0212215, "tags": {"amenity": "nightclub", "name": "funkymojoe", "source": "survey"}}, {"type": "node", "id": 2407371526, "lat": 51.5386307, "lon": -0.1429704}, {"type": "node", "id": 2407371533, "lat": 51.5387316, "lon": -0.1430278}, {"type": "node", "id": 2407401996, "lat": 51.5384803, "lon": -0.142944}, {"type": "node", "id": 2520452045, "lat": 51.5169072, "lon": -0.1417175}, {"type": "node", "id": 2520452046, "lat": 51.5169918, "lon": -0.1416725}, {"type": "node", "id": 2520452049, "lat": 51.5170529, "lon": -0.1417001}, {"type": "node", "id": 2528652088, "lat": 51.3822567, "lon": -0.1069231, "tags": {"addr:housenumber": "179", "addr:street": "London Road", "amenity": "nightclub", "name": "Tabu Lounge", "source": "survey"}}, {"type": "node", "id": 2659475648, "lat": 51.5661443, "lon": -0.1350041, "tags": {"amenity": "nightclub", "name": "Kolis"}}, {"type": "node", "id": 2686842564, "lat": 51.487247, "lon": -0.122859, "tags": {"amenity": "nightclub", "name": "Area"}}, {"type": "node", "id": 2686843671, "lat": 51.487142, "lon": -0.122901, "tags": {"amenity": "nightclub", "name": "Union"}}, {"type": "node", "id": 2686845554, "lat": 51.486936, "lon": -0.122976, "tags": {"amenity": "nightclub", "name": "Club No 65"}}, {"type": "node", "id": 2766493533, "lat": 51.5235138, "lon": -0.1446307, "tags": {"amenity": "nightclub", "name": "Venue 229", "source": "survey"}}, {"type": "node", "id": 2777942600, "lat": 51.484537, "lon": -0.123263, "tags": {"entrance": "yes"}}, {"type": "node", "id": 2785269191, "lat": 51.5136288, "lon": -0.1366872}, {"type": "node", "id": 2785269192, "lat": 51.5136865, "lon": -0.1364884}, {"type": "node", "id": 2785528314, "lat": 51.5136826, "lon": -0.13673}, {"type": "node", "id": 2785528315, "lat": 51.5137408, "lon": -0.1365271}, {"type": "node", "id": 2837648105, "lat": 51.5139376, "lon": -0.1311411}, {"type": "node", "id": 2837648106, "lat": 51.5139853, "lon": -0.1311753}, {"type": "node", "id": 2837648107, "lat": 51.5140045, "lon": -0.1308992}, {"type": "node", "id": 2837648108, "lat": 51.5139971, "lon": -0.1311344}, {"type": "node", "id": 2837648109, "lat": 51.5140556, "lon": -0.1309345}, {"type": "node", "id": 2850235317, "lat": 51.5134439, "lon": -0.1316898}, {"type": "node", "id": 2919533386, "lat": 51.5147952, "lon": -0.1335399}, {"type": "node", "id": 2919533389, "lat": 51.5148177, "lon": -0.1334528}, {"type": "node", "id": 2919533396, "lat": 51.5148886, "lon": -0.1334992}, {"type": "node", "id": 2925408106, "lat": 51.4970299, "lon": -0.0445431}, {"type": "node", "id": 2925408107, "lat": 51.4970513, "lon": -0.043317}, {"type": "node", "id": 2925408109, "lat": 51.4970906, "lon": -0.0444275}, {"type": "node", "id": 2925408110, "lat": 51.4971041, "lon": -0.043001}, {"type": "node", "id": 2925408111, "lat": 51.4971041, "lon": -0.0444546}, {"type": "node", "id": 2925408113, "lat": 51.4971108, "lon": -0.0447146}, {"type": "node", "id": 2925408114, "lat": 51.4971232, "lon": -0.0431599}, {"type": "node", "id": 2925408117, "lat": 51.4971446, "lon": -0.0432051}, {"type": "node", "id": 2925408118, "lat": 51.4971513, "lon": -0.0431274}, {"type": "node", "id": 2925408119, "lat": 51.4971828, "lon": -0.0443102}, {"type": "node", "id": 2925408120, "lat": 51.4971929, "lon": -0.04433}, {"type": "node", "id": 2925408121, "lat": 51.4971996, "lon": -0.0446081}, {"type": "node", "id": 2925408123, "lat": 51.4972154, "lon": -0.0446352}, {"type": "node", "id": 2925408125, "lat": 51.4972277, "lon": -0.044182}, {"type": "node", "id": 2925408127, "lat": 51.4972345, "lon": -0.0446063}, {"type": "node", "id": 2925408130, "lat": 51.4972592, "lon": -0.0442614}, {"type": "node", "id": 2925408134, "lat": 51.4973548, "lon": -0.0427103}, {"type": "node", "id": 2925408135, "lat": 51.4973795, "lon": -0.0440014}, {"type": "node", "id": 2925408136, "lat": 51.4973964, "lon": -0.0427915}, {"type": "node", "id": 2925408137, "lat": 51.4974054, "lon": -0.0449891}, {"type": "node", "id": 2925408138, "lat": 51.4974762, "lon": -0.0426976}, {"type": "node", "id": 2925408139, "lat": 51.4974852, "lon": -0.0427283}, {"type": "node", "id": 2925408140, "lat": 51.4975234, "lon": -0.0426381}, {"type": "node", "id": 2925408141, "lat": 51.4975268, "lon": -0.0424141}, {"type": "node", "id": 2925408142, "lat": 51.497538, "lon": -0.0426633}, {"type": "node", "id": 2925408143, "lat": 51.4975706, "lon": -0.0425749}, {"type": "node", "id": 2925408144, "lat": 51.49761, "lon": -0.0426633}, {"type": "node", "id": 2925408145, "lat": 51.4976279, "lon": -0.0426417}, {"type": "node", "id": 2925408146, "lat": 51.4976943, "lon": -0.0422155}, {"type": "node", "id": 2925408148, "lat": 51.4977921, "lon": -0.0424304}, {"type": "node", "id": 2925408152, "lat": 51.4978977, "lon": -0.0423148}, {"type": "node", "id": 2925408163, "lat": 51.4981653, "lon": -0.0423672}, {"type": "node", "id": 2925408164, "lat": 51.4982294, "lon": -0.0422011}, {"type": "node", "id": 2925408165, "lat": 51.4982552, "lon": -0.0430841}, {"type": "node", "id": 2925408166, "lat": 51.4982575, "lon": -0.0422625}, {"type": "node", "id": 2925408167, "lat": 51.498335, "lon": -0.0420747}, {"type": "node", "id": 2925408168, "lat": 51.4983688, "lon": -0.0428024}, {"type": "node", "id": 2925408169, "lat": 51.4984182, "lon": -0.0428872}, {"type": "node", "id": 2925408170, "lat": 51.4984385, "lon": -0.0437341}, {"type": "node", "id": 2925408171, "lat": 51.4984407, "lon": -0.0427211}, {"type": "node", "id": 2925408172, "lat": 51.4984452, "lon": -0.0437612}, {"type": "node", "id": 2925408173, "lat": 51.4984801, "lon": -0.0436872}, {"type": "node", "id": 2925408174, "lat": 51.4985014, "lon": -0.0437323}, {"type": "node", "id": 2925408175, "lat": 51.4985025, "lon": -0.0426417}, {"type": "node", "id": 2925408176, "lat": 51.4985093, "lon": -0.0430877}, {"type": "node", "id": 2925408177, "lat": 51.4985587, "lon": -0.0425749}, {"type": "node", "id": 2925408178, "lat": 51.498579, "lon": -0.0430118}, {"type": "node", "id": 2925408181, "lat": 51.4986127, "lon": -0.0430642}, {"type": "node", "id": 2925408183, "lat": 51.4986565, "lon": -0.0435192}, {"type": "node", "id": 2925408186, "lat": 51.4986667, "lon": -0.0435445}, {"type": "node", "id": 2925408187, "lat": 51.4986734, "lon": -0.0429938}, {"type": "node", "id": 2925408189, "lat": 51.4986936, "lon": -0.043429}, {"type": "node", "id": 2925408190, "lat": 51.4987127, "lon": -0.0434579}, {"type": "node", "id": 2925408191, "lat": 51.4987442, "lon": -0.0433622}, {"type": "node", "id": 2931935319, "lat": 51.5104376, "lon": -0.1319428}, {"type": "node", "id": 2931935325, "lat": 51.5105241, "lon": -0.1319945}, {"type": "node", "id": 2931935326, "lat": 51.510478, "lon": -0.132159}, {"type": "node", "id": 2931935330, "lat": 51.5104585, "lon": -0.1318504}, {"type": "node", "id": 2931935331, "lat": 51.5108124, "lon": -0.1320726}, {"type": "node", "id": 2933968946, "lat": 51.5076019, "lon": -0.1416816}, {"type": "node", "id": 2933968947, "lat": 51.5076304, "lon": -0.1415817}, {"type": "node", "id": 2933968948, "lat": 51.5076416, "lon": -0.1415937}, {"type": "node", "id": 2933968949, "lat": 51.5076519, "lon": -0.1415308}, {"type": "node", "id": 2934857820, "lat": 51.5076918, "lon": -0.1413319}, {"type": "node", "id": 2934857822, "lat": 51.5077527, "lon": -0.1411756}, {"type": "node", "id": 2934857824, "lat": 51.507802, "lon": -0.1412267}, {"type": "node", "id": 2993795433, "lat": 51.5166249, "lon": -0.1330659, "tags": {"addr:city": "London", "addr:housenumber": "3-5", "addr:postcode": "W1T 1HJ", "addr:street": "Rathbone Place", "amenity": "nightclub", "fhrs:id": "414091", "name": "The Roxy", "opening_hours": "Mo-Th 17:00-03:00; Fr 17:00-03:30; Sa 18:30-22:30; Su off", "outdoor_seating": "no", "phone": "+44 20 7255 1098", "phone_1": "+44 20 7636 1598", "website": "https://theroxy.co.uk/", "wikidata": "Q7761650"}}, {"type": "node", "id": 3249860773, "lat": 51.5010275, "lon": -0.1142036, "tags": {"addr:postcode": "SE1 7NN", "addr:street": "Leake Street", "amenity": "nightclub", "name": "The Vaults"}}, {"type": "node", "id": 3327570136, "lat": 51.5032989, "lon": -0.3806031}, {"type": "node", "id": 3327570137, "lat": 51.5034289, "lon": -0.3804955}, {"type": "node", "id": 3327570138, "lat": 51.5035537, "lon": -0.3808844}, {"type": "node", "id": 3327570139, "lat": 51.5032873, "lon": -0.3806908}, {"type": "node", "id": 3327570140, "lat": 51.5033187, "lon": -0.3806648}, {"type": "node", "id": 3327570141, "lat": 51.5033923, "lon": -0.3810181}, {"type": "node", "id": 3352686440, "lat": 51.5270509, "lon": -0.0104986, "tags": {"addr:city": "London", "addr:housenumber": "28", "addr:postcode": "E3 3DA", "addr:street": "Hancock Road", "amenity": "nightclub", "name": "The Bridge London", "old_name": "Roka", "was:website": "http://www.rokaclub.com/"}}, {"type": "node", "id": 3376488693, "lat": 51.532985, "lon": -0.240393, "tags": {"amenity": "nightclub", "name": "Jetset"}}, {"type": "node", "id": 3385094983, "lat": 51.484433, "lon": -0.1239039}, {"type": "node", "id": 3385094984, "lat": 51.484437, "lon": -0.1233364}, {"type": "node", "id": 3385096398, "lat": 51.4845404, "lon": -0.1238265}, {"type": "node", "id": 3385096401, "lat": 51.4846157, "lon": -0.1231929}, {"type": "node", "id": 3385096409, "lat": 51.484686, "lon": -0.1237491}, {"type": "node", "id": 3385096415, "lat": 51.4848537, "lon": -0.1236572}, {"type": "node", "id": 3385096416, "lat": 51.4850548, "lon": -0.1232858}, {"type": "node", "id": 3385096417, "lat": 51.4853336, "lon": -0.1233751}, {"type": "node", "id": 3385096418, "lat": 51.4853988, "lon": -0.1234073}, {"type": "node", "id": 3511268918, "lat": 51.5169154, "lon": -0.1416705}, {"type": "node", "id": 3511268920, "lat": 51.5169734, "lon": -0.1416643}, {"type": "node", "id": 3511268932, "lat": 51.5170395, "lon": -0.1417768}, {"type": "node", "id": 3511268934, "lat": 51.5170492, "lon": -0.141721, "tags": {"entrance": "yes"}}, {"type": "node", "id": 3598057827, "lat": 51.4111098, "lon": -0.3004104, "tags": {"addr:city": "Kingston Upon Thames", "addr:housenumber": "154", "addr:postcode": "KT1 1QP", "addr:street": "Clarence Street", "amenity": "nightclub", "fhrs:id": "362012", "name": "Pryzm", "phone": "+44 20 8045 0110", "website": "http://www.pryzm.co.uk/kingston-upon-thames"}}, {"type": "node", "id": 3623405228, "lat": 51.5124247, "lon": -0.1335521, "tags": {"addr:housenumber": "5", "addr:street": "Brewer Street", "amenity": "nightclub", "description": "Strip Club", "gay": "yes", "name": "SophistiCats", "phone": "+44 20 3617 2173"}}, {"type": "node", "id": 3796258892, "lat": 51.5116706, "lon": -0.1220387, "tags": {"addr:city": "London", "addr:country": "GB", "addr:housename": "Jubilee Market", "addr:housenumber": "35", "addr:postcode": "WC2E 8BE", "addr:street": "The Piazza, Covent Garden", "amenity": "nightclub", "contact:email": "info@roadhouse.co.uk", "contact:phone": "+44 20 7240 6001", "contact:website": "http://www.roadhouse.co.uk/", "fhrs:id": "414351", "name": "Road House", "opening_hours": "Mo-Sa 17:30-03:00; Su 18:30-01:00", "source:addr": "FSA Food Hygiene Rating Scheme open data", "wheelchair": "no"}}, {"type": "node", "id": 3839219516, "lat": 51.497606, "lon": -0.0995597}, {"type": "node", "id": 3839219518, "lat": 51.4976373, "lon": -0.0994944}, {"type": "node", "id": 3839219523, "lat": 51.4977649, "lon": -0.0992283}, {"type": "node", "id": 3839219524, "lat": 51.4977704, "lon": -0.0997632}, {"type": "node", "id": 3839219531, "lat": 51.4979293, "lon": -0.0994318}, {"type": "node", "id": 3868765589, "lat": 51.5021504, "lon": -0.1875507, "tags": {"addr:city": "London", "addr:housename": "Basement", "addr:housenumber": "1", "addr:postcode": "W8 5NP", "addr:street": "Kensington High Street", "amenity": "nightclub", "level": "-1", "name": "Jako London", "phone": "+44 20 7368 6677", "website": "https://www.jakolondon.com/"}}, {"type": "node", "id": 3980929266, "lat": 51.5500721, "lon": -0.0752889}, {"type": "node", "id": 3980929267, "lat": 51.5500757, "lon": -0.0754509}, {"type": "node", "id": 3980929268, "lat": 51.5501154, "lon": -0.0752869}, {"type": "node", "id": 3980929269, "lat": 51.5501191, "lon": -0.0754449}, {"type": "node", "id": 4095264351, "lat": 51.5177982, "lon": 0.0036549, "tags": {"addr:city": "London", "addr:postcode": "E16 4ST", "addr:street": "Bidder Street", "amenity": "nightclub", "name": "Bridge House 2", "website": "http://www.bridgehouse-2.com/"}}, {"type": "node", "id": 4177285145, "lat": 51.5025449, "lon": -0.1877803, "tags": {"addr:city": "London", "addr:housenumber": "2a", "addr:postcode": "W8 4PT", "addr:street": "Kensington High Street", "amenity": "nightclub", "name": "Bodo's Schloss", "website": "http://www.bodosschloss.com/"}}, {"type": "node", "id": 4240941740, "lat": 51.5353487, "lon": -0.0197861, "tags": {"addr:city": "London", "addr:postcode": "E3 2TT", "addr:street": "Autumn Street", "amenity": "nightclub", "fixme": "Exact location TBC", "name": "Bloc"}}, {"type": "node", "id": 4317424237, "lat": 51.4580056, "lon": -0.3055497}, {"type": "node", "id": 4317424239, "lat": 51.4580432, "lon": -0.3055907}, {"type": "node", "id": 4317424240, "lat": 51.4580441, "lon": -0.3054558}, {"type": "node", "id": 4317424241, "lat": 51.4580852, "lon": -0.3054965}, {"type": "node", "id": 4341349337, "lat": 51.4954491, "lon": 0.0044543}, {"type": "node", "id": 4341349338, "lat": 51.4955344, "lon": 0.0044725}, {"type": "node", "id": 4341349339, "lat": 51.4956462, "lon": 0.0046158}, {"type": "node", "id": 4341349340, "lat": 51.4956489, "lon": 0.0047883}, {"type": "node", "id": 4341349341, "lat": 51.4956938, "lon": 0.0048458}, {"type": "node", "id": 4341349342, "lat": 51.4957096, "lon": 0.0048934}, {"type": "node", "id": 4341349343, "lat": 51.495584, "lon": 0.0051461}, {"type": "node", "id": 4341349344, "lat": 51.4952782, "lon": 0.0047981}, {"type": "node", "id": 4483141583, "lat": 51.5396965, "lon": -0.1428739}, {"type": "node", "id": 4483141584, "lat": 51.5397018, "lon": -0.1430937}, {"type": "node", "id": 4483141586, "lat": 51.5397471, "lon": -0.1429008}, {"type": "node", "id": 4483142151, "lat": 51.5384576, "lon": -0.1430262}, {"type": "node", "id": 4483142159, "lat": 51.5385026, "lon": -0.1428737}, {"type": "node", "id": 4483142167, "lat": 51.5385515, "lon": -0.1429127}, {"type": "node", "id": 4483142177, "lat": 51.5385969, "lon": -0.1429488}, {"type": "node", "id": 4483142180, "lat": 51.538606, "lon": -0.1431372}, {"type": "node", "id": 4483142396, "lat": 51.5386966, "lon": -0.1431895}, {"type": "node", "id": 4492486547, "lat": 51.5260118, "lon": -0.0850337, "tags": {"amenity": "nightclub", "name": "Golden Bee", "wheelchair": "no"}}, {"type": "node", "id": 4547084075, "lat": 51.4928737, "lon": -0.1571232, "tags": {"amenity": "nightclub", "diet:vegetarian": "yes", "name": "Tonteria", "opening_hours": "Mo,Th-Sa 20:00-24:00", "phone": "+44 20 7881 5991"}}, {"type": "node", "id": 4605187783, "lat": 51.5130752, "lon": -0.0945117, "tags": {"addr:city": "London", "addr:housenumber": "17", "addr:postcode": "EC4M 9BB", "addr:street": "Watling Street", "amenity": "nightclub", "fhrs:id": "295211", "name": "Reflex", "source:addr": "FSA Food Hygiene Rating Scheme open data"}}, {"type": "node", "id": 4685886038, "lat": 51.5442333, "lon": -0.0227773, "tags": {"addr:city": "London", "addr:country": "GB", "addr:housename": "Studio 9294", "addr:housenumber": "92", "addr:postcode": "E9 5LN", "addr:street": "Wallis Road", "amenity": "nightclub", "check_date": "2022-11-04", "description": "Studio 9294 is composed of two industrial spaces, with a long outdoor canalside terrace, overlooking Queen Elizabeth Olympic Park. Adorned with street art and two 70 metres long murals, it's a creative space and community focused venue.", "email": "studio9294@thenumbergroup.com", "name": "Studio 9294", "payment:credit_cards": "yes", "payment:debit_cards": "yes", "phone": "+44 20 8986 0090", "smoking": "separated", "source": "gps+mapnoter;website", "website": "http://studio9294.co.uk/;https://www.residentadvisor.net/club.aspx?id=152006", "wikidata": "Q112684563"}}, {"type": "node", "id": 4691984825, "lat": 51.5524694, "lon": -0.0746995, "tags": {"addr:city": "London", "addr:housenumber": "66", "addr:postcode": "N16 7XB", "addr:street": "Stoke Newington Road", "amenity": "nightclub", "fhrs:id": "470361", "name": "VFD", "website": "https://www.vfdalston.com/"}}, {"type": "node", "id": 4718984400, "lat": 51.5137313, "lon": -0.1365203, "tags": {"entrance": "yes"}}, {"type": "node", "id": 4734761341, "lat": 51.4192963, "lon": -0.2011544}, {"type": "node", "id": 4734761342, "lat": 51.4191878, "lon": -0.2012044}, {"type": "node", "id": 4734761343, "lat": 51.4191247, "lon": -0.2011641}, {"type": "node", "id": 4734761344, "lat": 51.4191158, "lon": -0.2011031}, {"type": "node", "id": 4734761345, "lat": 51.4192697, "lon": -0.2010254}, {"type": "node", "id": 4734761375, "lat": 51.4191415, "lon": -0.2011748}, {"type": "node", "id": 4879719233, "lat": 51.5103892, "lon": -0.1339316, "tags": {"amenity": "nightclub", "name": "Piccadilly Institute", "wheelchair": "yes"}}, {"type": "node", "id": 4890447742, "lat": 51.5123767, "lon": -0.0439996}, {"type": "node", "id": 4890447744, "lat": 51.5124863, "lon": -0.043997}, {"type": "node", "id": 4930288814, "lat": 51.4758945, "lon": -0.0361774}, {"type": "node", "id": 4930288818, "lat": 51.4757808, "lon": -0.0364235}, {"type": "node", "id": 5014666722, "lat": 51.4644457, "lon": -0.1145037, "tags": {"addr:city": "London", "addr:housenumber": "418", "addr:postcode": "SW9 7AY", "addr:street": "Brixton Road", "amenity": "nightclub", "fhrs:id": "1059465", "name": "Phonox", "source:addr": "FHRS Open Data"}}, {"type": "node", "id": 5111046409, "lat": 51.5124703, "lon": -0.1389391, "tags": {"addr:city": "London", "addr:housenumber": "9", "addr:postcode": "W1B 5PH", "addr:street": "Kingly Street", "amenity": "nightclub", "name": "The Court", "opening_hours": "Th-Fr 21:00-03:30; Sa 10:00-03:30", "phone": "+44 20 7437 6698", "website": "http://bag-o-nails.com/", "wheelchair": "no", "wikidata": "Q7715328", "wikipedia": "en:The Bag O'Nails"}}, {"type": "node", "id": 5150153023, "lat": 51.5144616, "lon": -0.302511, "tags": {"amenity": "nightclub", "name": "The Red Room", "old_name": "The Ealing club", "wikidata": "Q5325487"}}, {"type": "node", "id": 5208012486, "lat": 51.5571576, "lon": -0.1385151, "tags": {"addr:city": "London", "addr:housenumber": "2A", "addr:postcode": "N19 5QH", "addr:street": "Dartmouth Park Hill", "amenity": "nightclub", "name": "The Dome", "website": "https://domelondon.co.uk/"}}, {"type": "node", "id": 5300165735, "lat": 51.5289353, "lon": -0.0780608}, {"type": "node", "id": 5370783367, "lat": 51.5754368, "lon": 0.182984, "tags": {"amenity": "nightclub", "name": "Fiction"}}, {"type": "node", "id": 5370783368, "lat": 51.5753143, "lon": 0.1825428, "tags": {"amenity": "nightclub", "name": "Cameo"}}, {"type": "node", "id": 5468301612, "lat": 51.5196932, "lon": -0.1022056, "tags": {"addr:city": "London", "addr:housenumber": "85", "addr:postcode": "EC1M 6HJ", "addr:street": "Charterhouse Street", "amenity": "nightclub", "fhrs:id": "416186", "name": "Club Reina", "source:addr": "FSA Food Hygiene Rating Scheme open data", "website": "http://www.clubreina.co.uk"}}, {"type": "node", "id": 5471743323, "lat": 51.509858, "lon": -0.1379619, "tags": {"amenity": "nightclub", "name": "The Cuckoo Club", "name:de": "Cuckoo", "website": "http://www.thecuckooclub.com/"}}, {"type": "node", "id": 5544161883, "lat": 51.5142266, "lon": -0.1368814, "tags": {"addr:housenumber": "52", "addr:street": "Poland Street", "amenity": "nightclub", "description": "karaoke", "name": "Lucky Voice", "phone": "+44 20 7439 3660", "website": "https://www.luckyvoice.com/"}}, {"type": "node", "id": 5568733249, "lat": 51.5129506, "lon": -0.1389218, "tags": {"amenity": "nightclub", "level": "-1", "name": "Cirque Le Soir", "phone": "+44 20 7287 8001", "website": "http://www.cirquelesoir.com/"}}, {"type": "node", "id": 5599805818, "lat": 51.531599, "lon": -0.0571505}, {"type": "node", "id": 5599806741, "lat": 51.5315367, "lon": -0.0571227}, {"type": "node", "id": 5599806746, "lat": 51.531623, "lon": -0.0569942}, {"type": "node", "id": 5599806747, "lat": 51.5316314, "lon": -0.0569373}, {"type": "node", "id": 5599806748, "lat": 51.5315692, "lon": -0.0569182}, {"type": "node", "id": 5599806749, "lat": 51.5315607, "lon": -0.0569716}, {"type": "node", "id": 5618206360, "lat": 51.5142957, "lon": -0.1446751, "tags": {"addr:housenumber": "17", "addr:street": "Hanover Square", "amenity": "nightclub", "name": "Tape", "website": "https://tapelondon.com/"}}, {"type": "node", "id": 5643033215, "lat": 51.5124895, "lon": -0.14233, "tags": {"addr:housenumber": "4", "addr:street": "Mill Street", "amenity": "nightclub", "level": "-1", "name": "No4 Mayfair", "website": "https://www.no4mayfair.com/"}}, {"type": "node", "id": 5683818786, "lat": 51.5094293, "lon": -0.137594, "tags": {"addr:housenumber": "9", "addr:street": "Swallow Street", "amenity": "nightclub", "name": "Kadie's Club", "website": "http://www.kadiesclub.com/"}}, {"type": "node", "id": 5724481761, "lat": 51.5084728, "lon": -0.1433611, "tags": {"addr:housenumber": "15", "addr:street": "Berkeley Street", "amenity": "nightclub", "name": "Charlie", "website": "http://www.fbmayfair.co.uk/", "wheelchair": "no"}}, {"type": "node", "id": 5731846829, "lat": 51.5469818, "lon": -0.0480692}, {"type": "node", "id": 5731846831, "lat": 51.5469796, "lon": -0.0479128}, {"type": "node", "id": 5731846832, "lat": 51.5469028, "lon": -0.0479218}, {"type": "node", "id": 5731846833, "lat": 51.5469228, "lon": -0.047918}, {"type": "node", "id": 5731846834, "lat": 51.5468621, "lon": -0.0480149}, {"type": "node", "id": 5731846835, "lat": 51.5468776, "lon": -0.0479572}, {"type": "node", "id": 5731846836, "lat": 51.5468651, "lon": -0.0479847}, {"type": "node", "id": 5731846993, "lat": 51.5469343, "lon": -0.0480726}, {"type": "node", "id": 5731846994, "lat": 51.5469347, "lon": -0.0480189}, {"type": "node", "id": 5985289835, "lat": 51.551945, "lon": -0.142318}, {"type": "node", "id": 5985289837, "lat": 51.5520245, "lon": -0.1420267}, {"type": "node", "id": 6021912986, "lat": 51.5120634, "lon": -0.1320778, "tags": {"amenity": "nightclub", "name": "Century Club"}}, {"type": "node", "id": 6117504954, "lat": 51.5159501, "lon": -0.1383738, "tags": {"addr:housenumber": "2", "addr:street": "Winsley Street", "amenity": "nightclub", "name": "Chinawhite", "phone": "+44 20 7290 0580", "website": "https://www.chinawhite.com/"}}, {"type": "node", "id": 6135314065, "lat": 51.5164472, "lon": -0.1417983, "tags": {"addr:housenumber": "48", "addr:street": "Margaret Street", "amenity": "nightclub", "name": "BEAT London", "website": "https://beat-london.com/"}}, {"type": "node", "id": 6141615657, "lat": 51.5169682, "lon": -0.1416941}, {"type": "node", "id": 6548960314, "lat": 51.5134732, "lon": -0.0757268, "tags": {"addr:city": "London", "addr:housenumber": "5", "addr:postcode": "EC3N 1BJ", "addr:street": "Minories", "air_conditioning": "yes", "amenity": "nightclub", "description": "Nightclub in City of London. Plays Afrobeats Hip Hop and Dancehall", "email": "send@cococure.com", "fhrs:id": "1320817", "name": "Cococure", "opening_hours": "Fr-Sa 22:30-04:00", "payment:american_express": "yes", "payment:cash": "yes", "payment:mastercard": "yes", "payment:visa": "yes", "phone": "+44 7707 888048", "smoking": "outside", "website": "https://cococure.com", "wheelchair": "no"}}, {"type": "node", "id": 6588840431, "lat": 51.5335128, "lon": -0.4744312}, {"type": "node", "id": 6588840432, "lat": 51.5335091, "lon": -0.4740476}, {"type": "node", "id": 6588840433, "lat": 51.5332756, "lon": -0.4740534}, {"type": "node", "id": 6588840434, "lat": 51.5332792, "lon": -0.4744342}, {"type": "node", "id": 6772902785, "lat": 51.5417182, "lon": -0.1251735, "tags": {"addr:housenumber": "200", "addr:postcode": "N7 9AX", "addr:street": "York Way", "amenity": "nightclub", "name": "Egg London Nightclub", "website": "http://www.egglondon.co.uk/"}}, {"type": "node", "id": 6831617091, "lat": 51.4759181, "lon": -0.036391}, {"type": "node", "id": 6831617092, "lat": 51.4759296, "lon": -0.0361815}, {"type": "node", "id": 6831617093, "lat": 51.4757926, "lon": -0.0361639}, {"type": "node", "id": 6900790809, "lat": 51.5473319, "lon": -0.0529246, "tags": {"addr:city": "London", "addr:housenumber": "14", "addr:postcode": "E8 1DU", "addr:street": "Bohemia Place", "amenity": "nightclub", "check_date": "2022-07-24", "contact:instagram": "nighttalesldn", "min_age": "18", "name": "Night Tales", "opening_hours": "Th 18:00-24:00, Fr 18:00-03:00, Sa 15:00-03:00", "payment:credit_cards": "yes", "payment:debit_cards": "yes", "website": "https://nighttales.co.uk"}}, {"type": "node", "id": 6958697924, "lat": 51.5227376, "lon": -0.1312476, "tags": {"amenity": "nightclub", "name": "The Venue"}}, {"type": "node", "id": 6981977191, "lat": 51.5182982, "lon": -0.1888936, "tags": {"addr:housenumber": "58", "addr:street": "Porchester Road", "amenity": "nightclub", "name": "Ma Dame", "phone": "+44 7712 726062", "website": "https://ma-dame.london/"}}, {"type": "node", "id": 7103266996, "lat": 51.5026519, "lon": -0.1878287, "tags": {"amenity": "nightclub", "name": "Bloom"}}, {"type": "node", "id": 7194787125, "lat": 51.5166639, "lon": -0.2004924, "tags": {"addr:housenumber": "103", "addr:street": "Talbot Road", "amenity": "nightclub", "name": "The Globe", "phone": "+44 20 7221 2689", "website": "https://www.theglobeclub.com/home"}}, {"type": "node", "id": 7394550611, "lat": 51.5001777, "lon": -0.2110572, "tags": {"addr:housenumber": "11", "addr:street": "Russell Gardens", "amenity": "nightclub", "level": "-1", "name": "blagclub Kensington", "phone": "+44 20 7243 0123", "website": "https://blagclub.com/"}}, {"type": "node", "id": 7624223419, "lat": 51.5125786, "lon": -0.0442466}, {"type": "node", "id": 7624223420, "lat": 51.5130192, "lon": -0.0442568}, {"type": "node", "id": 7624223421, "lat": 51.5130226, "lon": -0.0438781}, {"type": "node", "id": 7624223444, "lat": 51.513108, "lon": -0.0440318, "tags": {"entrance": "main"}}, {"type": "node", "id": 7624223445, "lat": 51.5131073, "lon": -0.0441123, "tags": {"entrance": "main"}}, {"type": "node", "id": 7624223453, "lat": 51.5131089, "lon": -0.0439232, "tags": {"entrance": "emergency"}}, {"type": "node", "id": 7624223454, "lat": 51.5131065, "lon": -0.0442149, "tags": {"entrance": "emergency"}}, {"type": "node", "id": 7624223509, "lat": 51.5131077, "lon": -0.0440686, "tags": {"entrance": "main"}}, {"type": "node", "id": 7741904802, "lat": 51.5108834, "lon": -0.1288727, "tags": {"addr:housenumber": "13-17", "addr:street": "Bear Street", "amenity": "nightclub", "description": "Top floor is a bar, lower floor is a nightclub", "name": "Zoo Bar & Club", "phone": "+44 20 4505 5444", "postal_code": "WC2H 7AS", "toilets": "yes", "toilets:access": "customers", "website": "https://www.zoobar.co.uk"}}, {"type": "node", "id": 7904778383, "lat": 51.4939877, "lon": -0.1757796, "tags": {"addr:housenumber": "17a", "addr:street": "Harrington Road", "amenity": "nightclub", "name": "Dolce Kensington Club", "phone": "+44 20 7589 0990", "website": "https://www.dolce-london.com/"}}, {"type": "node", "id": 7908997277, "lat": 51.5899766, "lon": -0.0621469, "tags": {"amenity": "nightclub", "name": "The Cause", "website": "https://www.supportthecause.co.uk/"}}, {"type": "node", "id": 8011418757, "lat": 51.5523071, "lon": -0.1420412}, {"type": "node", "id": 8011418758, "lat": 51.5523178, "lon": -0.1420488}, {"type": "node", "id": 8011418759, "lat": 51.5520679, "lon": -0.1418679}, {"type": "node", "id": 8011418760, "lat": 51.5520779, "lon": -0.1418749}, {"type": "node", "id": 8245611537, "lat": 51.4682458, "lon": -0.3658449, "tags": {"addr:city": "Hounslow", "addr:housenumber": "236a", "addr:postcode": "TW3 1HB", "addr:street": "High Street", "amenity": "nightclub", "fhrs:id": "490668", "name": "Circa Loca", "source:addr": "FHRS Open Data"}}, {"type": "node", "id": 8319081395, "lat": 51.4890732, "lon": -0.16542, "tags": {"addr:housenumber": "152", "addr:street": "King's Road", "amenity": "nightclub", "name": "The Pheasantry", "website": "https://www.pizzaexpresslive.com/venues/chelsea-the-pheasantry"}}, {"type": "node", "id": 8419801536, "lat": 51.4853575, "lon": -0.1738409}, {"type": "node", "id": 8419801537, "lat": 51.4852751, "lon": -0.1737578}, {"type": "node", "id": 8420111473, "lat": 51.4853828, "lon": -0.1738027}, {"type": "node", "id": 8420111474, "lat": 51.4853107, "lon": -0.1737307}, {"type": "node", "id": 8420111475, "lat": 51.4853153, "lon": -0.1737189}, {"type": "node", "id": 8420111476, "lat": 51.4852937, "lon": -0.1736974}, {"type": "node", "id": 8420111479, "lat": 51.4853627, "lon": -0.1738472}, {"type": "node", "id": 8420111480, "lat": 51.485257, "lon": -0.1737404}, {"type": "node", "id": 8420111481, "lat": 51.4852359, "lon": -0.1737949}, {"type": "node", "id": 8420111482, "lat": 51.485142, "lon": -0.173701}, {"type": "node", "id": 8420111483, "lat": 51.4852161, "lon": -0.17351}, {"type": "node", "id": 8420111484, "lat": 51.4852805, "lon": -0.1735743}, {"type": "node", "id": 8420111485, "lat": 51.4852873, "lon": -0.1736016}, {"type": "node", "id": 8420111486, "lat": 51.4852623, "lon": -0.1736661}, {"type": "node", "id": 8420111487, "lat": 51.4851665, "lon": -0.1736351}, {"type": "node", "id": 8420111490, "lat": 51.4852048, "lon": -0.1735385}, {"type": "node", "id": 8420173223, "lat": 51.485245, "lon": -0.1735373}, {"type": "node", "id": 8606738664, "lat": 51.4176767, "lon": -0.1270791, "tags": {"amenity": "nightclub", "name": "S Lounge"}}, {"type": "node", "id": 8648598322, "lat": 51.5054204, "lon": -0.2253123, "tags": {"addr:housenumber": "184", "addr:street": "Uxbridge Road", "amenity": "nightclub", "name": "FM Karaoke and Disco Club", "phone": "+44 20 8811 2807", "website": "http://fm-karaoke-disco-club.edan.io/"}}, {"type": "node", "id": 8809964755, "lat": 51.4608078, "lon": -0.2166524, "tags": {"addr:city": "London", "addr:housenumber": "200B", "addr:postcode": "SW15 2SH", "addr:street": "Upper Richmond Road", "amenity": "nightclub", "name": "Le Fez", "opening_hours": "Mo-Su 17:00-04:00", "phone": "+44 20 8780 0123", "website": "https://www.lefez.co.uk/putney"}}, {"type": "node", "id": 8910557785, "lat": 51.457121, "lon": 0.1381438}, {"type": "node", "id": 8910557786, "lat": 51.4571294, "lon": 0.138052}, {"type": "node", "id": 8910557787, "lat": 51.4570224, "lon": 0.1380258}, {"type": "node", "id": 8910557788, "lat": 51.4570007, "lon": 0.1382236}, {"type": "node", "id": 8910557789, "lat": 51.4571937, "lon": 0.1382672}, {"type": "node", "id": 8910557790, "lat": 51.457195, "lon": 0.1382538}, {"type": "node", "id": 8939932907, "lat": 51.4572028, "lon": 0.1381634}, {"type": "node", "id": 8985371023, "lat": 51.5182898, "lon": -0.1668387, "tags": {"amenity": "nightclub", "name": "Konig"}}, {"type": "node", "id": 8987074423, "lat": 51.4945376, "lon": -0.2313748}, {"type": "node", "id": 8987074424, "lat": 51.494635, "lon": -0.2313823}, {"type": "node", "id": 8987074425, "lat": 51.4946356, "lon": -0.2313286}, {"type": "node", "id": 8987074426, "lat": 51.4947159, "lon": -0.2313406}, {"type": "node", "id": 8987074427, "lat": 51.4947218, "lon": -0.2312357}, {"type": "node", "id": 8987074428, "lat": 51.4947747, "lon": -0.231235}, {"type": "node", "id": 8987074429, "lat": 51.4947746, "lon": -0.2312003}, {"type": "node", "id": 8987914051, "lat": 51.5255226, "lon": -0.0859135}, {"type": "node", "id": 8987914052, "lat": 51.5255406, "lon": -0.0859076}, {"type": "node", "id": 8987914054, "lat": 51.5254492, "lon": -0.0860309}, {"type": "node", "id": 8997143209, "lat": 51.5304557, "lon": -0.1204982}, {"type": "node", "id": 9116743525, "lat": 51.5373631, "lon": -0.0613859, "tags": {"amenity": "nightclub", "contact:facebook": "https://www.facebook.com/thebrinkmusicvenue/", "contact:instagram": "thebrinkvenue", "level": "-1", "music": "yes", "name": "The Brink", "website": "https://www.offbroadway.org.uk/"}}, {"type": "node", "id": 9130356701, "lat": 51.5948935, "lon": -0.0704991, "tags": {"addr:city": "London", "addr:housenumber": "117", "addr:postcode": "N17 6UR", "addr:street": "Bruce Grove", "amenity": "nightclub", "menu:url": "https://www.rollernation.com/roller-diner", "name": "Roller Nation", "phone": "+44 20 7720 9140", "sport": "roller_skating", "website": "http://rollerdiscolondon.com/"}}, {"type": "node", "id": 9229950303, "lat": 51.4953703, "lon": 0.0049161}, {"type": "node", "id": 9246722128, "lat": 51.5356322, "lon": -0.0770444}, {"type": "node", "id": 9246722129, "lat": 51.535685, "lon": -0.0770413}, {"type": "node", "id": 9246722130, "lat": 51.5356853, "lon": -0.0771702}, {"type": "node", "id": 9246722131, "lat": 51.5356315, "lon": -0.0771715}, {"type": "node", "id": 9246722132, "lat": 51.5356647, "lon": -0.0772831}, {"type": "node", "id": 9246722133, "lat": 51.5356308, "lon": -0.077283}, {"type": "node", "id": 9286567817, "lat": 51.5374845, "lon": -0.057773, "tags": {"addr:street": "Westgate Street", "amenity": "nightclub", "check_date": "2023-01-01", "contact:instagram": "ntloft", "email": "info@ntloft.co.uk", "level": "3", "music": "yes", "name": "Night Tales Loft", "opening_hours": "We,Th 17:30-23:30; Fr 17:30-02:30; Sa 16:30-02:30; Su off", "payment:credit_cards": "yes", "payment:debit_cards": "yes", "short_name": "NT's Loft", "survey:date": "2021-11-26", "website": "https://ntloft.co.uk/"}}, {"type": "node", "id": 9367858392, "lat": 51.4954557, "lon": 0.0050256}, {"type": "node", "id": 9367858393, "lat": 51.4954691, "lon": 0.0049987}, {"type": "node", "id": 9367858395, "lat": 51.4955067, "lon": 0.0045282}, {"type": "node", "id": 9367858396, "lat": 51.495621, "lon": 0.0046666}, {"type": "node", "id": 9367858397, "lat": 51.4956528, "lon": 0.0047074}, {"type": "node", "id": 9367858398, "lat": 51.4956409, "lon": 0.0047314}, {"type": "node", "id": 9367858399, "lat": 51.495663, "lon": 0.0047599}, {"type": "node", "id": 9367858400, "lat": 51.4956855, "lon": 0.0048626}, {"type": "node", "id": 9370334863, "lat": 51.5045617, "lon": 0.0175868, "tags": {"addr:city": "London", "addr:housenumber": "26", "addr:parentstreet": "North Woolwich Road", "addr:postcode": "E16 2AB", "addr:street": "North Woolwich Road", "addr:suburb": "Silvertown", "amenity": "nightclub", "fhrs:id": "1372748", "name": "LA Lounge", "phone": "+44 20 3488 2739", "source:addr": "FHRS Open Data", "website": "https://www.lalounge.co.uk/"}}, {"type": "node", "id": 9697951364, "lat": 51.5341894, "lon": -0.1258399, "tags": {"addr:city": "London", "addr:housenumber": "11", "addr:postcode": "N1C 4DP", "addr:street": "Goods Way", "addr:suburb": "Kings Cross", "amenity": "nightclub", "name": "Lafayette", "website": "https://www.lafayettelondon.com/"}}, {"type": "node", "id": 9712566017, "lat": 51.5158295, "lon": -0.1120084, "tags": {"amenity": "nightclub", "name": "Lucky Voice"}}, {"type": "node", "id": 9855556426, "lat": 51.51249, "lon": -0.0437469}, {"type": "node", "id": 9962151386, "lat": 51.5235203, "lon": -0.0787458}, {"type": "node", "id": 9962151387, "lat": 51.5237068, "lon": -0.078741}, {"type": "node", "id": 10713085507, "lat": 51.4847275, "lon": -0.0686499, "tags": {"amenity": "nightclub", "name": "Club 701"}}, {"type": "node", "id": 10751924154, "lat": 51.5609616, "lon": 0.0815393}, {"type": "node", "id": 10751924159, "lat": 51.5609701, "lon": 0.0815351}, {"type": "node", "id": 10751924160, "lat": 51.5609833, "lon": 0.0816042}, {"type": "node", "id": 10751924161, "lat": 51.5607822, "lon": 0.0817056}, {"type": "node", "id": 10751924162, "lat": 51.5607681, "lon": 0.0816353}, {"type": "node", "id": 10764706647, "lat": 51.5635302, "lon": 0.0821708, "tags": {"addr:city": "Ilford", "addr:housenumber": "284-294", "addr:postcode": "IG1 4BS", "addr:street": "Ley Street", "amenity": "nightclub", "name": "Smade Lounge", "website": "https://www.smadelounge.co.uk"}}, {"type": "way", "id": 27924865, "nodes": [306528994, 8011418757, 8011418758, 306528995, 306528996, 5985289835, 5985289837, 8011418759, 8011418760, 306528997, 306528994], "tags": {"addr:city": "London", "addr:country": "GB", "addr:housenumber": "9-17", "addr:postcode": "NW5 1JY", "addr:street": "Highgate Road", "alt_name": "The Forum", "amenity": "nightclub", "building": "yes", "building:colour": "white", "building:material": "stone", "capacity": "2300", "construction_date": "1934", "contact:phone": "+44 20 3362 4110", "contact:website": "https://www.academymusicgroup.com/o2forumkentishtown/", "name": "O2 Forum Kentish Town", "old_name": "The Town & Country Club;The Town and Country Club;The London Forum;The HMV Forum", "roof:colour": "black", "roof:shape": "hipped", "start_date": "1993", "wikidata": "Q7734912", "wikipedia": "en:The Forum, London"}}, {"type": "way", "id": 42935885, "nodes": [537814904, 1725262413, 1587379267, 537814908, 537814909, 537814906, 537814904], "tags": {"addr:housenumber": "77a", "addr:street": "Charterhouse Street", "amenity": "nightclub", "building": "yes", "building:levels": "4", "building:material": "brick", "fhrs:id": "416438", "name": "Fabric", "roof:colour": "grey", "url": "http://www.fabriclondon.com/", "wheelchair": "no", "wikidata": "Q1390710", "wikipedia": "en:Fabric (club)"}}, {"type": "way", "id": 132958072, "nodes": [1463003064, 1463003068, 1463002989, 1463003067, 1463003022, 1463003028, 1463003033, 1463003048, 1463003047, 1463003040, 1463003003, 1463003064], "tags": {"amenity": "nightclub", "building": "yes", "name": "Pier One Night Spot", "source": "Bing"}}, {"type": "way", "id": 137825939, "nodes": [1511427632, 425442780, 1511427629, 1511427619, 1511427575, 1511427576, 1511427562, 1511427563, 1511427570, 8997143209, 1511427574, 64746828, 1725241449, 1760727347, 1256495539, 1511427614, 1511427634, 1511427632], "tags": {"amenity": "nightclub", "building": "yes", "name": "Scala", "phone": "+44 20 7833 2022", "website": "https://scala.co.uk", "wikidata": "Q7429657", "wikipedia": "en:Scala (club)"}}, {"type": "way", "id": 155362965, "nodes": [1677670753, 8987914051, 8987914052, 1677670768, 1677670770, 1677670730, 1677670726, 8987914054, 1677670753], "tags": {"addr:housenumber": "32-37", "addr:street": "Cowper Street", "amenity": "nightclub", "building": "yes", "fhrs:id": "1036093", "name": "XOYO", "phone": "+44 20 7608 2878", "toilets:wheelchair": "yes", "website": "https://www.xoyo.co.uk/", "wheelchair": "yes", "wikidata": "Q20876440", "wikipedia": "en:XOYO"}}, {"type": "way", "id": 156376247, "nodes": [2003859163, 2003859158, 2003859161, 2003859159, 2003859162, 2003859165, 2003859164, 2003859160, 6831617091, 6831617092, 4930288814, 6831617093, 4930288818, 1686296366, 2003859163], "tags": {"addr:city": "London", "addr:housename": "Venue", "addr:housenumber": "2;2A", "addr:postcode": "SE14 6JP", "addr:street": "Clifton Rise", "amenity": "nightclub", "building": "yes", "name": "The Venue", "website": "http://www.thevenuelondon.com/", "wikidata": "Q42202412"}}, {"type": "way", "id": 157236271, "nodes": [1694505498, 1694505454, 1677731237, 1677731230, 1677731228, 1677731226, 1677731232, 1677731263, 1694505498], "tags": {"amenity": "nightclub", "level": "0", "name": "Basement Club"}}, {"type": "way", "id": 157771360, "nodes": [1700289156, 1700289174, 1700289171, 2850235317, 1700289138, 1700289156], "tags": {"addr:city": "London", "addr:housenumber": "47", "addr:postcode": "W1D 4HT", "addr:street": "Frith Street", "alt_name": "Ronnie Scott's", "amenity": "nightclub", "building": "yes", "building:levels": "4", "building:material": "brick", "live_music": "yes", "music_genre": "jazz", "name": "Ronnie Scott's Jazz Club", "payment:american_express": "yes", "source": "Bing;photographic_survey", "website": "https://www.ronniescotts.co.uk/", "wheelchair": "no", "wikidata": "Q1296978", "wikimedia_commons": "Category:Ronnie Scott's Jazz Club", "wikipedia": "en:Ronnie Scott's Jazz Club"}}, {"type": "way", "id": 164483488, "nodes": [1761217107, 1761217095, 1761217096, 5300165735, 1761217109, 1761217107], "tags": {"addr:city": "London", "addr:housenumber": "25", "addr:postcode": "E2 8AA", "addr:street": "Kingsland Road", "amenity": "nightclub", "building": "yes", "fhrs:id": "470392", "name": "Basing House"}}, {"type": "way", "id": 166688583, "nodes": [1758891628, 1781389275, 1758891632, 1781389277, 1781389279, 1758891633, 1758891629, 1758891624, 1758891623, 1758891622, 1758891621, 1758891620, 1758891619, 1758891616, 1758891628], "tags": {"amenity": "nightclub", "level": "1", "name": "Comedy Cafe", "source": "photograph"}}, {"type": "way", "id": 173037429, "nodes": [1703052772, 1838644860, 1703018403, 1703018405, 1838644859, 1703052772], "tags": {"addr:city": "London", "addr:housenumber": "25", "addr:postcode": "EC2A 4JU", "addr:street": "Paul Street", "amenity": "nightclub", "building": "yes", "name": "Shoreditch Townhouse", "opening_hours": "Mo-Fr 19:00-03:00", "phone": "+44 20 7920 9378", "website": "www.shoreditchtownhouse.com"}}, {"type": "way", "id": 190715113, "nodes": [2013520328, 7624223453, 7624223444, 7624223509, 7624223445, 7624223454, 660750474, 7624223420, 7624223419, 2013520298, 4890447742, 4890447744, 9855556426, 2013520303, 2013520308, 7624223421, 2013520328], "tags": {"addr:city": "London", "addr:housenumber": "490", "addr:postcode": "E1 0HX", "addr:street": "Commercial Road", "amenity": "nightclub", "building": "yes", "contact:facebook": "https://facebook.com/TroxyLondon/", "contact:instagram": "https://www.instagram.com/troxylondon/", "contact:twitter": "https://twitter.com/TroxyLondon", "currency:XBT": "yes", "fhrs:id": "1092738", "name": "Troxy", "payment:lightning": "yes", "payment:lightning_contactless": "yes", "payment:onchain": "yes", "phone": "+44 20 7790 9000", "roof:colour": "grey", "source": "Bing;photograph", "survey:date": "2022-11-21", "website": "https://www.troxy.co.uk/", "wikidata": "Q7846709", "wikipedia": "en:Troxy"}}, {"type": "way", "id": 198354802, "nodes": [2084946692, 2084946685, 2084946671, 2084946674, 2084946694, 2084946679, 2084946692], "tags": {"addr:city": "Croydon", "addr:housenumber": "6", "addr:postcode": "CR0 1SL", "addr:street": "Overtons Yard", "amenity": "nightclub", "building": "retail", "fhrs:authority": "Croydon", "fhrs:id": "5190", "name": "The Granaries", "source:postcode": "FSA Food Hygiene Ratings database"}}, {"type": "way", "id": 198678844, "nodes": [2087827641, 2087827655, 2087827650, 2087827644, 2087827654, 2087827631, 2087827630, 2087827628, 2087827622, 2087827621, 2087827623, 2087827625, 2087827626, 2087827641], "tags": {"addr:city": "Croydon", "addr:housenumber": "3-7", "addr:postcode": "CR0 1YD", "addr:street": "Park Street", "amenity": "nightclub", "building": "yes", "fhrs:authority": "Croydon", "fhrs:id": "983396", "name": "Palm Beach Club", "smoking": "outside", "url": "http://badapple.co", "website": "http://badapple.co/"}}, {"type": "way", "id": 205296759, "nodes": [659503462, 2152734046, 2152734063, 419240809, 9962151387, 1587778857, 1587778809, 9962151386, 2152734012, 2152734041, 2152734036, 659503460, 1695218607, 1695218619, 1695218620, 1695218632, 2152736341, 659503462], "tags": {"addr:city": "London", "addr:housenumber": "54", "addr:postcode": "EC2A 3PQ", "addr:street": "Holywell Lane", "amenity": "nightclub", "check_date": "2022-09-01", "email": "info@villageunderground.co.uk", "fhrs:id": "782820", "internet_access": "wlan", "internet_access:fee": "no", "internet_access:ssid": "VU Guest", "name": "Village Underground", "payment:credit_cards": "yes", "payment:debit_cards": "yes", "smoking": "outside", "source": "Bing", "survey:date": "2021-11-23", "toilets:wheelchair": "yes", "website": "https://www.villageunderground.co.uk/", "wheelchair": "no", "wikidata": "Q112191118"}}, {"type": "way", "id": 225465155, "nodes": [2342369768, 2342369752, 674922779, 2345395138, 2345395163, 2345395169, 2342369785, 2342369797, 2342369801, 2342369802, 2342369807, 2345395246, 2345395168, 2342369768], "tags": {"addr:city": "London", "addr:housenumber": "1A", "addr:postcode": "NW1 7JE", "addr:street": "Camden High Street", "amenity": "nightclub", "building": "yes", "building:levels": "1", "fhrs:id": "425134", "name": "Koko", "name:en": "Koko", "toilets:wheelchair": "no", "website": "http://www.koko.uk.com", "wheelchair": "limited", "wikidata": "Q1028419", "wikipedia": "en:Koko (venue)"}}, {"type": "way", "id": 232387704, "nodes": [4483142396, 4483142180, 4483142151, 2407401996, 4483142159, 4483142167, 4483142177, 2407371526, 1232368501, 2407371533, 4483142396], "tags": {"addr:city": "London", "addr:housenumber": "5", "addr:postcode": "NW1 7PG", "addr:street": "Parkway", "amenity": "nightclub", "building": "yes", "building:colour": "white", "building:levels": "3", "building:material": "plaster", "fhrs:id": "901331", "name": "The Jazz Cafe", "source:addr:postcode": "FSA Food Hygiene Rating Scheme open data", "tourism": "yes", "wheelchair": "yes", "wikidata": "Q6168202", "wikipedia": "en:The Jazz Caf\u00e9"}}, {"type": "way", "id": 273720739, "nodes": [2785528315, 4718984400, 2785269192, 2785269191, 2785528314, 2785528315], "tags": {"addr:city": "London", "addr:housenumber": "61", "addr:street": "Poland Street", "amenity": "nightclub", "building": "yes", "building:levels": "4", "name": "Milk and Honey", "payment:american_express": "no", "source": "Bing", "website": "https://www.mlkhny.com/", "wheelchair": "no", "wikidata": "Q6857969"}}, {"type": "way", "id": 279541955, "nodes": [2837648107, 2837648109, 2837648108, 2837648106, 2837648105, 2837648107], "tags": {"addr:city": "London", "addr:housenumber": "49", "addr:street": "Greek Street", "amenity": "nightclub", "building": "yes", "building:levels": "4", "name": "Club 49", "roof:colour": "grey", "roof:levels": "1", "source": "Bing;photograph"}}, {"type": "way", "id": 288392859, "nodes": [2919533396, 2044232758, 2919533386, 2919533389, 2919533396], "tags": {"addr:housenumber": "4", "addr:street": "Carlisle Street", "amenity": "nightclub", "building": "yes", "name": "Vanity", "old_name": "Candy Bar", "postal_code": "W1D 3BJ", "source": "Bing;photograph", "wikidata": "Q18785262"}}, {"type": "way", "id": 288994615, "nodes": [2925408106, 2925408111, 2925408109, 2925408119, 2925408120, 2925408130, 2925408125, 2925408135, 2925408107, 2925408117, 2925408114, 2925408118, 2925408110, 2925408134, 2925408136, 2925408138, 2925408139, 2925408142, 2925408140, 2925408143, 2925408144, 2925408145, 2925408141, 2925408146, 2925408148, 2925408152, 2925408165, 2925408169, 2925408176, 2925408178, 2925408171, 2925408168, 2925408163, 2925408166, 2925408164, 2925408167, 2925408177, 2925408175, 2925408187, 2925408181, 2925408191, 2925408189, 2925408190, 2925408183, 2925408186, 2925408174, 2925408173, 2925408170, 2925408172, 2925408137, 2925408127, 2925408123, 2925408121, 2925408113, 2925408106], "tags": {"addr:postcode": "SE16 7PJ", "addr:street": "Surrey Quays Road", "amenity": "nightclub", "building": "industrial", "name": "Printworks", "website": "https://printworkslondon.co.uk/", "wikidata": "Q85794560", "wikipedia": "en:Printworks (London)"}}, {"type": "way", "id": 289643423, "nodes": [1823304305, 2931935331, 2931935330, 2931935319, 2931935325, 2931935326, 1823304305], "tags": {"amenity": "nightclub", "building": "yes", "name": "Cafe de Paris", "note": "Appears to be the back of a theatre?", "source": "Bing;photograph", "wikidata": "Q5017277"}}, {"type": "way", "id": 289953462, "nodes": [2933968947, 2933968948, 2933968946, 2097838293, 2097838295, 2097838297, 2933968949, 2933968947], "tags": {"amenity": "nightclub", "level": "0", "name": "The Mayfair Club", "source": "photograph", "website": "http://www.themayfairclub.co.uk/"}}, {"type": "way", "id": 289954045, "nodes": [2934857822, 2934857824, 623314071, 2934857820, 2934857822], "tags": {"addr:city": "London", "addr:housenumber": "1", "addr:postcode": "W1S 4LA", "addr:street": "Dover Street", "amenity": "nightclub", "fhrs:confidence_management": "10", "fhrs:hygiene": "5", "fhrs:id": "414614", "fhrs:local_authority_id": "06/00073/COMM", "fhrs:rating": "3", "fhrs:structural": "10", "level": "-1", "name": "Mahiki", "source:addr": "FSA Food Hygiene Ratings Database", "source:postcode": "FSA Food Hygiene Ratings Database", "website": "https://mahiki.com/", "wheelchair": "no", "wikidata": "Q6733984", "wikipedia": "en:Mahiki"}}, {"type": "way", "id": 326142584, "nodes": [3327570138, 3327570137, 3327570136, 3327570140, 3327570139, 3327570141, 3327570138], "tags": {"amenity": "nightclub", "building": "yes", "name": "Tudor Rose", "wikidata": "Q42212917"}}, {"type": "way", "id": 331438863, "nodes": [3385094983, 3385094984, 2777942600, 3385096401, 3385096416, 3385096417, 3385096418, 368025672, 3385096415, 3385096409, 3385096398, 3385094983], "tags": {"addr:city": "London", "addr:housenumber": "39", "addr:street": "Parry Street", "amenity": "nightclub", "building": "yes", "name": "Fire", "outdoor_seating": "yes", "phone": "+44 20 3242 0040", "postal_code": "SW8 1RT", "smoking": "separated", "toilets": "yes", "toilets:access": "customers", "toilets:female": "yes", "toilets:male": "yes", "toilets:unisex": "no", "toilets:wheelchair": "no", "website": "http://www.firelondon.net", "wheelchair": "no"}}, {"type": "way", "id": 344376769, "nodes": [2520452045, 3511268932, 3511268934, 2520452049, 2520452046, 3511268920, 6141615657, 3511268918, 2520452045], "tags": {"amenity": "nightclub", "name": "The Portland Club", "note": "Also signed as The Aviary Bar"}}, {"type": "way", "id": 380605745, "nodes": [3839219516, 3839219524, 3839219531, 3839219523, 3839219518, 3839219516], "tags": {"addr:city": "London", "addr:country": "GB", "addr:housenumber": "103", "addr:postcode": "SE1 6DP", "addr:street": "Gaunt Street", "amenity": "nightclub", "building": "yes", "building:levels": "1", "contact:email": "info@ministryofsound.com", "contact:phone": "+44 20 7740 8600", "contact:website": "http://www.ministryofsound.com/", "fhrs:id": "521978", "name": "Ministry of Sound", "source:addr": "FHRS Open Data", "wikidata": "Q23087", "wikipedia": "en:Ministry of Sound"}}, {"type": "way", "id": 395184529, "nodes": [3980929266, 3980929268, 3980929269, 3980929267, 3980929266], "tags": {"addr:city": "London", "addr:housenumber": "117", "addr:postcode": "E8 2PB", "addr:street": "Kingsland High Street", "amenity": "nightclub", "building": "yes", "building:colour": "white", "building:levels": "3", "building:material": "plaster", "contact:phone": "+44 20 7254 2273", "contact:website": "http://dalstonsuperstore.com/", "fhrs:id": "470202", "lgbtq": "primary", "name": "Dalston Superstore", "smoking": "outside", "wheelchair": "no"}}, {"type": "way", "id": 432788111, "nodes": [4317424241, 4317424240, 4317424237, 4317424239, 4317424241], "tags": {"addr:city": "Richmond", "addr:postcode": "TW10 6UQ", "addr:street": "Hill Rise", "amenity": "nightclub", "building": "yes", "building:levels": "4", "fhrs:id": "353455", "name": "Viva"}}, {"type": "way", "id": 436262038, "nodes": [4341349337, 9367858395, 4341349338, 4341349339, 9367858396, 9367858397, 9367858398, 9367858399, 4341349340, 4341349341, 9367858400, 4341349342, 4341349343, 1827555859, 9367858393, 9367858392, 9229950303, 4341349344, 4341349337], "tags": {"addr:housenumber": "338", "addr:postcode": "SE10 0PF", "addr:street": "Boord Street", "amenity": "nightclub", "building": "yes", "fhrs:id": "695465", "name": "Studio 338", "roof:shape": "flat"}}, {"type": "way", "id": 451480064, "nodes": [4483141586, 4483141583, 931644239, 4483141584, 4483141586], "tags": {"addr:city": "London", "addr:housenumber": "184", "addr:street": "Camden High Street", "amenity": "nightclub", "building": "retail", "building:colour": "black", "building:levels": "3", "fhrs:id": "424874", "name": "Electric Ballroom", "source:addr": "FSA Food Hygiene Rating Scheme open data", "wheelchair": "limited", "wikidata": "Q5357303", "wikipedia": "en:Electric Ballroom"}}, {"type": "way", "id": 480477253, "nodes": [4734761345, 4734761344, 4734761343, 4734761375, 4734761342, 4734761341, 4734761345], "tags": {"addr:housenumber": "105-109", "addr:postcode": "SW19 1QG", "addr:street": "The Broadway", "amenity": "nightclub", "building": "yes", "name": "CMYK", "website": "https://www.barcmyk.co.uk/"}}, {"type": "way", "id": 586029190, "nodes": [5599806747, 5599806746, 5599805818, 5599806741, 5599806749, 5599806748, 5599806747], "tags": {"addr:city": "London", "addr:housenumber": "Arch 289", "addr:postcode": "E2 9HA", "addr:street": "Cambridge Heath Road", "amenity": "nightclub", "name": "Redon", "website": "http://redonlive.com"}}, {"type": "way", "id": 603966829, "nodes": [5731846831, 5731846829, 5731846993, 5731846994, 5731846834, 5731846836, 5731846835, 5731846832, 5731846833, 5731846831], "tags": {"addr:city": "London", "addr:housenumber": "179", "addr:postcode": "E9 6LH", "addr:street": "Morning Lane", "amenity": "nightclub", "building": "yes", "building:colour": "brown", "building:levels": "3", "building:material": "brick", "contact:instagram": "theglovethatfits", "name": "The Glove That Fits", "roof:colour": "grey", "survey:date": "2021-10-20"}}, {"type": "way", "id": 701595246, "nodes": [6588840431, 6588840432, 6588840433, 6588840434, 6588840431], "tags": {"amenity": "nightclub", "building": "yes", "level": "0", "name": "The Venue", "operator": "Brunel Student Union", "smoking": "outside"}}, {"type": "way", "id": 906775252, "nodes": [8420111473, 8420111479, 8419801536, 8419801537, 8420111480, 8420111481, 8420111482, 8420111487, 8420111490, 8420111483, 8420173223, 8420111484, 8420111485, 8420111486, 8420111476, 8420111475, 8420111474, 8420111473], "tags": {"addr:housenumber": "287", "addr:street": "King's Road", "amenity": "nightclub", "building": "yes", "building:levels": "3", "name": "Raffles Chelsea", "phone": "+44 20 3011 3287", "website": "https://raffleschelsea.com/"}}, {"type": "way", "id": 966309614, "nodes": [8910557790, 8910557789, 8910557788, 8910557787, 8910557786, 8910557785, 8939932907, 8910557790], "tags": {"amenity": "nightclub", "building": "retail", "building:colour": "black", "building:levels": "2", "name": "Pure Lounge Club", "phone": "+44 20 8301 9800", "roof:colour": "grey"}}, {"type": "way", "id": 971050396, "nodes": [1902267378, 8987074423, 8987074424, 8987074425, 8987074426, 8987074427, 8987074428, 8987074429, 1902267378], "tags": {"addr:housenumber": "62", "addr:street": "Glenthorne Road", "amenity": "nightclub", "building": "yes", "building:levels": "2", "description": "formerly Royal Oak pub", "name": "The Secret Lounge", "phone": "+44 20 8563 7974", "roof:levels": "1", "website": "https://www.secrets-clubs.co.uk/our-clubs/hammersmith/"}}, {"type": "way", "id": 1001831573, "nodes": [9246722128, 9246722129, 9246722130, 9246722132, 9246722133, 9246722131, 9246722128], "tags": {"amenity": "nightclub", "building": "yes", "contact:facebook": "https://www.facebook.com/shelterclubldn", "contact:instagram": "shelterclubldn", "name": "Shelter"}}, {"type": "way", "id": 1156173826, "nodes": [10751924154, 10751924159, 10751924160, 10751924161, 10751924162, 10751924154], "tags": {"addr:housenumber": "333", "addr:street": "High Road", "amenity": "nightclub", "building": "yes", "name": "Discoteca No Problem"}}]}